{"type": "FeatureCollection", "features": [{"type": "Feature", "geometry": {"type": "LineString", "coordinates": [[86.46, 10.5], [85.98, 10.26], [85.86, 10.26], [85.74, 10.5], [85.98, 10.74], [85.98, 10.98], [86.46, 11.58], [86.34, 12.18], [86.46, 12.78], [86.22, 13.02], [86.22, 13.74], [86.34, 13.98], [86.46, 14.82], [86.7, 15.78], [86.82, 16.74], [87.06, 17.34], [87.18, 18.18], [87.54, 19.26], [87.78, 20.7], [88.26, 22.02], [88.5, 23.22], [88.5, 23.94]]}, "properties": {"kind": "member_track", "member": 0, "track": 0, "hazard": "tropical_cyclone", "leads_h": [138, 144, 150, 156, 162, 168, 174, 180, 186, 192, 198, 204, 210, 216, 222, 228, 234, 240, 246, 252, 258, 264], "min_msl_hpa": 947.2, "main": true}}, {"type": "Feature", "geometry": {"type": "LineString", "coordinates": [[86.46, 10.5], [85.98, 10.26], [85.86, 10.26], [85.74, 10.5], [85.98, 10.74], [85.98, 10.98], [86.46, 11.58], [86.34, 12.18], [86.46, 12.78], [86.22, 13.02], [86.22, 13.74], [86.34, 13.98], [86.46, 14.82], [86.7, 15.78], [86.82, 16.74], [87.06, 17.34], [87.18, 18.18], [87.54, 19.26], [87.78, 20.7], [88.26, 22.02], [88.5, 23.22], [88.5, 23.94]]}, "properties": {"kind": "consensus", "hazard": "tropical_cyclone", "leads_h": [138, 144, 150, 156, 162, 168, 174, 180, 186, 192, 198, 204, 210, 216, 222, 228, 234, 240, 246, 252, 258, 264], "spread_km": [0.0, 0.0, 0.0, 0.0, 0.0, 0.0, 0.0, 0.0, 0.0, 0.0, 0.0, 0.0, 0.0, 0.0, 0.0, 0.0, 0.0, 0.0, 0.0, 0.0, 0.0, 0.0], "member_count": [1, 1, 1, 1, 1, 1, 1, 1, 1, 1, 1, 1, 1, 1, 1, 1, 1, 1, 1, 1, 1, 1], "n_members": 1}}, {"type": "Feature", "geometry": {"type": "Polygon", "coordinates": [[[82.8, 8.16], [91.92, 8.16], [91.92, 26.4], [82.8, 26.4], [82.8, 8.16]]]}, "properties": {"kind": "bbox4d", "lat_min": 8.16, "lat_max": 26.4, "lon_min": 82.8, "lon_max": 91.92, "level_hPa_bottom": 1013, "level_hPa_top": 850, "t_start": "2020-05-15 18:00:00", "t_end": "2020-05-21 00:00:00", "lead_start_h": 138, "lead_end_h": 264, "member_count_min": 1, "n_members": 1, "hazard": "tropical_cyclone", "source": "GNN consensus"}}]}