{"type": "FeatureCollection", "features": [{"type": "Feature", "geometry": {"type": "LineString", "coordinates": [[79.38, 23.82], [79.38, 23.82], [79.38, 23.82], [79.02, 23.7], [78.66, 23.46], [78.66, 23.46], [78.66, 23.46], [78.54, 23.34], [78.78, 22.74], [78.78, 22.74], [78.78, 22.74], [78.66, 22.74], [79.14, 22.14], [79.14, 22.14], [79.14, 22.14], [79.02, 22.38], [77.94, 23.58], [77.94, 23.58]]}, "properties": {"kind": "member_track", "member": 0, "track": 0, "hazard": "heat_dome", "leads_h": [0, 6, 12, 18, 24, 30, 36, 42, 48, 54, 60, 66, 72, 78, 84, 90, 96, 102], "max_event_prob": 1.0, "main": true}}, {"type": "Feature", "geometry": {"type": "LineString", "coordinates": [[79.38, 24.3], [79.38, 24.3], [79.38, 24.3], [79.14, 23.94], [78.66, 23.58], [78.66, 23.58], [78.66, 23.58], [78.42, 23.22], [78.66, 22.74], [78.66, 22.74], [78.66, 22.74], [78.54, 22.98], [79.14, 22.74], [79.14, 22.74], [79.14, 22.74], [78.3, 22.62], [77.94, 21.66], [77.94, 21.66], [77.94, 21.66]]}, "properties": {"kind": "member_track", "member": 1, "track": 0, "hazard": "heat_dome", "leads_h": [0, 6, 12, 18, 24, 30, 36, 42, 48, 54, 60, 66, 72, 78, 84, 90, 96, 102, 108], "max_event_prob": 1.0, "main": true}}, {"type": "Feature", "geometry": {"type": "LineString", "coordinates": [[79.26, 24.42], [79.26, 24.42], [79.26, 24.42], [78.9, 24.42], [78.54, 23.82], [78.54, 23.82], [78.54, 23.82], [78.42, 23.82], [78.54, 23.22], [78.54, 23.22], [78.54, 23.22], [78.06, 23.46]]}, "properties": {"kind": "member_track", "member": 2, "track": 0, "hazard": "heat_dome", "leads_h": [0, 6, 12, 18, 24, 30, 36, 42, 48, 54, 60, 66], "max_event_prob": 1.0, "main": true}}, {"type": "Feature", "geometry": {"type": "LineString", "coordinates": [[79.38, 24.3], [79.38, 24.3], [79.38, 24.3], [79.62, 24.3], [79.62, 23.94], [79.62, 23.94], [79.62, 23.94], [79.14, 23.94], [79.02, 23.46], [79.02, 23.46], [79.02, 23.46], [78.78, 23.7], [78.66, 23.82], [78.66, 23.82], [78.66, 23.82], [78.3, 23.94], [78.42, 24.18], [78.42, 24.18], [78.42, 24.18], [78.66, 24.9]]}, "properties": {"kind": "member_track", "member": 3, "track": 0, "hazard": "heat_dome", "leads_h": [0, 6, 12, 18, 24, 30, 36, 42, 48, 54, 60, 66, 72, 78, 84, 90, 96, 102, 108, 114], "max_event_prob": 1.0, "main": true}}, {"type": "Feature", "geometry": {"type": "LineString", "coordinates": [[79.5, 24.42], [79.5, 24.42], [79.5, 24.42], [79.26, 24.42], [78.9, 24.06], [78.9, 24.06], [78.9, 24.06], [78.66, 24.06], [78.54, 23.94], [78.54, 23.94], [78.54, 23.94], [78.54, 24.06], [79.5, 23.7], [79.5, 23.7], [79.5, 23.7], [79.14, 23.82], [77.7, 24.9], [77.7, 24.9], [77.7, 24.9], [77.22, 26.22]]}, "properties": {"kind": "member_track", "member": 4, "track": 0, "hazard": "heat_dome", "leads_h": [0, 6, 12, 18, 24, 30, 36, 42, 48, 54, 60, 66, 72, 78, 84, 90, 96, 102, 108, 114], "max_event_prob": 1.0, "main": true}}, {"type": "Feature", "geometry": {"type": "LineString", "coordinates": [[78.9, 24.3], [78.9, 24.3], [78.9, 24.3], [78.66, 23.94], [78.42, 23.58], [78.42, 23.58], [78.42, 23.58], [78.18, 23.46], [78.3, 22.98], [78.3, 22.98], [78.3, 22.98], [78.06, 22.98], [78.06, 22.62], [78.06, 22.62], [78.06, 22.62], [77.58, 23.1]]}, "properties": {"kind": "member_track", "member": 5, "track": 0, "hazard": "heat_dome", "leads_h": [0, 6, 12, 18, 24, 30, 36, 42, 48, 54, 60, 66, 72, 78, 84, 90], "max_event_prob": 1.0, "main": true}}, {"type": "Feature", "geometry": {"type": "LineString", "coordinates": [[79.38, 24.06], [79.38, 24.06], [79.38, 24.06], [79.38, 23.94], [79.14, 23.58], [79.14, 23.58], [79.14, 23.58], [79.02, 23.34], [78.78, 23.1], [78.78, 23.1], [78.78, 23.1], [78.66, 23.1], [79.86, 22.02], [79.86, 22.02], [79.86, 22.02], [79.38, 21.9], [78.3, 22.38], [78.3, 22.38], [78.3, 22.38], [78.06, 22.86]]}, "properties": {"kind": "member_track", "member": 6, "track": 0, "hazard": "heat_dome", "leads_h": [0, 6, 12, 18, 24, 30, 36, 42, 48, 54, 60, 66, 72, 78, 84, 90, 96, 102, 108, 114], "max_event_prob": 1.0, "main": true}}, {"type": "Feature", "geometry": {"type": "LineString", "coordinates": [[79.26, 24.42], [79.26, 24.42], [79.26, 24.42], [78.9, 24.18], [78.66, 23.94], [78.66, 23.94], [78.66, 23.94], [78.54, 23.94], [78.54, 23.7], [78.54, 23.7], [78.54, 23.7], [78.54, 23.82], [79.62, 23.46], [79.62, 23.46], [79.62, 23.46], [80.22, 23.58], [80.34, 23.58], [80.34, 23.58], [80.34, 23.58], [78.06, 24.78]]}, "properties": {"kind": "member_track", "member": 7, "track": 0, "hazard": "heat_dome", "leads_h": [0, 6, 12, 18, 24, 30, 36, 42, 48, 54, 60, 66, 72, 78, 84, 90, 96, 102, 108, 114], "max_event_prob": 1.0, "main": true}}, {"type": "Feature", "geometry": {"type": "LineString", "coordinates": [[79.14, 24.42], [79.14, 24.42], [79.14, 24.42], [79.02, 24.3], [79.02, 23.94], [79.02, 23.94], [79.02, 23.94], [78.9, 23.94], [77.94, 23.7], [77.94, 23.7], [77.94, 23.7], [77.82, 23.82], [78.78, 23.7], [78.78, 23.7], [78.78, 23.7], [78.18, 24.3], [77.22, 25.74], [77.22, 25.74], [77.22, 25.74]]}, "properties": {"kind": "member_track", "member": 8, "track": 0, "hazard": "heat_dome", "leads_h": [0, 6, 12, 18, 24, 30, 36, 42, 48, 54, 60, 66, 72, 78, 84, 90, 96, 102, 108], "max_event_prob": 1.0, "main": true}}, {"type": "Feature", "geometry": {"type": "LineString", "coordinates": [[79.74, 24.18], [79.74, 24.18], [79.74, 24.18], [79.38, 24.18], [78.9, 23.94], [78.9, 23.94], [78.9, 23.94], [78.78, 23.94], [78.78, 23.7], [78.78, 23.7], [78.78, 23.7], [78.66, 23.82], [79.26, 23.7], [79.26, 23.7], [79.26, 23.7], [80.1, 23.82], [80.58, 24.66], [80.58, 24.66], [80.58, 24.66], [79.74, 25.14]]}, "properties": {"kind": "member_track", "member": 9, "track": 0, "hazard": "heat_dome", "leads_h": [0, 6, 12, 18, 24, 30, 36, 42, 48, 54, 60, 66, 72, 78, 84, 90, 96, 102, 108, 114], "max_event_prob": 1.0, "main": true}}, {"type": "Feature", "geometry": {"type": "LineString", "coordinates": [[79.38, 24.54], [79.38, 24.54], [79.38, 24.54], [79.14, 24.54], [78.78, 24.06], [78.78, 24.06], [78.78, 24.06], [78.54, 23.82], [78.3, 23.82], [78.3, 23.82], [78.3, 23.82], [78.18, 24.06], [79.5, 24.54], [79.5, 24.54], [79.5, 24.54], [78.66, 24.66], [77.58, 24.54], [77.58, 24.54], [77.58, 24.54], [78.18, 24.78], [76.38, 20.22], [76.38, 20.22]]}, "properties": {"kind": "member_track", "member": 10, "track": 0, "hazard": "heat_dome", "leads_h": [0, 6, 12, 18, 24, 30, 36, 42, 48, 54, 60, 66, 72, 78, 84, 90, 96, 102, 108, 114, 120, 126], "max_event_prob": 1.0, "main": true}}, {"type": "Feature", "geometry": {"type": "LineString", "coordinates": [[79.26, 24.42], [79.26, 24.42], [79.26, 24.42], [79.02, 24.3], [78.66, 24.18], [78.66, 24.18], [78.66, 24.18], [78.42, 24.06], [78.78, 23.46], [78.78, 23.46], [78.78, 23.46], [78.78, 23.7], [79.98, 23.7], [79.98, 23.7], [79.98, 23.7], [79.62, 23.82], [79.26, 24.42], [79.26, 24.42], [79.26, 24.42], [76.86, 25.26]]}, "properties": {"kind": "member_track", "member": 11, "track": 0, "hazard": "heat_dome", "leads_h": [0, 6, 12, 18, 24, 30, 36, 42, 48, 54, 60, 66, 72, 78, 84, 90, 96, 102, 108, 114], "max_event_prob": 1.0, "main": true}}, {"type": "Feature", "geometry": {"type": "LineString", "coordinates": [[79.62, 24.3], [79.62, 24.3], [79.62, 24.3], [79.38, 24.18], [79.14, 23.94], [79.14, 23.94], [79.14, 23.94], [79.02, 23.82], [78.42, 23.82], [78.42, 23.82], [78.42, 23.82], [79.26, 23.94], [80.46, 23.82], [80.46, 23.82], [80.46, 23.82], [80.22, 23.94], [79.98, 23.94], [79.98, 23.94], [79.98, 23.94]]}, "properties": {"kind": "member_track", "member": 12, "track": 0, "hazard": "heat_dome", "leads_h": [0, 6, 12, 18, 24, 30, 36, 42, 48, 54, 60, 66, 72, 78, 84, 90, 96, 102, 108], "max_event_prob": 1.0, "main": true}}, {"type": "Feature", "geometry": {"type": "LineString", "coordinates": [[79.26, 24.66], [79.26, 24.66], [79.26, 24.66], [79.38, 24.66], [79.02, 24.54], [79.02, 24.54], [79.02, 24.54], [78.9, 24.54], [79.14, 24.3], [79.14, 24.3], [79.14, 24.3], [79.98, 24.3], [80.94, 23.82], [80.94, 23.82], [80.94, 23.82], [80.22, 24.06], [79.14, 25.14], [79.14, 25.14], [79.14, 25.14], [77.22, 25.86]]}, "properties": {"kind": "member_track", "member": 13, "track": 0, "hazard": "heat_dome", "leads_h": [0, 6, 12, 18, 24, 30, 36, 42, 48, 54, 60, 66, 72, 78, 84, 90, 96, 102, 108, 114], "max_event_prob": 1.0, "main": true}}, {"type": "Feature", "geometry": {"type": "LineString", "coordinates": [[79.74, 24.42], [79.74, 24.42], [79.74, 24.42], [79.62, 24.42], [79.02, 24.54], [79.02, 24.54], [79.02, 24.54], [78.78, 24.54], [79.98, 24.3], [79.98, 24.3], [79.98, 24.3], [80.1, 24.42], [81.18, 24.18], [81.18, 24.18], [81.18, 24.18], [79.26, 24.42], [78.54, 27.54], [78.54, 27.54], [78.54, 27.54]]}, "properties": {"kind": "member_track", "member": 14, "track": 0, "hazard": "heat_dome", "leads_h": [0, 6, 12, 18, 24, 30, 36, 42, 48, 54, 60, 66, 72, 78, 84, 90, 96, 102, 108], "max_event_prob": 1.0, "main": true}}, {"type": "Feature", "geometry": {"type": "LineString", "coordinates": [[79.26, 24.42], [79.26, 24.42], [79.26, 24.42], [79.02, 24.3], [78.78, 23.94], [78.78, 23.94], [78.78, 23.94], [78.78, 24.06], [78.66, 23.94], [78.66, 23.94], [78.66, 23.94], [78.54, 23.94], [79.14, 23.58], [79.14, 23.58], [79.14, 23.58], [78.78, 23.46], [77.34, 23.7], [77.34, 23.7], [77.34, 23.7]]}, "properties": {"kind": "member_track", "member": 15, "track": 0, "hazard": "heat_dome", "leads_h": [0, 6, 12, 18, 24, 30, 36, 42, 48, 54, 60, 66, 72, 78, 84, 90, 96, 102, 108], "max_event_prob": 1.0, "main": true}}, {"type": "Feature", "geometry": {"type": "LineString", "coordinates": [[79.26, 24.42], [79.26, 24.42], [79.26, 24.42], [79.02, 24.3], [78.66, 23.94], [78.66, 23.94], [78.66, 23.94], [78.42, 24.06], [77.82, 24.06], [77.82, 24.06], [77.82, 24.06], [77.82, 24.18], [78.06, 23.94], [78.06, 23.94], [78.06, 23.94], [77.94, 24.18], [77.7, 24.42], [77.7, 24.42], [77.7, 24.42], [77.46, 24.9]]}, "properties": {"kind": "member_track", "member": 16, "track": 0, "hazard": "heat_dome", "leads_h": [0, 6, 12, 18, 24, 30, 36, 42, 48, 54, 60, 66, 72, 78, 84, 90, 96, 102, 108, 114], "max_event_prob": 1.0, "main": true}}, {"type": "Feature", "geometry": {"type": "LineString", "coordinates": [[79.38, 24.18], [79.38, 24.18], [79.38, 24.18], [79.14, 23.82], [79.26, 23.22], [79.26, 23.22], [79.26, 23.22], [79.14, 22.98], [78.66, 22.74], [78.66, 22.74], [78.66, 22.74], [78.66, 22.74], [80.34, 22.62], [80.34, 22.62], [80.34, 22.62], [80.22, 22.86], [80.1, 23.34], [80.1, 23.34], [80.1, 23.34], [79.02, 23.94]]}, "properties": {"kind": "member_track", "member": 17, "track": 0, "hazard": "heat_dome", "leads_h": [0, 6, 12, 18, 24, 30, 36, 42, 48, 54, 60, 66, 72, 78, 84, 90, 96, 102, 108, 114], "max_event_prob": 1.0, "main": true}}, {"type": "Feature", "geometry": {"type": "LineString", "coordinates": [[79.26, 24.18], [79.26, 24.18], [79.26, 24.18], [78.9, 24.18], [78.54, 23.82], [78.54, 23.82], [78.54, 23.82], [78.42, 23.94], [78.3, 23.82], [78.3, 23.82], [78.3, 23.82], [77.94, 23.94], [77.94, 24.06], [77.94, 24.06], [77.94, 24.06], [77.7, 24.42], [77.1, 25.62], [77.1, 25.62], [77.1, 25.62], [77.34, 25.98]]}, "properties": {"kind": "member_track", "member": 18, "track": 0, "hazard": "heat_dome", "leads_h": [0, 6, 12, 18, 24, 30, 36, 42, 48, 54, 60, 66, 72, 78, 84, 90, 96, 102, 108, 114], "max_event_prob": 1.0, "main": true}}, {"type": "Feature", "geometry": {"type": "LineString", "coordinates": [[79.5, 24.18], [79.5, 24.18], [79.5, 24.18], [79.26, 24.06], [79.14, 23.58], [79.14, 23.58], [79.14, 23.58], [79.02, 23.46], [79.02, 23.22], [79.02, 23.22], [79.02, 23.22], [79.02, 23.1], [79.02, 22.98], [79.02, 22.98], [79.02, 22.98], [79.62, 23.1], [79.26, 23.46], [79.26, 23.46], [79.26, 23.46], [78.3, 24.06]]}, "properties": {"kind": "member_track", "member": 19, "track": 0, "hazard": "heat_dome", "leads_h": [0, 6, 12, 18, 24, 30, 36, 42, 48, 54, 60, 66, 72, 78, 84, 90, 96, 102, 108, 114], "max_event_prob": 1.0, "main": true}}, {"type": "Feature", "geometry": {"type": "LineString", "coordinates": [[79.362, 24.31800000000001], [79.362, 24.31800000000001], [79.362, 24.31800000000001], [79.15799999999999, 24.204000000000004], [78.876, 23.880000000000003], [78.876, 23.880000000000003], [78.876, 23.880000000000003], [78.702, 23.814], [78.648, 23.538], [78.648, 23.538], [78.648, 23.538], [78.62999999999998, 23.64], [79.39894736842106, 23.428421052631577], [79.39894736842106, 23.428421052631577], [79.39894736842106, 23.428421052631577], [79.07684210526315, 23.598947368421054], [78.57999999999998, 24.266666666666666], [78.57999999999998, 24.266666666666666], [78.61764705882354, 24.30705882352941], [78.01, 24.89], [76.38, 20.22], [76.38, 20.22]]}, "properties": {"kind": "consensus", "hazard": "heat_dome", "leads_h": [0, 6, 12, 18, 24, 30, 36, 42, 48, 54, 60, 66, 72, 78, 84, 90, 96, 102, 108, 114, 120, 126], "spread_km": [24.1, 24.1, 24.1, 33.4, 40.2, 40.2, 40.2, 46.4, 61.8, 61.8, 61.8, 72.5, 105.6, 105.6, 105.6, 113.9, 161.1, 161.1, 164.8, 113.7, 0.0, 0.0], "member_count": [20, 20, 20, 20, 20, 20, 20, 20, 20, 20, 20, 20, 19, 19, 19, 19, 18, 18, 17, 12, 1, 1], "n_members": 20}}, {"type": "Feature", "geometry": {"type": "Polygon", "coordinates": [[[67.44, 10.92], [91.92, 10.92], [91.92, 35.28], [67.44, 35.28], [67.44, 10.92]]]}, "properties": {"kind": "bbox4d", "lat_min": 10.92, "lat_max": 35.28, "lon_min": 67.44, "lon_max": 91.92, "level_hPa_bottom": 1013, "level_hPa_top": 1013, "t_start": "2024-05-29 00:00:00", "t_end": "2024-06-02 18:00:00", "lead_start_h": 0, "lead_end_h": 114, "member_count_min": 12, "n_members": 20, "hazard": "heat_dome", "source": "GNN consensus"}}]}