{"type": "FeatureCollection", "features": [{"type": "Feature", "geometry": {"type": "LineString", "coordinates": [[65.46, 14.46], [65.1, 14.46], [64.74, 14.58], [64.26, 14.94], [64.14, 15.54], [63.9, 15.42], [63.66, 15.66], [62.82, 16.26], [62.58, 16.5], [61.86, 16.74], [61.5, 17.58], [60.9, 17.7], [60.66, 19.74]]}, "properties": {"kind": "member_track", "member": 0, "track": 0, "hazard": "tropical_cyclone", "leads_h": [6, 12, 18, 24, 30, 36, 42, 48, 54, 60, 66, 72, 78], "min_msl_hpa": 977.6, "main": true}}, {"type": "Feature", "geometry": {"type": "LineString", "coordinates": [[60.78, 23.82], [61.02, 24.18], [61.38, 23.94], [61.74, 24.66], [63.66, 23.46], [66.66, 24.06], [68.22, 25.02], [70.38, 26.46], [72.42, 27.42]]}, "properties": {"kind": "member_track", "member": 0, "track": 1, "hazard": "tropical_cyclone", "leads_h": [138, 144, 150, 156, 162, 174, 180, 186, 192], "min_msl_hpa": 957.8, "main": false}}, {"type": "Feature", "geometry": {"type": "LineString", "coordinates": [[65.58, 14.58], [65.1, 14.46], [64.86, 14.82], [64.74, 14.94], [64.62, 15.54], [64.38, 15.66], [64.02, 15.54], [63.18, 16.26], [62.58, 16.62], [62.22, 16.98], [61.86, 17.7], [61.5, 17.94]]}, "properties": {"kind": "member_track", "member": 1, "track": 0, "hazard": "tropical_cyclone", "leads_h": [6, 12, 18, 24, 30, 36, 42, 48, 54, 60, 66, 72], "min_msl_hpa": 984.9, "main": true}}, {"type": "Feature", "geometry": {"type": "LineString", "coordinates": [[60.54, 24.18], [60.42, 24.78], [61.14, 24.3], [62.22, 23.94], [64.26, 24.06], [66.66, 24.54], [67.98, 24.9], [69.3, 25.98]]}, "properties": {"kind": "member_track", "member": 1, "track": 1, "hazard": "tropical_cyclone", "leads_h": [138, 144, 150, 156, 162, 168, 174, 180], "min_msl_hpa": 972.3, "main": false}}, {"type": "Feature", "geometry": {"type": "LineString", "coordinates": [[65.1, 14.1], [64.62, 13.98], [64.38, 13.98], [63.78, 14.22], [63.66, 14.7], [63.06, 14.7], [62.94, 14.7], [62.46, 15.06], [61.86, 15.42], [61.14, 15.66], [60.42, 15.9], [60.06, 16.26]]}, "properties": {"kind": "member_track", "member": 2, "track": 0, "hazard": "tropical_cyclone", "leads_h": [6, 12, 18, 24, 30, 36, 42, 48, 54, 60, 66, 72], "min_msl_hpa": 993.7, "main": true}}, {"type": "Feature", "geometry": {"type": "LineString", "coordinates": [[61.14, 20.7], [62.34, 21.3], [64.02, 21.06], [65.7, 21.66]]}, "properties": {"kind": "member_track", "member": 2, "track": 1, "hazard": "tropical_cyclone", "leads_h": [162, 168, 174, 180], "min_msl_hpa": 987.6, "main": false}}, {"type": "Feature", "geometry": {"type": "LineString", "coordinates": [[65.46, 15.06], [64.98, 15.18], [64.86, 15.54], [64.62, 16.5], [64.38, 16.5], [64.14, 17.1], [63.78, 17.58], [63.3, 18.06], [62.58, 18.54], [61.74, 19.5], [61.5, 19.74]]}, "properties": {"kind": "member_track", "member": 3, "track": 0, "hazard": "tropical_cyclone", "leads_h": [12, 18, 24, 30, 36, 42, 48, 54, 60, 66, 72], "min_msl_hpa": 981.1, "main": true}}, {"type": "Feature", "geometry": {"type": "LineString", "coordinates": [[61.74, 26.7], [62.46, 27.06], [63.06, 27.18], [64.26, 27.42], [65.82, 27.54], [67.02, 27.3], [68.94, 28.02], [70.74, 28.98], [71.94, 30.3], [74.94, 31.62]]}, "properties": {"kind": "member_track", "member": 3, "track": 1, "hazard": "tropical_cyclone", "leads_h": [138, 144, 150, 156, 162, 168, 174, 180, 186, 192], "min_msl_hpa": 966.1, "main": false}}, {"type": "Feature", "geometry": {"type": "LineString", "coordinates": [[65.58, 14.58], [65.1, 14.82], [64.86, 14.94], [64.5, 15.42], [64.38, 16.14], [64.14, 16.26], [64.02, 16.62], [63.3, 17.34], [62.82, 17.82], [62.34, 18.3], [61.62, 18.66], [61.5, 18.66]]}, "properties": {"kind": "member_track", "member": 4, "track": 0, "hazard": "tropical_cyclone", "leads_h": [6, 12, 18, 24, 30, 36, 42, 48, 54, 60, 66, 72], "min_msl_hpa": 984.9, "main": true}}, {"type": "Feature", "geometry": {"type": "LineString", "coordinates": [[60.06, 25.74], [60.42, 25.5], [61.38, 25.74], [62.22, 25.5], [62.82, 24.66], [65.1, 25.86], [66.18, 25.62], [68.34, 27.06], [70.5, 28.26]]}, "properties": {"kind": "member_track", "member": 4, "track": 1, "hazard": "tropical_cyclone", "leads_h": [138, 144, 150, 156, 162, 168, 174, 180, 186], "min_msl_hpa": 971.0, "main": false}}, {"type": "Feature", "geometry": {"type": "LineString", "coordinates": [[64.98, 14.22], [64.5, 14.1], [63.9, 14.22], [63.66, 14.7], [63.42, 15.06], [62.94, 15.3], [62.7, 15.06], [62.1, 15.66], [61.86, 16.02], [61.02, 16.62], [60.66, 17.22], [60.06, 17.46]]}, "properties": {"kind": "member_track", "member": 5, "track": 0, "hazard": "tropical_cyclone", "leads_h": [6, 12, 18, 24, 30, 36, 42, 48, 54, 60, 66, 72], "min_msl_hpa": 988.8, "main": true}}, {"type": "Feature", "geometry": {"type": "LineString", "coordinates": [[65.46, 14.1], [65.22, 13.98], [65.1, 13.98], [64.74, 14.34], [64.38, 14.94], [64.26, 15.06], [64.02, 15.18], [63.42, 15.9], [62.94, 16.14], [62.1, 16.38], [61.74, 16.74], [61.74, 16.98]]}, "properties": {"kind": "member_track", "member": 6, "track": 0, "hazard": "tropical_cyclone", "leads_h": [6, 12, 18, 24, 30, 36, 42, 48, 54, 60, 66, 72], "min_msl_hpa": 978.0, "main": true}}, {"type": "Feature", "geometry": {"type": "LineString", "coordinates": [[61.5, 21.9], [61.86, 22.14], [62.46, 21.42], [62.82, 21.3], [63.9, 21.06], [66.06, 21.06], [68.58, 21.9], [71.94, 24.06]]}, "properties": {"kind": "member_track", "member": 6, "track": 1, "hazard": "tropical_cyclone", "leads_h": [138, 144, 150, 156, 162, 168, 174, 186], "min_msl_hpa": 946.5, "main": false}}, {"type": "Feature", "geometry": {"type": "LineString", "coordinates": [[70.14, 22.38], [74.94, 24.66]]}, "properties": {"kind": "member_track", "member": 6, "track": 2, "hazard": "tropical_cyclone", "leads_h": [180, 192], "min_msl_hpa": 974.6, "main": false}}, {"type": "Feature", "geometry": {"type": "LineString", "coordinates": [[64.98, 14.82], [64.5, 14.94], [64.14, 15.18], [63.54, 15.54], [62.94, 16.14], [62.46, 16.38], [62.22, 16.38], [61.62, 17.22], [61.14, 17.46], [60.18, 17.94]]}, "properties": {"kind": "member_track", "member": 7, "track": 0, "hazard": "tropical_cyclone", "leads_h": [6, 12, 18, 24, 30, 36, 42, 48, 54, 60], "min_msl_hpa": 994.5, "main": true}}, {"type": "Feature", "geometry": {"type": "LineString", "coordinates": [[65.34, 14.46], [64.62, 14.7], [64.38, 14.7], [63.78, 15.18], [63.42, 15.78], [63.3, 15.9], [62.94, 15.9], [62.34, 16.5], [61.86, 16.98], [61.5, 17.46], [60.9, 17.94], [60.78, 18.18]]}, "properties": {"kind": "member_track", "member": 8, "track": 0, "hazard": "tropical_cyclone", "leads_h": [6, 12, 18, 24, 30, 36, 42, 48, 54, 60, 66, 72], "min_msl_hpa": 980.6, "main": true}}, {"type": "Feature", "geometry": {"type": "LineString", "coordinates": [[60.3, 25.5], [61.02, 25.38], [61.5, 25.38], [61.98, 24.66], [64.26, 24.66], [67.26, 26.22], [71.7, 29.34]]}, "properties": {"kind": "member_track", "member": 8, "track": 1, "hazard": "tropical_cyclone", "leads_h": [138, 144, 150, 156, 168, 180, 192], "min_msl_hpa": 957.7, "main": false}}, {"type": "Feature", "geometry": {"type": "LineString", "coordinates": [[62.82, 24.66], [65.7, 25.14], [69.18, 27.78]]}, "properties": {"kind": "member_track", "member": 8, "track": 2, "hazard": "tropical_cyclone", "leads_h": [162, 174, 186], "min_msl_hpa": 959.6, "main": false}}, {"type": "Feature", "geometry": {"type": "LineString", "coordinates": [[64.74, 14.46], [64.26, 14.58], [64.02, 15.06], [63.78, 15.78], [63.3, 15.9], [63.18, 15.9], [62.58, 16.5], [62.1, 16.86], [61.5, 17.34], [60.78, 17.46], [60.54, 17.94]]}, "properties": {"kind": "member_track", "member": 9, "track": 0, "hazard": "tropical_cyclone", "leads_h": [12, 18, 24, 30, 36, 42, 48, 54, 60, 66, 72], "min_msl_hpa": 986.9, "main": true}}, {"type": "Feature", "geometry": {"type": "LineString", "coordinates": [[60.06, 23.22], [60.3, 23.82], [61.02, 23.34], [61.98, 23.7], [63.42, 23.58], [66.54, 24.18]]}, "properties": {"kind": "member_track", "member": 9, "track": 1, "hazard": "tropical_cyclone", "leads_h": [138, 144, 150, 156, 162, 174], "min_msl_hpa": 979.4, "main": false}}, {"type": "Feature", "geometry": {"type": "LineString", "coordinates": [[65.46, 23.82], [68.34, 24.66], [69.18, 25.5]]}, "properties": {"kind": "member_track", "member": 9, "track": 2, "hazard": "tropical_cyclone", "leads_h": [168, 180, 186], "min_msl_hpa": 978.4, "main": false}}, {"type": "Feature", "geometry": {"type": "LineString", "coordinates": [[65.7, 14.46], [65.22, 14.22], [65.1, 14.22], [64.86, 14.7], [64.62, 15.3], [64.62, 15.18], [64.38, 15.06], [64.02, 15.42], [63.54, 16.26], [62.82, 16.62], [62.1, 16.86], [61.74, 16.98]]}, "properties": {"kind": "member_track", "member": 10, "track": 0, "hazard": "tropical_cyclone", "leads_h": [6, 12, 18, 24, 30, 36, 42, 48, 54, 60, 66, 72], "min_msl_hpa": 983.2, "main": true}}, {"type": "Feature", "geometry": {"type": "LineString", "coordinates": [[62.22, 22.5], [62.82, 23.34], [63.54, 22.86], [64.26, 22.98], [65.34, 22.14], [67.26, 22.5], [69.3, 22.62], [71.34, 23.34], [73.14, 25.5]]}, "properties": {"kind": "member_track", "member": 10, "track": 1, "hazard": "tropical_cyclone", "leads_h": [138, 144, 150, 156, 162, 168, 174, 180, 186], "min_msl_hpa": 970.0, "main": false}}, {"type": "Feature", "geometry": {"type": "LineString", "coordinates": [[65.58, 14.82], [65.46, 15.06], [65.22, 15.42], [64.86, 15.78], [64.5, 16.5], [64.02, 16.74], [63.9, 16.86], [63.54, 17.94], [62.82, 18.42], [62.46, 19.26], [61.98, 19.74], [62.1, 19.74]]}, "properties": {"kind": "member_track", "member": 11, "track": 0, "hazard": "tropical_cyclone", "leads_h": [6, 12, 18, 24, 30, 36, 42, 48, 54, 60, 66, 72], "min_msl_hpa": 982.3, "main": true}}, {"type": "Feature", "geometry": {"type": "LineString", "coordinates": [[62.7, 26.1], [63.78, 26.46], [65.22, 26.7], [66.3, 27.3], [67.74, 27.3], [69.3, 28.5], [71.1, 29.1], [72.66, 29.82], [73.74, 31.26], [75.78, 31.86]]}, "properties": {"kind": "member_track", "member": 11, "track": 1, "hazard": "tropical_cyclone", "leads_h": [138, 144, 150, 156, 162, 168, 174, 180, 186, 192], "min_msl_hpa": 964.1, "main": false}}, {"type": "Feature", "geometry": {"type": "LineString", "coordinates": [[65.22, 14.34], [64.86, 14.46], [64.38, 14.46], [64.02, 14.94], [63.78, 15.54], [63.54, 15.42], [63.42, 15.54], [62.58, 16.26], [61.86, 16.74], [61.02, 16.98], [60.42, 17.22], [60.42, 17.1]]}, "properties": {"kind": "member_track", "member": 12, "track": 0, "hazard": "tropical_cyclone", "leads_h": [6, 12, 18, 24, 30, 36, 42, 48, 54, 60, 66, 72], "min_msl_hpa": 984.1, "main": true}}, {"type": "Feature", "geometry": {"type": "LineString", "coordinates": [[60.06, 23.34], [60.18, 23.94], [60.3, 24.54], [61.02, 24.06], [62.22, 23.22], [63.9, 23.7], [65.7, 23.82], [66.54, 24.3], [68.58, 26.46]]}, "properties": {"kind": "member_track", "member": 12, "track": 1, "hazard": "tropical_cyclone", "leads_h": [138, 144, 150, 156, 162, 168, 174, 180, 186], "min_msl_hpa": 968.0, "main": false}}, {"type": "Feature", "geometry": {"type": "LineString", "coordinates": [[66.06, 14.46], [66.06, 14.46], [66.06, 14.46], [65.7, 15.06], [65.94, 15.54], [65.94, 15.66], [65.7, 15.78], [65.58, 16.5], [65.34, 16.86], [65.1, 17.22], [64.74, 17.58], [64.74, 17.58]]}, "properties": {"kind": "member_track", "member": 13, "track": 0, "hazard": "tropical_cyclone", "leads_h": [6, 12, 18, 24, 30, 36, 42, 48, 54, 60, 66, 72], "min_msl_hpa": 982.1, "main": true}}, {"type": "Feature", "geometry": {"type": "LineString", "coordinates": [[87.78, 14.34], [87.78, 14.34], [87.9, 14.46], [87.78, 14.58], [87.66, 14.7], [87.54, 14.82]]}, "properties": {"kind": "member_track", "member": 13, "track": 1, "hazard": "tropical_cyclone", "leads_h": [84, 90, 96, 108, 120, 126], "min_msl_hpa": 985.1, "main": false}}, {"type": "Feature", "geometry": {"type": "LineString", "coordinates": [[87.78, 14.34], [87.78, 14.58]]}, "properties": {"kind": "member_track", "member": 13, "track": 2, "hazard": "tropical_cyclone", "leads_h": [102, 114], "min_msl_hpa": 986.0, "main": false}}, {"type": "Feature", "geometry": {"type": "LineString", "coordinates": [[66.54, 22.86], [67.26, 22.26], [67.5, 22.5], [68.46, 22.86], [69.9, 22.98], [71.34, 23.34], [74.1, 23.46], [74.82, 24.3], [76.86, 26.22], [79.74, 26.34]]}, "properties": {"kind": "member_track", "member": 13, "track": 3, "hazard": "tropical_cyclone", "leads_h": [138, 144, 150, 156, 162, 168, 174, 180, 186, 192], "min_msl_hpa": 956.5, "main": false}}, {"type": "Feature", "geometry": {"type": "LineString", "coordinates": [[65.7, 14.46], [65.34, 14.34], [64.98, 14.34], [64.62, 14.58], [64.5, 14.82], [64.38, 14.7], [64.38, 14.94], [63.9, 15.42], [63.54, 15.78], [62.7, 16.38], [62.1, 16.62], [61.98, 16.98]]}, "properties": {"kind": "member_track", "member": 14, "track": 0, "hazard": "tropical_cyclone", "leads_h": [6, 12, 18, 24, 30, 36, 42, 48, 54, 60, 66, 72], "min_msl_hpa": 972.9, "main": true}}, {"type": "Feature", "geometry": {"type": "LineString", "coordinates": [[62.82, 22.74], [63.66, 23.7], [63.42, 23.82], [64.38, 24.06], [66.18, 23.34], [68.46, 24.66], [73.14, 25.98], [76.74, 25.98]]}, "properties": {"kind": "member_track", "member": 14, "track": 1, "hazard": "tropical_cyclone", "leads_h": [138, 144, 150, 156, 162, 174, 186, 192], "min_msl_hpa": 928.0, "main": false}}, {"type": "Feature", "geometry": {"type": "LineString", "coordinates": [[67.86, 24.42], [70.86, 24.78]]}, "properties": {"kind": "member_track", "member": 14, "track": 2, "hazard": "tropical_cyclone", "leads_h": [168, 180], "min_msl_hpa": 929.7, "main": false}}, {"type": "Feature", "geometry": {"type": "LineString", "coordinates": [[65.22, 14.7], [65.1, 14.7], [64.38, 14.94], [64.02, 15.54], [63.66, 16.14], [63.42, 16.14], [62.82, 16.14], [62.46, 16.74], [61.62, 16.86], [61.14, 17.58], [60.54, 17.94], [60.06, 18.06]]}, "properties": {"kind": "member_track", "member": 15, "track": 0, "hazard": "tropical_cyclone", "leads_h": [6, 12, 18, 24, 30, 36, 42, 48, 54, 60, 66, 72], "min_msl_hpa": 982.4, "main": true}}, {"type": "Feature", "geometry": {"type": "LineString", "coordinates": [[60.06, 24.9], [60.06, 24.66], [60.9, 24.54], [62.7, 23.82], [64.38, 24.18], [65.46, 24.66], [66.78, 25.26], [67.98, 27.06]]}, "properties": {"kind": "member_track", "member": 15, "track": 1, "hazard": "tropical_cyclone", "leads_h": [144, 150, 156, 162, 168, 174, 180, 186], "min_msl_hpa": 965.1, "main": false}}, {"type": "Feature", "geometry": {"type": "LineString", "coordinates": [[65.22, 14.7], [64.74, 14.7], [64.26, 14.94], [63.78, 15.3], [63.42, 16.14], [63.06, 16.14], [62.7, 16.5], [62.46, 17.22], [62.22, 17.94], [61.62, 18.42], [60.78, 18.66], [60.42, 18.9]]}, "properties": {"kind": "member_track", "member": 16, "track": 0, "hazard": "tropical_cyclone", "leads_h": [6, 12, 18, 24, 30, 36, 42, 48, 54, 60, 66, 72], "min_msl_hpa": 979.4, "main": true}}, {"type": "Feature", "geometry": {"type": "LineString", "coordinates": [[60.06, 25.5], [61.26, 24.78], [62.82, 25.02], [65.7, 25.98], [70.26, 29.34]]}, "properties": {"kind": "member_track", "member": 16, "track": 1, "hazard": "tropical_cyclone", "leads_h": [156, 162, 168, 180, 192], "min_msl_hpa": 962.0, "main": false}}, {"type": "Feature", "geometry": {"type": "LineString", "coordinates": [[64.38, 25.62], [67.86, 28.26]]}, "properties": {"kind": "member_track", "member": 16, "track": 2, "hazard": "tropical_cyclone", "leads_h": [174, 186], "min_msl_hpa": 962.9, "main": false}}, {"type": "Feature", "geometry": {"type": "LineString", "coordinates": [[65.22, 14.58], [64.98, 14.58], [64.38, 14.7], [63.9, 15.18], [63.66, 15.66], [63.18, 15.66], [63.06, 15.9], [62.7, 16.26], [62.34, 16.86], [61.74, 17.34], [61.26, 17.7], [60.66, 17.94]]}, "properties": {"kind": "member_track", "member": 17, "track": 0, "hazard": "tropical_cyclone", "leads_h": [6, 12, 18, 24, 30, 36, 42, 48, 54, 60, 66, 72], "min_msl_hpa": 967.0, "main": true}}, {"type": "Feature", "geometry": {"type": "LineString", "coordinates": [[60.06, 23.7], [60.06, 23.7], [60.06, 23.7], [61.14, 24.18], [62.7, 23.82], [64.14, 24.06], [66.06, 24.06], [66.66, 24.78], [69.06, 26.58], [71.1, 27.42]]}, "properties": {"kind": "member_track", "member": 17, "track": 1, "hazard": "tropical_cyclone", "leads_h": [138, 144, 150, 156, 162, 168, 174, 180, 186, 192], "min_msl_hpa": 908.5, "main": false}}, {"type": "Feature", "geometry": {"type": "LineString", "coordinates": [[65.1, 14.34], [64.62, 14.22], [64.26, 14.34], [63.9, 14.7], [63.54, 15.3], [63.18, 15.42], [62.7, 15.54], [61.86, 16.02], [61.14, 16.26], [60.78, 16.86], [60.06, 17.22], [60.06, 17.82]]}, "properties": {"kind": "member_track", "member": 18, "track": 0, "hazard": "tropical_cyclone", "leads_h": [6, 12, 18, 24, 30, 36, 42, 48, 54, 60, 66, 72], "min_msl_hpa": 982.3, "main": true}}, {"type": "Feature", "geometry": {"type": "LineString", "coordinates": [[60.06, 21.78], [60.06, 21.66], [60.78, 21.9], [62.34, 22.26], [63.3, 22.02], [64.26, 22.62], [66.3, 23.58], [68.1, 24.3]]}, "properties": {"kind": "member_track", "member": 18, "track": 1, "hazard": "tropical_cyclone", "leads_h": [150, 156, 162, 168, 174, 180, 186, 192], "min_msl_hpa": 915.4, "main": false}}, {"type": "Feature", "geometry": {"type": "LineString", "coordinates": [[64.86, 14.58], [64.5, 14.7], [64.14, 14.94], [63.54, 15.42], [63.18, 15.9], [62.58, 16.14], [61.98, 16.5], [61.26, 17.1], [60.78, 17.46], [60.18, 17.82], [60.06, 18.18], [60.06, 20.58]]}, "properties": {"kind": "member_track", "member": 19, "track": 0, "hazard": "tropical_cyclone", "leads_h": [6, 12, 18, 24, 30, 36, 42, 48, 54, 60, 66, 72], "min_msl_hpa": 982.8, "main": true}}, {"type": "Feature", "geometry": {"type": "LineString", "coordinates": [[87.78, 14.1], [87.78, 14.34], [87.78, 14.34], [87.78, 14.7]]}, "properties": {"kind": "member_track", "member": 19, "track": 1, "hazard": "tropical_cyclone", "leads_h": [120, 126, 138, 150], "min_msl_hpa": 987.1, "main": false}}, {"type": "Feature", "geometry": {"type": "LineString", "coordinates": [[87.9, 14.22], [87.78, 14.46], [87.54, 14.58]]}, "properties": {"kind": "member_track", "member": 19, "track": 2, "hazard": "tropical_cyclone", "leads_h": [132, 144, 156], "min_msl_hpa": 984.0, "main": false}}, {"type": "Feature", "geometry": {"type": "LineString", "coordinates": [[60.3, 24.9], [61.26, 25.02], [63.18, 25.14], [65.22, 26.7], [66.78, 27.3]]}, "properties": {"kind": "member_track", "member": 19, "track": 3, "hazard": "tropical_cyclone", "leads_h": [168, 174, 180, 186, 192], "min_msl_hpa": 939.6, "main": false}}, {"type": "Feature", "geometry": {"type": "LineString", "coordinates": [[65.35333333333334, 14.486666666666666], [64.992, 14.520000000000001], [64.63799999999999, 14.645999999999997], [64.254, 15.054000000000002], [64.00800000000001, 15.648], [63.701999999999984, 15.714000000000002], [63.443999999999996, 15.84], [62.898, 16.458], [62.412, 16.866], [61.80000000000001, 17.322], [61.32947368421051, 17.706315789473685], [61.095789473684206, 18.028421052631575], [60.66, 19.74]]}, "properties": {"kind": "consensus", "hazard": "tropical_cyclone", "leads_h": [6, 12, 18, 24, 30, 36, 42, 48, 54, 60, 66, 72, 78], "spread_km": [35.8, 47.8, 60.9, 68.8, 82.3, 95.2, 105.0, 113.4, 119.4, 126.4, 127.5, 139.8, 0.0], "member_count": [18, 20, 20, 20, 20, 20, 20, 20, 20, 20, 19, 19, 1], "n_members": 20}}, {"type": "Feature", "geometry": {"type": "Polygon", "coordinates": [[[60.0, 13.799999999999999], [66.24000000000001, 13.799999999999999], [66.24000000000001, 24.36], [60.0, 24.36], [60.0, 13.799999999999999]]]}, "properties": {"kind": "bbox4d", "lat_min": 13.799999999999999, "lat_max": 24.36, "lon_min": 60.0, "lon_max": 66.24000000000001, "level_hPa_bottom": 1013, "level_hPa_top": 850, "t_start": "2020-05-11 18:00:00", "t_end": "2020-05-14 12:00:00", "lead_start_h": 6, "lead_end_h": 72, "member_count_min": 18, "n_members": 20, "hazard": "tropical_cyclone", "source": "GNN consensus"}}]}