{"type": "FeatureCollection", "features": [{"type": "Feature", "geometry": {"type": "LineString", "coordinates": [[78.42, 28.5], [78.42, 28.5], [78.42, 28.5], [77.46, 28.74], [77.46, 28.74], [77.46, 28.74], [77.58, 28.62]]}, "properties": {"kind": "member_track", "member": 0, "track": 0, "hazard": "cold_wave", "leads_h": [42, 48, 54, 60, 66, 72, 78], "max_event_prob": 1.0, "main": true}}, {"type": "Feature", "geometry": {"type": "LineString", "coordinates": [[78.66, 27.78], [78.66, 27.78], [78.66, 27.78], [78.66, 27.78], [79.62, 26.82], [79.62, 26.82], [79.26, 24.3], [79.26, 24.3], [82.5, 26.22], [82.5, 26.22], [82.5, 26.22], [82.5, 26.22], [82.74, 26.46], [82.74, 26.46], [82.74, 26.46], [82.74, 26.46], [80.46, 27.42], [80.46, 27.42], [80.46, 27.42], [80.34, 27.42], [88.02, 25.14], [88.02, 25.14], [88.02, 25.14]]}, "properties": {"kind": "member_track", "member": 1, "track": 0, "hazard": "cold_wave", "leads_h": [36, 42, 48, 54, 60, 66, 72, 78, 84, 90, 96, 102, 108, 114, 120, 126, 132, 138, 144, 150, 162, 168, 174], "max_event_prob": 1.0, "main": true}}, {"type": "Feature", "geometry": {"type": "LineString", "coordinates": [[75.06, 26.1], [75.06, 26.1], [75.06, 26.1], [75.06, 26.1], [76.26, 24.9], [76.26, 24.9], [76.26, 24.9], [76.26, 24.9]]}, "properties": {"kind": "member_track", "member": 1, "track": 1, "hazard": "cold_wave", "leads_h": [156, 162, 168, 174, 180, 186, 192, 198], "max_event_prob": 0.999, "main": false}}, {"type": "Feature", "geometry": {"type": "LineString", "coordinates": [[78.9, 28.14], [78.9, 28.14], [78.9, 28.14], [78.9, 28.14], [81.42, 27.42], [81.42, 27.42], [81.42, 27.42], [81.42, 27.42], [84.06, 26.94], [84.06, 26.94], [83.94, 26.94], [84.06, 26.94], [86.46, 25.86], [86.46, 25.86], [86.46, 25.86], [86.46, 25.86]]}, "properties": {"kind": "member_track", "member": 2, "track": 0, "hazard": "cold_wave", "leads_h": [36, 42, 48, 54, 60, 66, 72, 78, 84, 90, 96, 102, 108, 114, 120, 126], "max_event_prob": 1.0, "main": true}}, {"type": "Feature", "geometry": {"type": "LineString", "coordinates": [[80.46, 27.54], [80.46, 27.54], [80.34, 27.54], [80.34, 27.54], [78.54, 27.66], [78.54, 27.66], [78.54, 27.66], [78.54, 27.66], [78.9, 26.7], [78.9, 26.7], [78.9, 26.7], [78.9, 26.7]]}, "properties": {"kind": "member_track", "member": 2, "track": 1, "hazard": "cold_wave", "leads_h": [132, 138, 144, 150, 156, 162, 168, 174, 180, 186, 192, 198], "max_event_prob": 1.0, "main": false}}, {"type": "Feature", "geometry": {"type": "LineString", "coordinates": [[77.7, 28.5], [77.7, 28.5], [77.82, 28.5], [81.78, 26.82], [81.78, 26.82], [81.78, 26.82], [81.78, 26.82], [83.46, 26.58], [83.46, 26.58], [83.34, 26.58], [83.46, 26.58], [86.34, 25.86], [86.34, 25.86], [86.22, 25.98], [86.22, 25.98], [79.5, 27.06], [79.5, 27.06], [79.5, 27.06], [80.58, 25.86], [80.58, 25.86], [80.58, 25.86], [80.58, 25.86], [81.66, 25.62], [81.66, 25.62], [81.54, 25.62], [81.54, 25.62]]}, "properties": {"kind": "member_track", "member": 3, "track": 0, "hazard": "cold_wave", "leads_h": [42, 48, 54, 60, 66, 72, 78, 84, 90, 96, 102, 108, 114, 120, 126, 138, 144, 150, 156, 162, 168, 174, 180, 186, 192, 198], "max_event_prob": 1.0, "main": true}}, {"type": "Feature", "geometry": {"type": "LineString", "coordinates": [[78.42, 23.94], [78.42, 23.94], [78.54, 23.82], [78.54, 23.82], [78.42, 27.78], [78.42, 27.78], [78.42, 27.78], [78.42, 27.78]]}, "properties": {"kind": "member_track", "member": 4, "track": 0, "hazard": "cold_wave", "leads_h": [36, 42, 48, 54, 60, 66, 72, 78], "max_event_prob": 1.0, "main": true}}, {"type": "Feature", "geometry": {"type": "LineString", "coordinates": [[84.9, 26.46], [85.02, 26.46]]}, "properties": {"kind": "member_track", "member": 4, "track": 1, "hazard": "cold_wave", "leads_h": [96, 102], "max_event_prob": 0.732, "main": false}}, {"type": "Feature", "geometry": {"type": "LineString", "coordinates": [[89.46, 25.02], [89.46, 25.02]]}, "properties": {"kind": "member_track", "member": 4, "track": 2, "hazard": "cold_wave", "leads_h": [114, 120], "max_event_prob": 0.999, "main": false}}, {"type": "Feature", "geometry": {"type": "LineString", "coordinates": [[89.46, 25.02], [88.98, 25.14], [88.98, 25.26], [88.98, 25.26], [89.22, 25.62], [89.22, 25.62], [89.22, 25.62], [89.22, 25.62]]}, "properties": {"kind": "member_track", "member": 4, "track": 3, "hazard": "cold_wave", "leads_h": [126, 138, 144, 150, 156, 162, 168, 174], "max_event_prob": 0.998, "main": false}}, {"type": "Feature", "geometry": {"type": "LineString", "coordinates": [[76.26, 27.9], [76.26, 27.9], [76.26, 27.9], [76.26, 27.9]]}, "properties": {"kind": "member_track", "member": 4, "track": 4, "hazard": "cold_wave", "leads_h": [180, 186, 192, 198], "max_event_prob": 1.0, "main": false}}, {"type": "Feature", "geometry": {"type": "LineString", "coordinates": [[79.5, 27.9], [79.5, 27.9], [79.5, 27.9], [79.5, 27.9], [82.74, 26.82], [82.74, 26.82], [82.74, 26.82], [82.74, 26.82], [86.34, 25.74], [86.34, 25.74], [86.22, 25.74], [86.46, 25.74], [88.86, 25.26], [88.86, 25.26], [88.86, 25.26], [88.86, 25.26], [88.14, 25.5], [88.14, 25.5], [88.02, 25.5], [88.02, 25.5], [90.42, 26.1], [90.42, 26.1], [90.42, 26.1], [90.66, 26.22]]}, "properties": {"kind": "member_track", "member": 5, "track": 0, "hazard": "cold_wave", "leads_h": [36, 42, 48, 54, 60, 66, 72, 78, 84, 90, 96, 102, 108, 114, 120, 126, 132, 138, 144, 150, 156, 162, 168, 174], "max_event_prob": 1.0, "main": true}}, {"type": "Feature", "geometry": {"type": "LineString", "coordinates": [[77.46, 28.26], [77.34, 28.26], [77.34, 28.26]]}, "properties": {"kind": "member_track", "member": 6, "track": 0, "hazard": "cold_wave", "leads_h": [42, 48, 54], "max_event_prob": 1.0, "main": false}}, {"type": "Feature", "geometry": {"type": "LineString", "coordinates": [[86.22, 25.98], [86.22, 25.98], [86.1, 25.98], [86.22, 25.98], [88.98, 25.5], [88.98, 25.5], [88.98, 25.5], [88.98, 25.5], [88.5, 25.98], [88.5, 25.98], [88.5, 25.98], [88.38, 25.98], [90.54, 26.1], [90.54, 26.1], [90.54, 26.1], [90.54, 26.1]]}, "properties": {"kind": "member_track", "member": 6, "track": 1, "hazard": "cold_wave", "leads_h": [84, 90, 96, 102, 108, 114, 120, 126, 132, 138, 144, 150, 156, 162, 168, 174], "max_event_prob": 1.0, "main": true}}, {"type": "Feature", "geometry": {"type": "LineString", "coordinates": [[79.14, 27.78], [79.14, 27.78], [79.14, 27.78], [79.14, 27.78], [81.18, 24.78], [81.18, 24.78], [81.18, 24.78], [81.18, 24.78], [84.42, 25.74], [84.42, 25.74], [82.62, 22.98], [82.74, 22.98], [85.86, 25.86], [85.86, 25.86], [85.86, 25.86], [85.86, 25.86], [81.06, 26.7], [81.06, 26.7], [81.06, 26.7], [80.94, 26.7]]}, "properties": {"kind": "member_track", "member": 7, "track": 0, "hazard": "cold_wave", "leads_h": [36, 42, 48, 54, 60, 66, 72, 78, 84, 90, 96, 102, 108, 114, 120, 126, 132, 138, 144, 150], "max_event_prob": 1.0, "main": true}}, {"type": "Feature", "geometry": {"type": "LineString", "coordinates": [[88.86, 25.26], [88.86, 25.26], [88.86, 25.26], [88.98, 25.26]]}, "properties": {"kind": "member_track", "member": 7, "track": 1, "hazard": "cold_wave", "leads_h": [156, 162, 168, 174], "max_event_prob": 1.0, "main": false}}, {"type": "Feature", "geometry": {"type": "LineString", "coordinates": [[76.38, 26.82], [76.38, 26.82], [76.38, 26.82], [76.26, 26.82]]}, "properties": {"kind": "member_track", "member": 7, "track": 2, "hazard": "cold_wave", "leads_h": [180, 186, 192, 198], "max_event_prob": 0.999, "main": false}}, {"type": "Feature", "geometry": {"type": "LineString", "coordinates": [[79.14, 28.02], [79.14, 28.02], [79.14, 28.02], [82.14, 27.42], [82.14, 27.42], [82.14, 27.42], [82.26, 27.42], [86.46, 25.98], [86.46, 25.98], [86.46, 25.98], [86.58, 25.86], [87.06, 25.62], [87.06, 25.62], [86.94, 25.62], [86.94, 25.62], [88.98, 26.34], [88.98, 26.34], [88.86, 26.34], [88.86, 26.34]]}, "properties": {"kind": "member_track", "member": 8, "track": 0, "hazard": "cold_wave", "leads_h": [42, 48, 54, 60, 66, 72, 78, 84, 90, 96, 102, 108, 114, 120, 126, 132, 138, 144, 150], "max_event_prob": 1.0, "main": true}}, {"type": "Feature", "geometry": {"type": "LineString", "coordinates": [[82.26, 27.06], [82.26, 27.06], [82.14, 27.06]]}, "properties": {"kind": "member_track", "member": 8, "track": 1, "hazard": "cold_wave", "leads_h": [132, 138, 144], "max_event_prob": 0.913, "main": false}}, {"type": "Feature", "geometry": {"type": "LineString", "coordinates": [[80.22, 27.66], [80.22, 27.66], [80.1, 27.78], [80.22, 27.66], [82.5, 26.34], [82.5, 26.34], [82.5, 26.34], [82.5, 26.34], [85.86, 25.74], [85.86, 25.74], [85.86, 25.86], [85.86, 25.86], [88.5, 25.38], [88.5, 25.38], [88.5, 25.38], [88.5, 25.38], [85.02, 25.14], [85.02, 25.14], [85.02, 25.14], [83.7, 25.14], [91.02, 26.1], [91.02, 26.1], [91.02, 25.98]]}, "properties": {"kind": "member_track", "member": 9, "track": 0, "hazard": "cold_wave", "leads_h": [36, 42, 48, 54, 60, 66, 72, 78, 84, 90, 96, 102, 108, 114, 120, 126, 132, 138, 144, 150, 162, 168, 174], "max_event_prob": 1.0, "main": true}}, {"type": "Feature", "geometry": {"type": "LineString", "coordinates": [[75.42, 23.7], [75.42, 23.7], [75.42, 23.7], [75.78, 23.82], [77.94, 23.1], [77.94, 23.1], [77.94, 23.1], [77.94, 23.1]]}, "properties": {"kind": "member_track", "member": 9, "track": 1, "hazard": "cold_wave", "leads_h": [156, 162, 168, 174, 180, 186, 192, 198], "max_event_prob": 1.0, "main": false}}, {"type": "Feature", "geometry": {"type": "LineString", "coordinates": [[76.86, 28.74], [76.86, 28.74], [77.22, 24.3], [77.22, 24.3], [77.7, 28.5], [77.7, 28.5], [77.7, 28.38], [77.7, 28.38]]}, "properties": {"kind": "member_track", "member": 10, "track": 0, "hazard": "cold_wave", "leads_h": [36, 42, 48, 54, 60, 66, 72, 78], "max_event_prob": 0.999, "main": false}}, {"type": "Feature", "geometry": {"type": "LineString", "coordinates": [[87.06, 25.62], [87.06, 25.62], [87.06, 25.62], [87.06, 25.62], [88.86, 25.26], [88.86, 25.26], [88.86, 25.26], [88.86, 25.26], [88.86, 25.62], [88.86, 25.62], [88.86, 25.62], [88.86, 25.62], [90.66, 26.1], [90.66, 26.1], [90.66, 26.1], [90.66, 26.1]]}, "properties": {"kind": "member_track", "member": 10, "track": 1, "hazard": "cold_wave", "leads_h": [84, 90, 96, 102, 108, 114, 120, 126, 132, 138, 144, 150, 156, 162, 168, 174], "max_event_prob": 0.999, "main": true}}, {"type": "Feature", "geometry": {"type": "LineString", "coordinates": [[79.26, 28.02], [79.26, 28.02], [79.26, 28.02], [79.26, 28.02], [82.14, 26.7], [82.14, 26.7], [82.14, 26.7], [82.14, 26.7], [85.38, 25.86], [85.38, 25.86], [85.38, 25.86], [85.38, 25.86], [85.38, 26.22], [85.38, 26.22], [85.38, 26.22], [85.26, 26.22], [79.14, 28.02], [79.14, 28.02], [79.02, 28.02]]}, "properties": {"kind": "member_track", "member": 11, "track": 0, "hazard": "cold_wave", "leads_h": [36, 42, 48, 54, 60, 66, 72, 78, 84, 90, 96, 102, 108, 114, 120, 126, 138, 144, 150], "max_event_prob": 1.0, "main": true}}, {"type": "Feature", "geometry": {"type": "LineString", "coordinates": [[90.18, 25.74], [90.18, 25.74], [90.18, 25.74], [90.18, 25.74]]}, "properties": {"kind": "member_track", "member": 11, "track": 1, "hazard": "cold_wave", "leads_h": [156, 162, 168, 174], "max_event_prob": 1.0, "main": false}}, {"type": "Feature", "geometry": {"type": "LineString", "coordinates": [[74.94, 27.54], [79.62, 26.1], [79.62, 26.1], [79.62, 26.22], [79.62, 26.22]]}, "properties": {"kind": "member_track", "member": 11, "track": 2, "hazard": "cold_wave", "leads_h": [168, 180, 186, 192, 198], "max_event_prob": 1.0, "main": false}}, {"type": "Feature", "geometry": {"type": "LineString", "coordinates": [[79.02, 28.02], [79.02, 28.02], [79.02, 28.02], [80.22, 26.94], [80.22, 26.94], [80.22, 26.94], [80.22, 26.94], [84.9, 25.98], [84.78, 25.98], [84.9, 25.98], [86.58, 25.86], [86.58, 25.86], [86.58, 25.86], [86.58, 25.86], [87.06, 25.98], [87.06, 25.98], [87.06, 26.1], [87.06, 26.1], [89.7, 25.98], [89.7, 25.98], [89.7, 25.98], [89.7, 25.98]]}, "properties": {"kind": "member_track", "member": 12, "track": 0, "hazard": "cold_wave", "leads_h": [42, 48, 54, 60, 66, 72, 78, 90, 96, 102, 108, 114, 120, 126, 132, 138, 144, 150, 156, 162, 168, 174], "max_event_prob": 1.0, "main": true}}, {"type": "Feature", "geometry": {"type": "LineString", "coordinates": [[76.5, 24.54], [76.5, 24.54], [76.5, 24.54]]}, "properties": {"kind": "member_track", "member": 12, "track": 1, "hazard": "cold_wave", "leads_h": [186, 192, 198], "max_event_prob": 1.0, "main": false}}, {"type": "Feature", "geometry": {"type": "LineString", "coordinates": [[78.66, 28.02], [78.66, 28.02], [78.54, 28.02], [78.66, 28.02], [81.06, 27.06], [81.06, 27.06], [81.06, 27.06], [81.06, 27.06], [83.7, 26.34], [83.7, 26.34], [83.7, 26.34], [83.7, 26.34], [88.5, 25.14], [88.5, 25.14], [88.5, 25.14], [88.5, 25.14], [79.26, 28.02], [79.26, 28.02], [79.14, 28.14]]}, "properties": {"kind": "member_track", "member": 13, "track": 0, "hazard": "cold_wave", "leads_h": [36, 42, 48, 54, 60, 66, 72, 78, 84, 90, 96, 102, 108, 114, 120, 126, 138, 144, 150], "max_event_prob": 1.0, "main": true}}, {"type": "Feature", "geometry": {"type": "LineString", "coordinates": [[89.46, 25.74], [89.46, 25.74], [89.46, 25.74], [89.46, 25.74], [81.3, 28.02], [81.18, 28.02], [81.18, 28.02]]}, "properties": {"kind": "member_track", "member": 13, "track": 1, "hazard": "cold_wave", "leads_h": [156, 162, 168, 174, 186, 192, 198], "max_event_prob": 1.0, "main": false}}, {"type": "Feature", "geometry": {"type": "LineString", "coordinates": [[78.54, 27.42], [77.82, 28.14], [77.82, 28.14], [77.82, 28.14], [77.82, 28.14], [79.86, 27.42], [79.86, 27.42], [79.74, 27.42], [79.74, 27.42], [81.42, 27.3], [81.42, 27.3], [81.42, 27.3], [81.42, 27.3]]}, "properties": {"kind": "member_track", "member": 14, "track": 0, "hazard": "cold_wave", "leads_h": [30, 36, 42, 48, 54, 60, 66, 72, 78, 84, 90, 96, 102], "max_event_prob": 1.0, "main": true}}, {"type": "Feature", "geometry": {"type": "LineString", "coordinates": [[89.94, 24.42], [88.38, 25.02], [88.38, 25.02], [88.38, 25.02], [88.38, 25.02]]}, "properties": {"kind": "member_track", "member": 14, "track": 1, "hazard": "cold_wave", "leads_h": [102, 108, 114, 120, 126], "max_event_prob": 0.999, "main": false}}, {"type": "Feature", "geometry": {"type": "LineString", "coordinates": [[81.9, 27.42], [81.9, 27.42], [81.78, 27.42], [81.78, 27.42], [89.22, 25.5], [89.22, 25.5]]}, "properties": {"kind": "member_track", "member": 14, "track": 2, "hazard": "cold_wave", "leads_h": [132, 138, 144, 150, 162, 168], "max_event_prob": 1.0, "main": false}}, {"type": "Feature", "geometry": {"type": "LineString", "coordinates": [[79.98, 28.02], [79.98, 28.02], [79.98, 28.02], [79.98, 28.02], [83.1, 26.82], [83.1, 26.82], [83.1, 26.82], [83.1, 26.82], [86.22, 25.86], [86.22, 25.86], [86.22, 25.86], [86.34, 25.74], [89.82, 24.66], [89.82, 24.66], [89.82, 24.66], [89.82, 24.66], [90.18, 25.14], [90.18, 25.14], [90.18, 25.14], [90.18, 25.14], [90.9, 25.86], [90.9, 25.86], [90.9, 25.86], [90.9, 25.74], [91.5, 24.78], [91.5, 24.78], [91.5, 24.78], [91.5, 24.78]]}, "properties": {"kind": "member_track", "member": 15, "track": 0, "hazard": "cold_wave", "leads_h": [36, 42, 48, 54, 60, 66, 72, 78, 84, 90, 96, 102, 108, 114, 120, 126, 132, 138, 144, 150, 156, 162, 168, 174, 180, 186, 192, 198], "max_event_prob": 1.0, "main": true}}, {"type": "Feature", "geometry": {"type": "LineString", "coordinates": [[80.94, 27.54], [80.94, 27.54], [80.94, 27.54], [80.94, 27.54], [84.54, 26.34], [84.54, 26.34], [84.42, 26.34], [86.58, 25.5], [86.58, 25.5], [86.58, 25.5], [86.58, 25.5], [88.86, 25.62], [88.86, 25.62], [88.86, 25.62], [88.86, 25.62], [88.86, 25.86], [88.86, 25.86], [88.74, 25.86], [88.74, 25.86], [89.94, 25.5], [89.94, 25.5], [89.94, 25.5], [89.94, 25.5], [87.66, 25.5], [87.66, 25.5], [87.66, 25.5], [87.66, 25.5]]}, "properties": {"kind": "member_track", "member": 16, "track": 0, "hazard": "cold_wave", "leads_h": [36, 42, 48, 54, 66, 72, 78, 84, 90, 96, 102, 108, 114, 120, 126, 132, 138, 144, 150, 156, 162, 168, 174, 180, 186, 192, 198], "max_event_prob": 1.0, "main": true}}, {"type": "Feature", "geometry": {"type": "LineString", "coordinates": [[77.94, 25.02], [77.94, 25.02], [77.94, 25.02], [78.06, 28.38], [78.06, 28.38], [78.06, 28.38], [78.06, 28.26]]}, "properties": {"kind": "member_track", "member": 17, "track": 0, "hazard": "cold_wave", "leads_h": [42, 48, 54, 60, 66, 72, 78], "max_event_prob": 1.0, "main": true}}, {"type": "Feature", "geometry": {"type": "LineString", "coordinates": [[79.26, 27.78], [79.26, 27.78], [79.26, 27.78], [82.74, 26.34], [82.74, 26.34], [82.74, 26.34], [82.74, 26.34], [84.3, 24.9], [84.3, 24.9], [84.3, 24.9], [84.3, 24.9], [85.14, 25.74], [85.14, 25.74], [85.14, 25.74], [85.26, 25.74], [87.9, 25.26], [87.9, 25.26], [87.78, 25.26], [87.78, 25.26], [89.7, 25.5], [89.7, 25.5], [89.7, 25.5], [89.34, 25.26]]}, "properties": {"kind": "member_track", "member": 18, "track": 0, "hazard": "cold_wave", "leads_h": [42, 48, 54, 60, 66, 72, 78, 84, 90, 96, 102, 108, 114, 120, 126, 132, 138, 144, 150, 156, 162, 168, 174], "max_event_prob": 1.0, "main": true}}, {"type": "Feature", "geometry": {"type": "LineString", "coordinates": [[80.7, 25.5], [80.7, 25.5], [80.58, 25.5], [80.7, 25.5]]}, "properties": {"kind": "member_track", "member": 18, "track": 1, "hazard": "cold_wave", "leads_h": [180, 186, 192, 198], "max_event_prob": 1.0, "main": false}}, {"type": "Feature", "geometry": {"type": "LineString", "coordinates": [[79.26, 28.02], [79.26, 28.02], [79.14, 28.02], [79.14, 28.02], [81.06, 27.3], [81.06, 27.3], [81.06, 27.3], [81.06, 27.3], [84.18, 26.46], [84.18, 26.46], [84.18, 26.46], [84.3, 26.46], [88.38, 25.26], [88.38, 25.26], [88.38, 25.26], [88.38, 25.26], [89.82, 25.26], [89.82, 25.26], [89.82, 25.26], [89.82, 25.26], [90.54, 24.78], [90.54, 24.78], [90.54, 24.78], [90.54, 24.78], [90.3, 25.02], [90.3, 25.02], [90.3, 25.02], [90.3, 25.02]]}, "properties": {"kind": "member_track", "member": 19, "track": 0, "hazard": "cold_wave", "leads_h": [36, 42, 48, 54, 60, 66, 72, 78, 84, 90, 96, 102, 108, 114, 120, 126, 132, 138, 144, 150, 156, 162, 168, 174, 180, 186, 192, 198], "max_event_prob": 1.0, "main": true}}, {"type": "Feature", "geometry": {"type": "LineString", "coordinates": [[78.54, 27.42], [79.23, 27.58], [79.01333333333334, 27.599999999999998], [79.00000000000001, 27.599999999999998], [79.02000000000001, 27.59333333333333], [80.91176470588233, 27.05294117647059], [81.11333333333332, 27.013333333333335], [81.08666666666664, 26.87333333333333], [81.09333333333332, 26.86], [84.885, 26.047499999999996], [84.88588235294118, 26.043529411764702], [84.74470588235295, 25.888235294117646], [84.81529411764706, 25.87411764705882], [87.26999999999998, 25.5975], [87.26999999999998, 25.5975], [87.255, 25.605], [87.255, 25.605], [87.07000000000001, 25.849999999999998], [85.516, 26.219999999999995], [85.484, 26.227999999999998], [85.356, 26.235999999999997], [89.22, 25.753333333333334], [89.27454545454545, 25.729090909090907], [89.27454545454545, 25.729090909090907], [89.26363636363637, 25.696363636363632], [87.78, 25.23], [87.78, 25.23], [87.75000000000001, 25.23], [87.75000000000001, 25.23]]}, "properties": {"kind": "consensus", "hazard": "cold_wave", "leads_h": [30, 36, 42, 48, 54, 60, 66, 72, 78, 84, 90, 96, 102, 108, 114, 120, 126, 132, 138, 144, 150, 156, 162, 168, 174, 180, 186, 192, 198], "spread_km": [0.0, 107.6, 112.0, 112.4, 112.2, 162.5, 170.5, 184.2, 182.9, 152.1, 143.6, 165.6, 166.7, 163.5, 163.5, 165.2, 165.2, 254.1, 397.0, 394.6, 405.6, 200.5, 190.2, 190.2, 193.0, 320.3, 320.3, 323.9, 323.9], "member_count": [1, 12, 18, 18, 18, 17, 18, 18, 18, 16, 17, 17, 17, 16, 16, 16, 16, 12, 15, 15, 15, 9, 11, 11, 11, 4, 4, 4, 4], "n_members": 20}}, {"type": "Feature", "geometry": {"type": "Polygon", "coordinates": [[[70.56, 20.64], [94.08, 20.64], [94.08, 35.28], [70.56, 35.28], [70.56, 20.64]]]}, "properties": {"kind": "bbox4d", "lat_min": 20.64, "lat_max": 35.28, "lon_min": 70.56, "lon_max": 94.08, "level_hPa_bottom": 1013, "level_hPa_top": 1013, "t_start": "2023-01-09 12:00:00", "t_end": "2023-01-15 06:00:00", "lead_start_h": 36, "lead_end_h": 174, "member_count_min": 11, "n_members": 20, "hazard": "cold_wave", "source": "GNN consensus"}}]}