{"type": "FeatureCollection", "features": [{"type": "Feature", "geometry": {"type": "LineString", "coordinates": [[77.94, 24.54], [77.94, 24.54], [77.94, 24.54], [78.54, 24.78], [78.66, 25.26], [78.66, 25.26], [78.66, 25.26], [78.3, 25.14], [75.66, 24.42], [75.66, 24.42], [75.66, 24.42], [75.78, 24.3], [76.14, 24.18], [76.14, 24.18], [76.14, 24.18], [76.62, 23.7], [77.34, 23.22], [77.34, 23.22], [77.34, 23.22], [78.42, 23.34], [80.1, 22.02], [80.1, 22.02], [80.1, 22.02], [79.98, 22.14], [80.94, 21.66], [80.94, 21.66], [80.94, 21.66], [80.7, 21.66], [81.3, 21.78]]}, "properties": {"kind": "member_track", "member": 0, "track": 0, "hazard": "heat_dome", "leads_h": [48, 54, 60, 66, 72, 78, 84, 90, 96, 102, 108, 114, 120, 126, 132, 138, 144, 150, 156, 162, 168, 174, 180, 186, 192, 198, 204, 210, 216], "max_event_prob": 1.0, "main": true}}, {"type": "Feature", "geometry": {"type": "LineString", "coordinates": [[79.38, 24.66], [79.38, 24.66], [78.78, 25.02], [77.22, 25.62], [77.22, 25.62], [77.22, 25.62], [76.5, 25.74]]}, "properties": {"kind": "member_track", "member": 1, "track": 0, "hazard": "heat_dome", "leads_h": [54, 60, 66, 72, 78, 84, 90], "max_event_prob": 1.0, "main": true}}, {"type": "Feature", "geometry": {"type": "LineString", "coordinates": [[78.78, 23.58], [78.78, 23.58], [78.18, 24.42], [78.06, 25.14], [78.06, 25.14], [78.06, 25.14], [78.78, 25.26], [79.02, 25.14], [79.02, 25.14], [79.02, 25.14], [77.94, 24.78], [78.9, 23.58], [78.9, 23.58], [78.9, 23.58], [79.14, 23.34], [79.86, 21.42], [79.86, 21.42], [79.86, 21.42], [80.94, 21.78], [81.3, 21.9], [81.3, 21.9], [81.3, 21.9], [80.58, 21.9], [77.94, 23.94], [77.94, 23.94]]}, "properties": {"kind": "member_track", "member": 2, "track": 0, "hazard": "heat_dome", "leads_h": [54, 60, 66, 72, 78, 84, 90, 96, 102, 108, 114, 120, 126, 132, 138, 144, 150, 156, 162, 168, 174, 180, 186, 192, 198], "max_event_prob": 1.0, "main": true}}, {"type": "Feature", "geometry": {"type": "LineString", "coordinates": [[79.26, 24.3], [79.26, 24.3], [79.62, 24.3], [79.98, 24.54], [79.98, 24.54], [79.98, 24.54], [79.26, 24.54], [79.26, 24.66], [79.26, 24.66], [79.26, 24.66], [78.06, 24.06], [80.1, 21.42], [80.1, 21.42], [80.1, 21.42], [81.18, 22.14], [79.02, 24.54], [79.02, 24.54], [79.02, 24.54], [79.14, 24.42], [79.14, 23.82], [79.14, 23.82], [79.14, 23.82], [77.58, 23.82], [78.78, 19.02], [78.78, 19.02], [78.78, 19.02]]}, "properties": {"kind": "member_track", "member": 3, "track": 0, "hazard": "heat_dome", "leads_h": [54, 60, 66, 72, 78, 84, 90, 96, 102, 108, 114, 120, 126, 132, 138, 144, 150, 156, 162, 168, 174, 180, 186, 192, 198, 204], "max_event_prob": 1.0, "main": true}}, {"type": "Feature", "geometry": {"type": "LineString", "coordinates": [[74.7, 24.54], [74.7, 24.54], [74.58, 24.66], [79.74, 25.74], [79.74, 25.74], [79.74, 25.74], [79.02, 25.38], [76.14, 25.62], [76.14, 25.62], [76.14, 25.62], [76.5, 25.38], [77.46, 24.66], [77.46, 24.66], [77.46, 24.66], [77.58, 24.54], [77.58, 24.66], [77.58, 24.66], [77.58, 24.66], [77.58, 24.66], [76.98, 24.3], [76.98, 24.3], [76.98, 24.3], [77.22, 24.18]]}, "properties": {"kind": "member_track", "member": 4, "track": 0, "hazard": "heat_dome", "leads_h": [54, 60, 66, 72, 78, 84, 90, 96, 102, 108, 114, 120, 126, 132, 138, 144, 150, 156, 162, 168, 174, 180, 186], "max_event_prob": 1.0, "main": true}}, {"type": "Feature", "geometry": {"type": "LineString", "coordinates": [[82.02, 20.82], [82.02, 20.82], [82.02, 20.82]]}, "properties": {"kind": "member_track", "member": 4, "track": 1, "hazard": "heat_dome", "leads_h": [72, 78, 84], "max_event_prob": 0.996, "main": false}}, {"type": "Feature", "geometry": {"type": "LineString", "coordinates": [[79.74, 24.3], [79.74, 24.3], [79.74, 24.42], [82.62, 23.7], [82.62, 23.7], [82.62, 23.7], [81.06, 23.22], [77.7, 24.78], [77.7, 24.78], [77.7, 24.78], [78.06, 24.3], [77.94, 23.82], [77.94, 23.82], [77.94, 23.82], [78.42, 23.7], [78.54, 23.46], [78.54, 23.46], [78.54, 23.46], [79.38, 23.46], [80.1, 23.58], [80.1, 23.58], [80.1, 23.58], [79.86, 23.7], [79.5, 23.34], [79.5, 23.34], [79.5, 23.34], [78.66, 23.7]]}, "properties": {"kind": "member_track", "member": 5, "track": 0, "hazard": "heat_dome", "leads_h": [54, 60, 66, 72, 78, 84, 90, 96, 102, 108, 114, 120, 126, 132, 138, 144, 150, 156, 162, 168, 174, 180, 186, 192, 198, 204, 210], "max_event_prob": 1.0, "main": true}}, {"type": "Feature", "geometry": {"type": "LineString", "coordinates": [[79.38, 24.42], [79.38, 24.42], [79.02, 24.54], [79.38, 24.78], [79.38, 24.78], [79.38, 24.78], [78.9, 24.54], [78.18, 24.9], [78.18, 24.9], [78.18, 24.9], [77.1, 24.66], [76.02, 24.66], [76.02, 24.66], [76.02, 24.66], [76.02, 24.66], [76.62, 23.58], [76.62, 23.58], [76.62, 23.58], [76.38, 23.34]]}, "properties": {"kind": "member_track", "member": 6, "track": 0, "hazard": "heat_dome", "leads_h": [54, 60, 66, 72, 78, 84, 90, 96, 102, 108, 114, 120, 126, 132, 138, 144, 150, 156, 162], "max_event_prob": 1.0, "main": true}}, {"type": "Feature", "geometry": {"type": "LineString", "coordinates": [[78.06, 18.3], [78.06, 18.3], [78.06, 18.3], [78.66, 19.14], [79.98, 19.98], [79.98, 19.98], [79.98, 19.98]]}, "properties": {"kind": "member_track", "member": 6, "track": 1, "hazard": "heat_dome", "leads_h": [168, 174, 180, 186, 192, 198, 204], "max_event_prob": 1.0, "main": false}}, {"type": "Feature", "geometry": {"type": "LineString", "coordinates": [[75.9, 22.86], [75.9, 22.86], [76.98, 23.58], [76.86, 24.9], [76.86, 24.9], [76.86, 24.9], [76.26, 24.66], [76.02, 25.02], [76.02, 25.02], [76.02, 25.02], [76.02, 25.14], [75.78, 25.98], [75.78, 25.98], [75.78, 25.98], [76.14, 25.62], [76.26, 24.54], [76.26, 24.54], [76.26, 24.54], [76.86, 24.54], [77.94, 24.42], [77.94, 24.42], [77.94, 24.42], [77.7, 24.18], [80.1, 20.22], [80.1, 20.22], [80.1, 20.22], [79.62, 20.34]]}, "properties": {"kind": "member_track", "member": 7, "track": 0, "hazard": "heat_dome", "leads_h": [54, 60, 66, 72, 78, 84, 90, 96, 102, 108, 114, 120, 126, 132, 138, 144, 150, 156, 162, 168, 174, 180, 186, 192, 198, 204, 210], "max_event_prob": 1.0, "main": true}}, {"type": "Feature", "geometry": {"type": "LineString", "coordinates": [[75.06, 24.9], [75.06, 24.9], [75.06, 24.9], [75.42, 25.74], [75.42, 25.74], [75.42, 25.74], [75.54, 25.62], [75.42, 25.98], [75.42, 25.98], [75.42, 25.98], [76.02, 25.62], [76.62, 24.66], [76.62, 24.66], [76.62, 24.66], [76.98, 24.42], [77.58, 24.18], [77.58, 24.18], [77.58, 24.18], [77.7, 24.18], [78.18, 23.94], [78.18, 23.94], [78.18, 23.94], [78.18, 24.06]]}, "properties": {"kind": "member_track", "member": 8, "track": 0, "hazard": "heat_dome", "leads_h": [54, 60, 66, 72, 78, 84, 90, 96, 102, 108, 114, 120, 126, 132, 138, 144, 150, 156, 162, 168, 174, 180, 186], "max_event_prob": 1.0, "main": true}}, {"type": "Feature", "geometry": {"type": "LineString", "coordinates": [[79.86, 23.58], [79.86, 23.58], [80.46, 23.7], [80.46, 24.18], [80.46, 24.18], [80.46, 24.18], [78.9, 23.94], [78.06, 24.06], [78.06, 24.06], [78.06, 24.06], [77.1, 23.94], [77.46, 23.82], [77.46, 23.82], [77.46, 23.82], [77.7, 23.82], [78.06, 23.82], [78.06, 23.82], [78.06, 23.82], [80.34, 23.7], [84.42, 20.7], [84.42, 20.7], [84.42, 20.7], [79.74, 18.9], [78.54, 18.9], [78.54, 18.9]]}, "properties": {"kind": "member_track", "member": 9, "track": 0, "hazard": "heat_dome", "leads_h": [54, 60, 66, 72, 78, 84, 90, 96, 102, 108, 114, 120, 126, 132, 138, 144, 150, 156, 162, 168, 174, 180, 186, 192, 198], "max_event_prob": 1.0, "main": true}}, {"type": "Feature", "geometry": {"type": "LineString", "coordinates": [[75.9, 24.78], [75.9, 24.78], [76.02, 24.78], [76.14, 25.14], [76.14, 25.14], [76.14, 25.14], [76.62, 24.66], [76.62, 24.42], [76.62, 24.42], [76.62, 24.42], [76.86, 24.18], [76.74, 24.18], [76.74, 24.18], [76.74, 24.18], [76.86, 24.06], [77.22, 23.34], [77.22, 23.34], [77.22, 23.34], [77.94, 22.74], [78.42, 21.54], [78.42, 21.54], [78.42, 21.54], [77.94, 21.3], [77.7, 20.94], [77.7, 20.94], [77.7, 20.94]]}, "properties": {"kind": "member_track", "member": 10, "track": 0, "hazard": "heat_dome", "leads_h": [54, 60, 66, 72, 78, 84, 90, 96, 102, 108, 114, 120, 126, 132, 138, 144, 150, 156, 162, 168, 174, 180, 186, 192, 198, 204], "max_event_prob": 1.0, "main": true}}, {"type": "Feature", "geometry": {"type": "LineString", "coordinates": [[75.06, 24.3], [75.06, 24.3], [75.18, 24.3], [76.14, 24.66], [76.14, 24.66], [76.14, 24.66], [76.62, 24.3], [76.86, 24.06], [76.86, 24.06], [76.86, 24.06], [77.1, 23.94], [77.7, 24.3], [77.7, 24.3], [77.7, 24.3], [77.94, 24.06], [77.94, 23.46], [77.94, 23.46], [77.94, 23.46], [78.3, 23.34], [77.94, 23.1], [77.94, 23.1], [77.94, 23.1], [78.9, 23.22], [83.94, 22.14]]}, "properties": {"kind": "member_track", "member": 11, "track": 0, "hazard": "heat_dome", "leads_h": [54, 60, 66, 72, 78, 84, 90, 96, 102, 108, 114, 120, 126, 132, 138, 144, 150, 156, 162, 168, 174, 180, 186, 198], "max_event_prob": 1.0, "main": true}}, {"type": "Feature", "geometry": {"type": "LineString", "coordinates": [[83.94, 22.14], [83.94, 22.14]]}, "properties": {"kind": "member_track", "member": 11, "track": 1, "hazard": "heat_dome", "leads_h": [192, 204], "max_event_prob": 0.996, "main": false}}, {"type": "Feature", "geometry": {"type": "LineString", "coordinates": [[76.14, 23.1], [76.14, 23.1], [76.38, 23.22], [76.98, 25.14], [76.98, 25.14], [76.98, 25.14], [76.38, 25.02], [77.82, 24.78], [77.82, 24.78], [77.82, 24.78], [78.3, 24.54], [78.06, 23.94], [78.06, 23.94], [78.06, 23.94], [78.18, 23.34], [78.54, 22.74], [78.54, 22.74], [78.54, 22.74], [79.02, 22.86], [80.1, 21.42], [80.1, 21.42], [80.1, 21.42], [79.38, 21.42], [79.02, 22.5], [79.02, 22.5]]}, "properties": {"kind": "member_track", "member": 12, "track": 0, "hazard": "heat_dome", "leads_h": [54, 60, 66, 72, 78, 84, 90, 96, 102, 108, 114, 120, 126, 132, 138, 144, 150, 156, 162, 168, 174, 180, 186, 192, 198], "max_event_prob": 1.0, "main": true}}, {"type": "Feature", "geometry": {"type": "LineString", "coordinates": [[76.38, 23.46], [76.38, 23.46], [76.14, 23.58]]}, "properties": {"kind": "member_track", "member": 13, "track": 0, "hazard": "heat_dome", "leads_h": [54, 60, 66], "max_event_prob": 1.0, "main": false}}, {"type": "Feature", "geometry": {"type": "LineString", "coordinates": [[81.9, 20.94], [81.9, 20.94], [81.9, 20.94]]}, "properties": {"kind": "member_track", "member": 13, "track": 1, "hazard": "heat_dome", "leads_h": [72, 78, 84], "max_event_prob": 0.998, "main": false}}, {"type": "Feature", "geometry": {"type": "LineString", "coordinates": [[77.7, 25.5], [77.94, 26.22], [77.94, 26.22], [77.94, 26.22], [78.06, 26.1], [77.82, 25.38], [77.82, 25.38], [77.82, 25.38], [79.5, 24.54], [80.34, 22.62], [80.34, 22.62], [80.34, 22.62], [80.94, 23.1], [79.62, 24.06], [79.62, 24.06], [79.62, 24.06], [78.9, 23.22], [77.7, 22.14]]}, "properties": {"kind": "member_track", "member": 13, "track": 2, "hazard": "heat_dome", "leads_h": [90, 96, 102, 108, 114, 120, 126, 132, 138, 144, 150, 156, 162, 168, 174, 180, 186, 198], "max_event_prob": 1.0, "main": true}}, {"type": "Feature", "geometry": {"type": "LineString", "coordinates": [[75.78, 24.66], [75.78, 24.66], [77.1, 24.66], [77.46, 24.9], [77.46, 24.9], [77.46, 24.9], [76.86, 24.78], [79.26, 25.5], [79.26, 25.5], [79.26, 25.5], [78.18, 25.02], [80.58, 21.9], [80.58, 21.9], [80.58, 21.9], [81.42, 22.26], [78.66, 24.18], [78.66, 24.18], [78.66, 24.18], [79.62, 24.18], [80.94, 23.34], [80.94, 23.34], [80.94, 23.34], [80.34, 23.22], [78.54, 23.22], [78.54, 23.22]]}, "properties": {"kind": "member_track", "member": 14, "track": 0, "hazard": "heat_dome", "leads_h": [54, 60, 66, 72, 78, 84, 90, 96, 102, 108, 114, 120, 126, 132, 138, 144, 150, 156, 162, 168, 174, 180, 186, 192, 198], "max_event_prob": 1.0, "main": true}}, {"type": "Feature", "geometry": {"type": "LineString", "coordinates": [[76.02, 24.3], [76.02, 24.3], [79.02, 24.54], [79.14, 25.02], [79.14, 25.02], [79.14, 25.02]]}, "properties": {"kind": "member_track", "member": 15, "track": 0, "hazard": "heat_dome", "leads_h": [54, 60, 66, 72, 78, 84], "max_event_prob": 1.0, "main": true}}, {"type": "Feature", "geometry": {"type": "LineString", "coordinates": [[79.14, 24.18], [79.14, 24.18], [78.54, 24.18], [78.42, 25.02], [78.42, 25.02], [78.42, 25.02], [76.74, 25.02], [76.5, 25.74], [76.5, 25.74], [76.5, 25.74], [76.5, 25.62], [77.7, 24.78], [77.7, 24.78], [77.7, 24.78], [78.9, 24.3], [78.66, 23.94], [78.66, 23.94], [78.66, 23.94], [78.66, 23.82], [78.9, 23.22], [78.9, 23.22], [78.9, 23.22], [78.66, 23.34], [78.54, 24.06], [78.54, 24.06]]}, "properties": {"kind": "member_track", "member": 16, "track": 0, "hazard": "heat_dome", "leads_h": [54, 60, 66, 72, 78, 84, 90, 96, 102, 108, 114, 120, 126, 132, 138, 144, 150, 156, 162, 168, 174, 180, 186, 192, 198], "max_event_prob": 1.0, "main": true}}, {"type": "Feature", "geometry": {"type": "LineString", "coordinates": [[75.66, 23.46], [75.66, 23.46]]}, "properties": {"kind": "member_track", "member": 17, "track": 0, "hazard": "heat_dome", "leads_h": [54, 60], "max_event_prob": 1.0, "main": false}}, {"type": "Feature", "geometry": {"type": "LineString", "coordinates": [[81.42, 24.06], [80.94, 25.02], [80.94, 25.02], [80.94, 25.02], [79.62, 25.26], [76.38, 25.98], [76.38, 25.98], [76.38, 25.98], [76.38, 25.86], [80.94, 20.58], [80.94, 20.58], [81.9, 21.18], [77.22, 25.38], [77.22, 25.38], [77.22, 25.38], [77.58, 24.78], [77.58, 24.78], [77.58, 24.78], [77.34, 24.9]]}, "properties": {"kind": "member_track", "member": 17, "track": 1, "hazard": "heat_dome", "leads_h": [66, 72, 78, 84, 90, 96, 102, 108, 114, 126, 132, 138, 150, 156, 162, 168, 174, 180, 186], "max_event_prob": 1.0, "main": true}}, {"type": "Feature", "geometry": {"type": "LineString", "coordinates": [[75.3, 24.06], [75.3, 24.06], [75.9, 24.42], [79.86, 25.5], [79.86, 25.5], [79.86, 25.5], [79.5, 25.14], [77.46, 24.54], [77.46, 24.54], [77.46, 24.54], [77.22, 24.3], [77.22, 24.78], [77.22, 24.78], [77.22, 24.78], [77.46, 24.66], [77.34, 24.54], [77.34, 24.54], [77.34, 24.54], [78.3, 24.3], [79.62, 22.98], [79.62, 22.98], [79.62, 22.98], [79.38, 22.98], [79.86, 22.38], [79.86, 22.38], [79.86, 22.38]]}, "properties": {"kind": "member_track", "member": 18, "track": 0, "hazard": "heat_dome", "leads_h": [54, 60, 66, 72, 78, 84, 90, 96, 102, 108, 114, 120, 126, 132, 138, 144, 150, 156, 162, 168, 174, 180, 186, 192, 198, 204], "max_event_prob": 1.0, "main": true}}, {"type": "Feature", "geometry": {"type": "LineString", "coordinates": [[74.94, 24.42], [74.94, 24.42], [79.14, 24.54], [79.86, 25.38], [79.86, 25.38], [79.86, 25.38], [77.34, 25.38], [78.3, 25.62], [78.3, 25.62], [78.3, 25.62], [78.54, 25.26], [78.66, 24.9], [78.66, 24.9], [78.66, 24.9], [78.9, 24.9], [78.9, 24.06], [78.9, 24.06], [78.9, 24.06], [78.9, 24.06], [78.3, 24.18], [78.3, 24.18], [78.3, 24.18], [78.06, 24.06]]}, "properties": {"kind": "member_track", "member": 19, "track": 0, "hazard": "heat_dome", "leads_h": [54, 60, 66, 72, 78, 84, 90, 96, 102, 108, 114, 120, 126, 132, 138, 144, 150, 156, 162, 168, 174, 180, 186], "max_event_prob": 1.0, "main": true}}, {"type": "Feature", "geometry": {"type": "LineString", "coordinates": [[77.94, 24.54], [77.12666666666668, 24.193333333333342], [77.12666666666668, 24.193333333333342], [77.87684210526318, 24.369473684210533], [78.59684210526316, 25.019999999999996], [78.59684210526316, 25.019999999999996], [78.59684210526316, 25.019999999999996], [77.88947368421051, 24.899999999999995], [77.36666666666667, 25.080000000000005], [77.36666666666667, 25.080000000000005], [77.36666666666667, 25.080000000000005], [77.20666666666666, 24.833333333333336], [77.7, 24.172941176470584], [77.88000000000001, 23.973333333333333], [77.88000000000001, 23.973333333333333], [78.38000000000004, 23.846666666666668], [78.14470588235295, 23.66470588235294], [78.09333333333335, 23.76], [78.09333333333335, 23.76], [78.64666666666668, 23.733333333333334], [79.38705882352942, 23.13529411764706], [79.38705882352942, 23.13529411764706], [79.38705882352942, 23.13529411764706], [78.80823529411764, 22.972941176470584], [79.04181818181817, 21.834545454545456], [79.3153846153846, 21.88153846153846], [79.48, 21.259999999999998], [79.66000000000001, 21.900000000000002], [81.3, 21.78]]}, "properties": {"kind": "consensus", "hazard": "heat_dome", "leads_h": [48, 54, 60, 66, 72, 78, 84, 90, 96, 102, 108, 114, 120, 126, 132, 138, 144, 150, 156, 162, 168, 174, 180, 186, 192, 198, 204, 210, 216], "spread_km": [0.0, 197.2, 197.2, 177.1, 163.9, 163.9, 163.9, 145.8, 130.9, 130.9, 130.9, 109.0, 139.8, 165.8, 165.8, 171.6, 119.0, 122.7, 122.7, 134.2, 182.0, 182.0, 182.0, 162.3, 204.5, 222.3, 183.2, 169.7, 0.0], "member_count": [1, 18, 18, 19, 19, 19, 19, 19, 18, 18, 18, 18, 17, 18, 18, 18, 17, 18, 18, 18, 17, 17, 17, 17, 11, 13, 6, 3, 1], "n_members": 20}}, {"type": "Feature", "geometry": {"type": "Polygon", "coordinates": [[[66.72, 9.24], [96.96000000000001, 9.24], [96.96000000000001, 35.400000000000006], [66.72, 35.400000000000006], [66.72, 9.24]]]}, "properties": {"kind": "bbox4d", "lat_min": 9.24, "lat_max": 35.400000000000006, "lon_min": 66.72, "lon_max": 96.96000000000001, "level_hPa_bottom": 1013, "level_hPa_top": 1013, "t_start": "2024-05-24 06:00:00", "t_end": "2024-05-30 06:00:00", "lead_start_h": 54, "lead_end_h": 198, "member_count_min": 11, "n_members": 20, "hazard": "heat_dome", "source": "GNN consensus"}}]}