{"type": "FeatureCollection", "features": [{"type": "Feature", "geometry": {"type": "LineString", "coordinates": [[86.34, 3.06], [86.82, 4.26], [87.42, 5.1], [87.78, 6.06], [87.78, 7.14], [86.82, 7.86], [86.46, 8.22], [85.38, 7.98], [84.3, 7.86], [83.34, 7.74], [81.9, 8.1], [81.18, 8.22], [80.94, 8.46], [81.18, 8.7], [82.5, 9.06], [83.58, 9.54], [85.14, 10.02], [86.46, 10.5], [87.78, 10.86], [88.74, 10.74], [90.18, 11.34], [90.3, 12.18], [91.38, 13.5], [90.78, 13.86], [91.14, 14.22], [91.14, 14.94], [91.5, 16.26], [92.82, 15.9], [92.7, 16.62], [93.66, 17.82], [92.94, 17.94], [94.02, 19.26]]}, "properties": {"kind": "member_track", "member": 0, "track": 0, "hazard": "tropical_cyclone", "leads_h": [36, 42, 48, 54, 60, 66, 72, 78, 84, 90, 96, 102, 108, 114, 120, 126, 132, 138, 144, 150, 156, 162, 168, 174, 180, 186, 192, 198, 204, 210, 216, 222], "min_msl_hpa": 772.5, "main": true}}, {"type": "Feature", "geometry": {"type": "LineString", "coordinates": [[85.98, 4.38], [86.22, 5.82], [86.82, 6.78], [87.3, 7.98], [87.06, 8.82], [86.82, 10.02], [85.98, 10.26], [85.26, 10.26], [84.42, 10.38], [82.74, 10.38], [81.42, 10.74], [80.34, 11.7], [80.34, 12.66], [81.9, 12.9], [83.94, 13.38], [85.5, 13.98], [86.7, 14.7]]}, "properties": {"kind": "member_track", "member": 1, "track": 0, "hazard": "tropical_cyclone", "leads_h": [36, 42, 48, 54, 60, 66, 72, 78, 84, 90, 96, 108, 114, 120, 126, 132, 138], "min_msl_hpa": 972.0, "main": true}}, {"type": "Feature", "geometry": {"type": "LineString", "coordinates": [[87.42, 15.42], [87.66, 16.38], [88.38, 16.98], [88.5, 17.46], [89.82, 18.66], [89.58, 19.02], [90.54, 20.58], [91.02, 22.5], [91.14, 22.62], [92.1, 23.94], [93.06, 23.1], [94.62, 27.3]]}, "properties": {"kind": "member_track", "member": 1, "track": 1, "hazard": "tropical_cyclone", "leads_h": [144, 150, 156, 162, 168, 174, 180, 186, 192, 198, 204, 216], "min_msl_hpa": 976.1, "main": false}}, {"type": "Feature", "geometry": {"type": "LineString", "coordinates": [[93.9, 24.78], [96.54, 28.26]]}, "properties": {"kind": "member_track", "member": 1, "track": 2, "hazard": "tropical_cyclone", "leads_h": [210, 222], "min_msl_hpa": 980.5, "main": false}}, {"type": "Feature", "geometry": {"type": "LineString", "coordinates": [[85.74, 3.54], [86.46, 4.86], [87.06, 5.58], [87.42, 6.78], [87.42, 7.38], [86.46, 7.98], [85.62, 7.74], [84.3, 7.74], [83.82, 7.86], [82.86, 7.98], [81.9, 8.58], [81.06, 8.46], [80.7, 9.06], [81.54, 9.18], [82.62, 9.9], [83.82, 10.38], [85.38, 11.58], [87.06, 12.42], [88.02, 12.9], [89.58, 13.98], [90.54, 15.9], [90.54, 17.58], [90.78, 19.86], [90.9, 19.62], [92.46, 19.02], [92.58, 19.02], [93.18, 19.38]]}, "properties": {"kind": "member_track", "member": 2, "track": 0, "hazard": "tropical_cyclone", "leads_h": [36, 42, 48, 54, 60, 66, 72, 78, 84, 90, 96, 102, 108, 114, 120, 126, 132, 138, 144, 156, 168, 180, 192, 204, 210, 216, 222], "min_msl_hpa": 960.0, "main": true}}, {"type": "Feature", "geometry": {"type": "LineString", "coordinates": [[88.74, 13.5], [89.94, 14.94], [90.3, 16.86], [89.94, 19.62], [91.62, 19.98]]}, "properties": {"kind": "member_track", "member": 2, "track": 1, "hazard": "tropical_cyclone", "leads_h": [150, 162, 174, 186, 198], "min_msl_hpa": 961.9, "main": false}}, {"type": "Feature", "geometry": {"type": "LineString", "coordinates": [[86.82, 2.58], [87.66, 3.9], [88.26, 4.62], [88.74, 5.58], [88.74, 6.42], [88.14, 6.9], [87.54, 7.02], [86.7, 7.26], [84.66, 7.38], [82.74, 7.38], [83.7, 8.94], [87.18, 9.42]]}, "properties": {"kind": "member_track", "member": 3, "track": 0, "hazard": "tropical_cyclone", "leads_h": [36, 42, 48, 54, 60, 66, 72, 78, 90, 102, 114, 126], "min_msl_hpa": 932.5, "main": false}}, {"type": "Feature", "geometry": {"type": "LineString", "coordinates": [[85.86, 7.14], [83.82, 7.26], [82.98, 7.98], [85.14, 9.06], [88.62, 10.26], [89.82, 10.86], [91.38, 11.22], [92.82, 11.58], [94.14, 11.46], [94.74, 12.42], [95.34, 13.26], [95.94, 14.46], [95.82, 16.38], [96.42, 17.34], [97.14, 16.74], [97.38, 16.74], [97.86, 16.86], [99.18, 17.34], [99.78, 19.14], [99.9, 19.5]]}, "properties": {"kind": "member_track", "member": 3, "track": 1, "hazard": "tropical_cyclone", "leads_h": [84, 96, 108, 120, 132, 138, 144, 150, 156, 162, 168, 174, 180, 186, 192, 198, 204, 210, 216, 222], "min_msl_hpa": 912.4, "main": true}}, {"type": "Feature", "geometry": {"type": "LineString", "coordinates": [[65.94, 15.18], [65.82, 15.18], [65.7, 15.3], [65.7, 15.54], [65.46, 15.54], [65.34, 15.66], [65.34, 15.66], [65.34, 15.78], [65.34, 15.78], [65.34, 15.78]]}, "properties": {"kind": "member_track", "member": 3, "track": 2, "hazard": "tropical_cyclone", "leads_h": [108, 114, 120, 132, 138, 144, 150, 156, 162, 168], "min_msl_hpa": 985.6, "main": false}}, {"type": "Feature", "geometry": {"type": "LineString", "coordinates": [[86.34, 4.26], [87.3, 6.42], [87.78, 7.74], [87.54, 8.82], [86.94, 9.9], [85.86, 10.02], [84.54, 10.74], [82.74, 11.46], [81.9, 11.7], [83.82, 12.78], [84.66, 14.1], [85.98, 15.3], [87.9, 16.14], [88.62, 16.86], [88.86, 16.86], [89.7, 18.9]]}, "properties": {"kind": "member_track", "member": 4, "track": 0, "hazard": "tropical_cyclone", "leads_h": [36, 48, 54, 60, 66, 72, 84, 96, 108, 120, 126, 132, 138, 144, 150, 162], "min_msl_hpa": 921.7, "main": true}}, {"type": "Feature", "geometry": {"type": "LineString", "coordinates": [[84.78, 10.02], [83.94, 11.22], [81.78, 11.94], [82.86, 12.3]]}, "properties": {"kind": "member_track", "member": 4, "track": 1, "hazard": "tropical_cyclone", "leads_h": [78, 90, 102, 114], "min_msl_hpa": 950.4, "main": false}}, {"type": "Feature", "geometry": {"type": "LineString", "coordinates": [[89.7, 17.34], [90.06, 19.86], [90.54, 20.82], [91.14, 22.14], [91.02, 23.58], [91.02, 24.3], [91.74, 24.42], [92.58, 25.62], [92.82, 26.22], [93.42, 26.7], [95.1, 27.42]]}, "properties": {"kind": "member_track", "member": 4, "track": 2, "hazard": "tropical_cyclone", "leads_h": [156, 168, 174, 180, 186, 192, 198, 204, 210, 216, 222], "min_msl_hpa": 914.0, "main": false}}, {"type": "Feature", "geometry": {"type": "LineString", "coordinates": [[85.74, 3.54], [86.22, 5.1], [86.7, 5.94], [87.06, 7.14], [86.94, 7.98], [86.1, 8.94], [85.5, 9.06], [84.66, 9.18], [84.06, 9.54], [82.74, 9.54], [81.18, 9.78], [80.22, 10.26], [80.7, 10.26], [81.06, 10.74], [82.62, 10.86], [84.9, 12.3], [87.66, 13.98]]}, "properties": {"kind": "member_track", "member": 5, "track": 0, "hazard": "tropical_cyclone", "leads_h": [36, 42, 48, 54, 60, 66, 72, 78, 84, 90, 96, 102, 108, 114, 120, 132, 144], "min_msl_hpa": 954.8, "main": true}}, {"type": "Feature", "geometry": {"type": "LineString", "coordinates": [[83.58, 11.46], [86.1, 13.02], [87.78, 14.58], [88.62, 16.74]]}, "properties": {"kind": "member_track", "member": 5, "track": 1, "hazard": "tropical_cyclone", "leads_h": [126, 138, 150, 162], "min_msl_hpa": 954.8, "main": false}}, {"type": "Feature", "geometry": {"type": "LineString", "coordinates": [[88.5, 15.18], [89.1, 17.1], [90.18, 18.3], [89.46, 20.7], [89.22, 21.06], [90.18, 21.42], [90.66, 22.02], [91.14, 22.62], [91.26, 23.22], [91.86, 23.7]]}, "properties": {"kind": "member_track", "member": 5, "track": 2, "hazard": "tropical_cyclone", "leads_h": [156, 168, 174, 186, 192, 198, 204, 210, 216, 222], "min_msl_hpa": 954.0, "main": false}}, {"type": "Feature", "geometry": {"type": "LineString", "coordinates": [[85.02, 3.54], [85.5, 4.86], [85.74, 5.82], [86.22, 6.66], [85.74, 7.5], [84.78, 8.22], [83.94, 8.34], [82.62, 7.98], [81.54, 8.46], [80.7, 8.46], [79.74, 8.82], [78.42, 8.94], [78.06, 8.94], [78.42, 9.66], [79.5, 10.38], [81.18, 10.86], [82.14, 11.58], [83.46, 12.54], [84.78, 13.14], [84.66, 13.74], [85.5, 13.98], [85.38, 14.34], [85.74, 14.1], [85.62, 14.94], [86.82, 16.38], [86.82, 17.82], [87.42, 18.42], [87.54, 18.06], [88.14, 18.78]]}, "properties": {"kind": "member_track", "member": 6, "track": 0, "hazard": "tropical_cyclone", "leads_h": [36, 42, 48, 54, 60, 66, 72, 78, 84, 90, 96, 102, 108, 114, 120, 126, 132, 138, 144, 150, 156, 162, 168, 174, 180, 186, 192, 198, 204], "min_msl_hpa": 916.5, "main": true}}, {"type": "Feature", "geometry": {"type": "LineString", "coordinates": [[65.7, 15.06], [65.82, 15.06], [65.82, 15.18], [65.58, 15.3], [65.7, 15.54], [65.46, 15.42], [65.46, 15.66]]}, "properties": {"kind": "member_track", "member": 6, "track": 1, "hazard": "tropical_cyclone", "leads_h": [126, 132, 138, 144, 150, 156, 162], "min_msl_hpa": 990.9, "main": false}}, {"type": "Feature", "geometry": {"type": "LineString", "coordinates": [[89.1, 19.5], [88.5, 21.18], [88.26, 21.66]]}, "properties": {"kind": "member_track", "member": 6, "track": 2, "hazard": "tropical_cyclone", "leads_h": [210, 216, 222], "min_msl_hpa": 919.5, "main": false}}, {"type": "Feature", "geometry": {"type": "LineString", "coordinates": [[85.5, 3.54], [85.98, 4.74], [86.7, 5.58], [87.06, 6.78], [86.82, 7.5], [86.34, 8.22], [85.14, 7.98], [83.82, 8.34], [83.22, 8.46], [82.26, 8.82], [81.18, 8.58], [80.94, 8.58], [81.42, 9.18], [84.66, 10.38], [86.1, 11.1], [87.54, 11.82], [88.38, 12.42], [88.5, 12.78], [89.82, 13.98]]}, "properties": {"kind": "member_track", "member": 7, "track": 0, "hazard": "tropical_cyclone", "leads_h": [36, 42, 48, 54, 60, 66, 78, 84, 90, 96, 102, 108, 114, 126, 132, 138, 144, 150, 162], "min_msl_hpa": 947.8, "main": true}}, {"type": "Feature", "geometry": {"type": "LineString", "coordinates": [[89.7, 13.5], [91.02, 14.58], [90.66, 15.3], [90.3, 16.98], [91.38, 18.3], [91.14, 19.86], [92.46, 19.5], [93.42, 20.22], [94.62, 21.9]]}, "properties": {"kind": "member_track", "member": 7, "track": 1, "hazard": "tropical_cyclone", "leads_h": [156, 168, 174, 180, 186, 192, 198, 204, 216], "min_msl_hpa": 948.4, "main": false}}, {"type": "Feature", "geometry": {"type": "LineString", "coordinates": [[93.9, 20.82], [94.86, 22.74]]}, "properties": {"kind": "member_track", "member": 7, "track": 2, "hazard": "tropical_cyclone", "leads_h": [210, 222], "min_msl_hpa": 952.8, "main": false}}, {"type": "Feature", "geometry": {"type": "LineString", "coordinates": [[85.62, 4.74], [86.22, 6.3], [86.34, 7.38], [86.82, 8.82], [86.22, 9.9], [85.38, 10.74], [85.02, 10.86], [84.3, 10.86], [83.7, 11.22], [82.86, 11.46], [81.54, 12.06], [79.74, 12.66], [79.98, 13.14], [81.42, 13.14], [83.34, 14.46], [84.9, 15.78], [86.7, 17.7], [88.86, 19.86], [89.46, 21.42]]}, "properties": {"kind": "member_track", "member": 8, "track": 0, "hazard": "tropical_cyclone", "leads_h": [36, 42, 48, 54, 60, 66, 72, 78, 84, 90, 96, 108, 114, 120, 126, 132, 144, 156, 168], "min_msl_hpa": 931.5, "main": true}}, {"type": "Feature", "geometry": {"type": "LineString", "coordinates": [[85.5, 16.74], [87.54, 18.78], [88.86, 20.58], [90.18, 22.38], [91.98, 24.42]]}, "properties": {"kind": "member_track", "member": 8, "track": 1, "hazard": "tropical_cyclone", "leads_h": [138, 150, 162, 174, 186], "min_msl_hpa": 932.0, "main": false}}, {"type": "Feature", "geometry": {"type": "LineString", "coordinates": [[91.38, 23.22], [90.78, 25.26], [90.9, 24.9], [91.14, 25.98]]}, "properties": {"kind": "member_track", "member": 8, "track": 2, "hazard": "tropical_cyclone", "leads_h": [180, 192, 198, 204], "min_msl_hpa": 927.5, "main": false}}, {"type": "Feature", "geometry": {"type": "LineString", "coordinates": [[92.34, 25.86], [93.42, 27.06], [95.7, 27.66]]}, "properties": {"kind": "member_track", "member": 8, "track": 3, "hazard": "tropical_cyclone", "leads_h": [210, 216, 222], "min_msl_hpa": 934.5, "main": false}}, {"type": "Feature", "geometry": {"type": "LineString", "coordinates": [[86.94, 3.3], [87.66, 4.5], [88.26, 5.82], [88.62, 7.02], [88.62, 7.98], [88.26, 8.22], [87.78, 8.34], [87.06, 8.58], [86.34, 8.58], [84.42, 8.34], [84.3, 9.18]]}, "properties": {"kind": "member_track", "member": 9, "track": 0, "hazard": "tropical_cyclone", "leads_h": [36, 42, 48, 54, 60, 66, 72, 78, 84, 96, 108], "min_msl_hpa": 962.2, "main": false}}, {"type": "Feature", "geometry": {"type": "LineString", "coordinates": [[85.14, 8.22], [83.82, 8.58], [84.78, 9.54], [86.34, 10.14], [87.3, 11.34], [89.1, 12.06]]}, "properties": {"kind": "member_track", "member": 9, "track": 1, "hazard": "tropical_cyclone", "leads_h": [90, 102, 114, 120, 126, 132], "min_msl_hpa": 947.6, "main": false}}, {"type": "Feature", "geometry": {"type": "LineString", "coordinates": [[90.54, 12.9], [91.74, 13.86], [92.58, 14.46], [92.7, 15.18], [92.7, 15.78], [93.18, 16.26], [94.14, 17.58], [95.1, 18.18], [95.7, 19.14], [95.7, 20.1], [97.02, 20.22], [97.98, 21.3], [98.34, 20.34], [98.82, 21.9]]}, "properties": {"kind": "member_track", "member": 9, "track": 2, "hazard": "tropical_cyclone", "leads_h": [138, 144, 150, 156, 162, 168, 174, 180, 186, 192, 198, 204, 210, 222], "min_msl_hpa": 941.8, "main": true}}, {"type": "Feature", "geometry": {"type": "LineString", "coordinates": [[86.34, 3.54], [86.82, 4.74], [87.54, 5.94], [87.78, 6.66], [87.42, 7.38], [86.7, 7.86], [85.62, 8.1], [84.78, 8.22], [84.42, 8.1], [83.58, 7.98], [82.98, 8.82], [81.78, 8.82], [81.66, 9.06], [82.74, 9.9], [84.3, 10.14], [86.46, 11.34], [87.78, 12.06], [88.74, 12.54], [90.3, 13.02], [90.54, 13.74], [91.86, 14.1], [92.1, 15.78], [92.58, 16.86], [93.54, 19.14], [93.9, 19.98], [94.62, 19.38], [95.34, 20.1], [96.66, 21.3], [97.26, 22.38], [97.38, 22.5]]}, "properties": {"kind": "member_track", "member": 10, "track": 0, "hazard": "tropical_cyclone", "leads_h": [36, 42, 48, 54, 60, 66, 72, 78, 84, 90, 96, 102, 108, 114, 120, 126, 132, 138, 144, 150, 156, 162, 174, 186, 192, 198, 204, 210, 216, 222], "min_msl_hpa": 854.0, "main": true}}, {"type": "Feature", "geometry": {"type": "LineString", "coordinates": [[92.46, 16.14], [92.7, 17.94]]}, "properties": {"kind": "member_track", "member": 10, "track": 1, "hazard": "tropical_cyclone", "leads_h": [168, 180], "min_msl_hpa": 866.2, "main": false}}, {"type": "Feature", "geometry": {"type": "LineString", "coordinates": [[85.02, 3.66], [85.26, 4.86], [85.5, 5.94], [85.86, 7.26], [85.38, 8.1], [83.58, 9.3], [82.98, 8.94]]}, "properties": {"kind": "member_track", "member": 11, "track": 0, "hazard": "tropical_cyclone", "leads_h": [36, 42, 48, 54, 60, 72, 78], "min_msl_hpa": 990.0, "main": false}}, {"type": "Feature", "geometry": {"type": "LineString", "coordinates": [[82.26, 9.06], [81.18, 9.3], [80.34, 10.02], [79.26, 10.14], [78.78, 10.38], [79.26, 11.1], [80.22, 11.94], [81.66, 12.3], [82.62, 12.66], [83.7, 13.38], [85.02, 13.86], [84.9, 15.06], [85.5, 15.66]]}, "properties": {"kind": "member_track", "member": 11, "track": 1, "hazard": "tropical_cyclone", "leads_h": [84, 90, 96, 102, 108, 114, 120, 126, 132, 138, 144, 150, 156], "min_msl_hpa": 929.0, "main": true}}, {"type": "Feature", "geometry": {"type": "LineString", "coordinates": [[85.5, 16.62], [85.74, 18.18], [85.74, 19.26], [85.98, 20.82], [85.26, 22.14], [84.78, 23.1], [84.66, 22.62], [86.1, 21.66], [86.34, 22.02], [87.3, 22.98], [89.1, 24.3]]}, "properties": {"kind": "member_track", "member": 11, "track": 2, "hazard": "tropical_cyclone", "leads_h": [162, 168, 174, 180, 186, 192, 198, 204, 210, 216, 222], "min_msl_hpa": 929.4, "main": false}}, {"type": "Feature", "geometry": {"type": "LineString", "coordinates": [[86.1, 2.94], [86.46, 3.78], [86.94, 4.86], [87.18, 5.7], [86.94, 6.3]]}, "properties": {"kind": "member_track", "member": 12, "track": 0, "hazard": "tropical_cyclone", "leads_h": [36, 42, 48, 54, 60], "min_msl_hpa": 1002.1, "main": true}}, {"type": "Feature", "geometry": {"type": "LineString", "coordinates": [[86.34, 3.06], [86.82, 4.62], [87.66, 5.82], [88.14, 6.78], [87.9, 7.62], [87.42, 8.58], [86.58, 8.94], [85.74, 8.82], [85.62, 9.18], [84.54, 9.3], [83.58, 9.54], [82.86, 9.78], [82.74, 10.26], [83.1, 10.5], [84.9, 10.74], [86.94, 11.22], [88.14, 12.06], [88.62, 11.94], [89.94, 12.66], [90.78, 12.66], [91.26, 13.5], [92.1, 14.7]]}, "properties": {"kind": "member_track", "member": 13, "track": 0, "hazard": "tropical_cyclone", "leads_h": [36, 42, 48, 54, 60, 66, 72, 78, 84, 90, 96, 102, 108, 114, 120, 126, 132, 138, 144, 150, 156, 162], "min_msl_hpa": 918.5, "main": true}}, {"type": "Feature", "geometry": {"type": "LineString", "coordinates": [[92.22, 14.34], [92.22, 15.06], [92.34, 15.9], [92.82, 16.86], [94.14, 17.1], [93.66, 16.26], [94.26, 16.86], [95.58, 16.74], [97.5, 17.82], [98.94, 19.26]]}, "properties": {"kind": "member_track", "member": 13, "track": 1, "hazard": "tropical_cyclone", "leads_h": [168, 174, 180, 186, 192, 198, 204, 210, 216, 222], "min_msl_hpa": 912.4, "main": false}}, {"type": "Feature", "geometry": {"type": "LineString", "coordinates": [[86.1, 3.42], [86.46, 4.86], [87.06, 5.7], [87.42, 6.54], [87.3, 7.38], [86.7, 7.98], [86.22, 7.98], [85.5, 7.98], [84.54, 8.22], [83.46, 8.46], [82.38, 8.82], [81.42, 9.54], [80.94, 9.66], [80.46, 9.9], [81.66, 10.38], [83.58, 10.74], [84.66, 10.74], [87.66, 12.78], [89.22, 13.86], [89.58, 15.9], [90.66, 16.02], [91.02, 17.58], [91.26, 18.42], [91.98, 19.38], [92.34, 19.86], [91.98, 19.62], [92.7, 20.22], [94.26, 21.78], [94.86, 22.5]]}, "properties": {"kind": "member_track", "member": 14, "track": 0, "hazard": "tropical_cyclone", "leads_h": [36, 42, 48, 54, 60, 66, 72, 78, 84, 90, 96, 102, 108, 114, 120, 126, 132, 144, 156, 168, 174, 180, 186, 192, 198, 204, 210, 216, 222], "min_msl_hpa": 939.6, "main": true}}, {"type": "Feature", "geometry": {"type": "LineString", "coordinates": [[85.86, 11.94], [88.38, 13.38], [88.86, 14.82]]}, "properties": {"kind": "member_track", "member": 14, "track": 1, "hazard": "tropical_cyclone", "leads_h": [138, 150, 162], "min_msl_hpa": 945.1, "main": false}}, {"type": "Feature", "geometry": {"type": "LineString", "coordinates": [[85.86, 3.06], [86.34, 4.14], [86.82, 4.98], [87.18, 6.3], [86.7, 7.02], [85.98, 7.86], [85.26, 7.74], [84.54, 7.98], [83.34, 7.98], [82.14, 7.98], [80.58, 8.1], [80.34, 9.54], [81.9, 9.78], [83.82, 10.86]]}, "properties": {"kind": "member_track", "member": 15, "track": 0, "hazard": "tropical_cyclone", "leads_h": [36, 42, 48, 54, 60, 66, 72, 78, 84, 90, 102, 114, 120, 126], "min_msl_hpa": 959.0, "main": true}}, {"type": "Feature", "geometry": {"type": "LineString", "coordinates": [[81.3, 8.1], [80.22, 8.46]]}, "properties": {"kind": "member_track", "member": 15, "track": 1, "hazard": "tropical_cyclone", "leads_h": [96, 108], "min_msl_hpa": 970.4, "main": false}}, {"type": "Feature", "geometry": {"type": "LineString", "coordinates": [[85.62, 11.22], [87.06, 11.46], [87.9, 12.54], [87.78, 12.9], [88.62, 13.62], [88.38, 14.34], [89.94, 15.06], [89.94, 15.78], [90.9, 16.5], [91.62, 17.46], [92.82, 18.06], [92.7, 19.26], [93.78, 19.74], [95.34, 21.66]]}, "properties": {"kind": "member_track", "member": 15, "track": 2, "hazard": "tropical_cyclone", "leads_h": [132, 138, 144, 150, 156, 162, 168, 174, 180, 186, 192, 204, 210, 222], "min_msl_hpa": 953.1, "main": false}}, {"type": "Feature", "geometry": {"type": "LineString", "coordinates": [[84.9, 3.9], [85.26, 4.98], [85.5, 5.82], [85.98, 7.14], [84.9, 8.94]]}, "properties": {"kind": "member_track", "member": 16, "track": 0, "hazard": "tropical_cyclone", "leads_h": [36, 42, 48, 54, 66], "min_msl_hpa": 997.5, "main": false}}, {"type": "Feature", "geometry": {"type": "LineString", "coordinates": [[85.38, 8.22], [83.94, 9.42], [83.1, 9.06], [81.9, 9.06], [81.06, 9.42], [79.86, 9.54], [79.26, 10.02], [79.14, 10.26], [78.9, 10.5], [79.38, 10.74], [81.18, 11.34], [82.02, 12.3], [83.82, 13.26], [84.78, 14.22], [85.14, 14.34], [85.98, 15.42]]}, "properties": {"kind": "member_track", "member": 16, "track": 1, "hazard": "tropical_cyclone", "leads_h": [60, 72, 78, 84, 90, 96, 102, 108, 114, 120, 126, 132, 138, 144, 150, 156], "min_msl_hpa": 938.6, "main": true}}, {"type": "Feature", "geometry": {"type": "LineString", "coordinates": [[86.7, 16.5], [87.78, 16.86], [87.3, 17.34], [87.42, 19.02], [88.38, 20.46], [87.9, 21.3], [87.42, 21.06], [86.7, 22.26], [88.5, 23.46], [88.74, 23.94], [90.18, 24.66]]}, "properties": {"kind": "member_track", "member": 16, "track": 2, "hazard": "tropical_cyclone", "leads_h": [162, 168, 174, 180, 186, 192, 198, 204, 210, 216, 222], "min_msl_hpa": 935.6, "main": false}}, {"type": "Feature", "geometry": {"type": "LineString", "coordinates": [[85.62, 4.14], [86.34, 5.34], [87.06, 6.18], [86.82, 8.82]]}, "properties": {"kind": "member_track", "member": 17, "track": 0, "hazard": "tropical_cyclone", "leads_h": [36, 42, 48, 60], "min_msl_hpa": 998.0, "main": false}}, {"type": "Feature", "geometry": {"type": "LineString", "coordinates": [[87.42, 7.38], [86.46, 9.54], [85.62, 10.02], [84.9, 9.78], [84.54, 10.38], [82.74, 10.02], [82.26, 10.26], [80.82, 10.98], [80.58, 12.06], [83.58, 13.74], [85.98, 14.94], [87.3, 15.18], [87.3, 15.42], [87.9, 17.22], [88.14, 17.7], [88.86, 17.94], [88.26, 19.26], [88.62, 19.74], [89.58, 21.06], [90.3, 22.26], [90.54, 23.7], [90.78, 25.62], [90.06, 25.98], [92.46, 26.34]]}, "properties": {"kind": "member_track", "member": 17, "track": 1, "hazard": "tropical_cyclone", "leads_h": [54, 66, 72, 78, 84, 90, 96, 102, 114, 126, 138, 150, 156, 162, 168, 174, 180, 186, 192, 198, 204, 210, 216, 222], "min_msl_hpa": 948.5, "main": true}}, {"type": "Feature", "geometry": {"type": "LineString", "coordinates": [[80.46, 11.46], [81.66, 12.78], [84.54, 13.98], [86.7, 15.3]]}, "properties": {"kind": "member_track", "member": 17, "track": 2, "hazard": "tropical_cyclone", "leads_h": [108, 120, 132, 144], "min_msl_hpa": 949.6, "main": false}}, {"type": "Feature", "geometry": {"type": "LineString", "coordinates": [[85.14, 3.66], [85.86, 4.74], [86.1, 5.7], [86.34, 6.78], [85.62, 7.74], [84.78, 8.7], [83.34, 9.06], [82.5, 8.7], [82.26, 8.82], [81.18, 8.7], [79.74, 8.82], [78.78, 9.06], [78.78, 9.42], [79.26, 9.78], [80.34, 10.74], [81.78, 11.22], [82.74, 11.94], [83.7, 12.66], [84.54, 12.66], [85.74, 13.26], [85.98, 13.02], [86.1, 13.74], [87.42, 15.9], [88.86, 17.46]]}, "properties": {"kind": "member_track", "member": 18, "track": 0, "hazard": "tropical_cyclone", "leads_h": [36, 42, 48, 54, 60, 66, 72, 78, 84, 90, 96, 102, 108, 114, 120, 126, 132, 138, 144, 150, 156, 162, 174, 186], "min_msl_hpa": 930.2, "main": true}}, {"type": "Feature", "geometry": {"type": "LineString", "coordinates": [[86.94, 14.94], [88.5, 16.5], [89.34, 17.94], [89.22, 18.54], [88.98, 18.9], [89.7, 20.94]]}, "properties": {"kind": "member_track", "member": 18, "track": 1, "hazard": "tropical_cyclone", "leads_h": [168, 180, 192, 198, 204, 216], "min_msl_hpa": 926.6, "main": false}}, {"type": "Feature", "geometry": {"type": "LineString", "coordinates": [[89.94, 19.5], [89.46, 21.18]]}, "properties": {"kind": "member_track", "member": 18, "track": 2, "hazard": "tropical_cyclone", "leads_h": [210, 222], "min_msl_hpa": 929.5, "main": false}}, {"type": "Feature", "geometry": {"type": "LineString", "coordinates": [[84.78, 4.02], [85.14, 5.34], [85.26, 6.06], [85.62, 7.5], [85.26, 8.58], [84.3, 9.42], [83.34, 9.54], [82.26, 9.66], [81.54, 9.9], [80.22, 10.02], [79.86, 10.26], [78.78, 10.62], [78.18, 10.86]]}, "properties": {"kind": "member_track", "member": 19, "track": 0, "hazard": "tropical_cyclone", "leads_h": [36, 42, 48, 54, 60, 66, 72, 78, 84, 90, 96, 102, 108], "min_msl_hpa": 977.5, "main": true}}, {"type": "Feature", "geometry": {"type": "LineString", "coordinates": [[85.796, 3.6199999999999997], [86.23714285714286, 4.868571428571428], [86.76399999999998, 5.844], [87.1575, 6.9750000000000005], [86.75249999999998, 7.829999999999999], [86.132, 8.788], [85.21999999999998, 9.02], [84.33200000000001, 8.812000000000003], [83.69333333333333, 9.013333333333332], [82.41000000000001, 9.075000000000001], [81.61764705882352, 9.511764705882351], [80.39999999999999, 9.394285714285713], [80.4075, 9.9525], [80.57200000000002, 10.436], [82.148, 10.836000000000002], [83.61200000000001, 11.724], [85.108, 12.244000000000002], [86.71714285714287, 12.899999999999997], [87.82, 13.475999999999999], [88.38, 13.699999999999998], [89.08153846153847, 14.367692307692307], [90.084, 14.904000000000002], [90.42, 16.005000000000003], [90.75, 15.944999999999999], [91.24285714285713, 17.08285714285714], [91.545, 18.0], [92.25000000000001, 18.975], [93.14571428571428, 18.917142857142856], [93.18, 19.575], [94.82571428571428, 20.237142857142857], [94.47999999999998, 21.040000000000003], [95.80285714285715, 21.625714285714285]]}, "properties": {"kind": "consensus", "hazard": "tropical_cyclone", "leads_h": [36, 42, 48, 54, 60, 66, 72, 78, 84, 90, 96, 102, 108, 114, 120, 126, 132, 138, 144, 150, 156, 162, 168, 174, 180, 186, 192, 198, 204, 210, 216, 222], "spread_km": [70.9, 76.1, 90.1, 95.7, 120.3, 129.5, 150.1, 151.9, 175.0, 161.4, 179.3, 164.7, 197.5, 185.9, 220.9, 230.3, 260.0, 279.5, 283.2, 329.9, 340.8, 348.8, 346.9, 333.3, 323.8, 347.0, 323.2, 378.5, 389.4, 382.7, 398.7, 349.2], "member_count": [15, 14, 15, 16, 16, 15, 15, 15, 18, 16, 17, 14, 16, 15, 15, 15, 15, 14, 15, 12, 13, 10, 8, 8, 7, 8, 8, 7, 8, 7, 6, 7], "n_members": 20}}, {"type": "Feature", "geometry": {"type": "Polygon", "coordinates": [[[76.8, 2.4], [96.48, 2.4], [96.48, 21.959999999999997], [76.8, 21.959999999999997], [76.8, 2.4]]]}, "properties": {"kind": "bbox4d", "lat_min": 2.4, "lat_max": 21.959999999999997, "lon_min": 76.8, "lon_max": 96.48, "level_hPa_bottom": 1013, "level_hPa_top": 850, "t_start": "2020-05-11 12:00:00", "t_end": "2020-05-16 18:00:00", "lead_start_h": 36, "lead_end_h": 162, "member_count_min": 10, "n_members": 20, "hazard": "tropical_cyclone", "source": "GNN consensus"}}]}