{"type": "FeatureCollection", "features": [{"type": "Feature", "geometry": {"type": "MultiLineString", "coordinates": [[[93.78, 6.84], [93.96, 6.9], [93.9, 7.08], [93.78, 7.2], [93.6, 7.14], [93.66, 6.96], [93.78, 6.84], [93.78, 6.84]], [[77.46, 8.04], [77.58, 8.16], [77.76, 8.22], [77.94, 8.28], [78.06, 8.4], [78.12, 8.58], [78.12, 8.82], [78.24, 8.94], [78.36, 9.06], [78.54, 9.12], [78.72, 9.18], [78.9, 9.24], [79.14, 9.24], [79.14, 9.36], [78.96, 9.42], [78.96, 9.66], [79.08, 9.78], [79.2, 9.9], [79.2, 10.14], [79.32, 10.26], [79.5, 10.32], [79.74, 10.32], [79.8, 10.5], [79.8, 10.74], [79.8, 10.98], [79.8, 11.22], [79.68, 11.34], [79.8, 11.46], [79.8, 11.7], [79.8, 11.94], [79.92, 12.06], [79.98, 12.24], [80.1, 12.36], [80.16, 12.54], [80.22, 12.72], [80.28, 12.9], [80.28, 13.14], [80.28, 13.38], [80.16, 13.5], [80.04, 13.62], [80.22, 13.68], [80.28, 13.86], [80.16, 13.98], [80.16, 14.22], [80.16, 14.46], [80.16, 14.7], [80.04, 14.82], [80.04, 15.06], [80.04, 15.3], [80.16, 15.42], [80.22, 15.6], [80.34, 15.72], [80.46, 15.84], [80.7, 15.84], [80.82, 15.72], [81.0, 15.78], [81.06, 15.96], [81.18, 16.08], [81.24, 16.26], [81.42, 16.32], [81.66, 16.32], [81.84, 16.38], [82.02, 16.44], [82.2, 16.5], [82.32, 16.62], [82.32, 16.86], [82.32, 17.1], [82.5, 17.16], [82.62, 17.28], [82.74, 17.4], [82.92, 17.46], [83.1, 17.52], [83.22, 17.64], [83.34, 17.76], [83.46, 17.88], [83.58, 18.0], [83.7, 18.12], [83.88, 18.18], [84.06, 18.24], [84.18, 18.36], [84.3, 18.48], [84.42, 18.6], [84.48, 18.78], [84.6, 18.9], [84.72, 19.02], [84.84, 19.14], [84.96, 19.26], [85.08, 19.38], [85.2, 19.5], [85.2, 19.74], [85.38, 19.8], [85.5, 19.92], [85.56, 19.74], [85.68, 19.74], [85.86, 19.8], [86.04, 19.86], [86.22, 19.92], [86.34, 20.04], [86.46, 20.16], [86.64, 20.22], [86.76, 20.34], [86.82, 20.52], [86.94, 20.64], [86.94, 20.76], [86.88, 20.94], [86.88, 21.18], [86.94, 21.36], [87.06, 21.48], [87.24, 21.54], [87.42, 21.6], [87.66, 21.6], [87.78, 21.72], [87.9, 21.84], [88.02, 21.96], [88.08, 22.14], [88.2, 22.14], [88.14, 21.96], [88.08, 21.78], [88.14, 21.6], [88.32, 21.66], [88.44, 21.66], [88.56, 21.66], [88.56, 21.9], [88.62, 22.08], [88.68, 21.9], [88.68, 21.66], [88.8, 21.66], [88.92, 21.66], [89.04, 21.66], [88.98, 21.84], [88.98, 21.96], [89.04, 22.14], [89.04, 22.38], [88.92, 22.5], [88.92, 22.74], [88.92, 22.98], [88.86, 23.16], [88.74, 23.28], [88.68, 23.46], [88.56, 23.58], [88.62, 23.76], [88.68, 23.94], [88.68, 24.18], [88.62, 24.36], [88.38, 24.36], [88.26, 24.48], [88.08, 24.54], [88.08, 24.78], [88.26, 24.84], [88.38, 24.96], [88.44, 25.14], [88.62, 25.2], [88.86, 25.2], [88.86, 25.32], [88.74, 25.44], [88.56, 25.5], [88.44, 25.62], [88.32, 25.74], [88.14, 25.8], [88.08, 25.98], [88.2, 26.1], [88.32, 26.22], [88.44, 26.34], [88.5, 26.52], [88.62, 26.4], [88.74, 26.28], [88.92, 26.34], [89.04, 26.34], [89.16, 26.22], [89.22, 26.04], [89.46, 26.04], [89.64, 26.1], [89.76, 26.1], [89.76, 25.86], [89.76, 25.62], [89.76, 25.38], [89.94, 25.32], [90.06, 25.2], [90.3, 25.2], [90.54, 25.2], [90.78, 25.2], [91.02, 25.2], [91.26, 25.2], [91.5, 25.2], [91.74, 25.2], [91.98, 25.2], [92.16, 25.14], [92.34, 25.08], [92.46, 24.96], [92.46, 24.84], [92.28, 24.78], [92.16, 24.66], [92.16, 24.42], [91.98, 24.36], [91.86, 24.24], [91.68, 24.18], [91.5, 24.12], [91.32, 24.06], [91.2, 23.94], [91.2, 23.7], [91.2, 23.46], [91.32, 23.34], [91.38, 23.16], [91.5, 23.04], [91.62, 22.92], [91.74, 23.04], [91.8, 23.22], [91.86, 23.4], [91.92, 23.58], [92.04, 23.7], [92.16, 23.7], [92.28, 23.58], [92.28, 23.34], [92.28, 23.1], [92.4, 22.98], [92.46, 22.8], [92.52, 22.62], [92.52, 22.38], [92.52, 22.14], [92.58, 21.96], [92.7, 22.08], [92.88, 22.02], [93.0, 22.02], [93.06, 22.2], [93.12, 22.38], [93.12, 22.62], [93.12, 22.86], [93.18, 23.04], [93.36, 23.1], [93.36, 23.34], [93.36, 23.58], [93.36, 23.82], [93.42, 24.0], [93.66, 24.0], [93.84, 23.94], [94.02, 23.88], [94.2, 23.94], [94.2, 24.18], [94.32, 24.3], [94.38, 24.48], [94.5, 24.6], [94.56, 24.78], [94.68, 24.9], [94.68, 25.14], [94.56, 25.26], [94.62, 25.44], [94.8, 25.5], [94.92, 25.62], [94.98, 25.8], [95.04, 25.98], [95.16, 26.1], [95.04, 26.22], [95.04, 26.46], [95.16, 26.58], [95.34, 26.64], [95.46, 26.76], [95.58, 26.88], [95.76, 26.94], [95.88, 27.06], [96.0, 27.18], [96.18, 27.24], [96.36, 27.3], [96.54, 27.36], [96.78, 27.36], [96.84, 27.18], [97.02, 27.12], [97.02, 27.24], [96.96, 27.42], [96.84, 27.54], [96.96, 27.66], [97.08, 27.78], [97.26, 27.84], [97.32, 28.02], [97.26, 28.2], [97.14, 28.32], [96.9, 28.32], [96.72, 28.38], [96.54, 28.44], [96.36, 28.5], [96.42, 28.68], [96.6, 28.74], [96.48, 28.86], [96.42, 29.04], [96.24, 28.98], [96.12, 28.98], [96.18, 29.16], [96.36, 29.22], [96.18, 29.28], [96.06, 29.4], [95.82, 29.4], [95.7, 29.28], [95.52, 29.22], [95.4, 29.1], [95.22, 29.04], [95.1, 29.16], [94.86, 29.16], [94.74, 29.28], [94.5, 29.28], [94.38, 29.16], [94.2, 29.1], [94.08, 28.98], [93.96, 28.86], [93.84, 28.74], [93.66, 28.68], [93.42, 28.68], [93.24, 28.62], [93.12, 28.5], [93.06, 28.32], [92.88, 28.26], [92.7, 28.2], [92.64, 28.02], [92.58, 27.84], [92.34, 27.84], [92.1, 27.84], [91.98, 27.72], [91.74, 27.72], [91.56, 27.66], [91.62, 27.48], [91.86, 27.48], [92.04, 27.42], [92.04, 27.18], [92.04, 26.94], [91.86, 26.88], [91.68, 26.82], [91.56, 26.82], [91.38, 26.88], [91.26, 26.76], [91.02, 26.76], [90.78, 26.76], [90.54, 26.76], [90.42, 26.88], [90.24, 26.82], [90.06, 26.76], [89.82, 26.76], [89.58, 26.76], [89.4, 26.82], [89.22, 26.88], [88.98, 26.88], [88.86, 27.0], [88.8, 27.18], [88.92, 27.3], [88.8, 27.42], [88.8, 27.66], [88.8, 27.9], [88.74, 28.08], [88.5, 28.08], [88.38, 27.96], [88.14, 27.96], [88.14, 27.84], [88.14, 27.72], [88.08, 27.54], [88.02, 27.36], [87.96, 27.18], [88.02, 27.0], [88.14, 26.88], [88.2, 26.7], [88.08, 26.58], [88.02, 26.4], [87.78, 26.4], [87.54, 26.4], [87.3, 26.4], [87.12, 26.46], [86.94, 26.52], [86.76, 26.46], [86.64, 26.46], [86.46, 26.52], [86.28, 26.58], [86.1, 26.64], [85.86, 26.64], [85.68, 26.7], [85.62, 26.88], [85.5, 26.76], [85.26, 26.76], [85.14, 26.88], [84.96, 26.94], [84.78, 27.0], [84.66, 27.12], [84.6, 27.3], [84.42, 27.36], [84.24, 27.42], [84.06, 27.48], [83.88, 27.42], [83.7, 27.36], [83.58, 27.48], [83.4, 27.42], [83.22, 27.36], [83.1, 27.48], [82.86, 27.48], [82.68, 27.54], [82.62, 27.72], [82.38, 27.72], [82.2, 27.78], [82.08, 27.9], [81.96, 27.9], [81.84, 27.9], [81.66, 27.96], [81.54, 28.08], [81.36, 28.14], [81.24, 28.26], [81.12, 28.38], [80.94, 28.44], [80.82, 28.56], [80.64, 28.62], [80.52, 28.62], [80.4, 28.62], [80.22, 28.68], [80.1, 28.8], [80.04, 28.98], [80.16, 29.1], [80.28, 29.22], [80.28, 29.46], [80.34, 29.64], [80.46, 29.76], [80.58, 29.88], [80.7, 30.0], [80.82, 30.12], [81.0, 30.18], [80.88, 30.3], [80.7, 30.36], [80.58, 30.48], [80.34, 30.48], [80.22, 30.6], [80.16, 30.78], [79.98, 30.84], [79.86, 30.96], [79.62, 30.96], [79.44, 31.02], [79.32, 31.14], [79.2, 31.26], [79.08, 31.38], [78.96, 31.38], [78.78, 31.32], [78.72, 31.5], [78.84, 31.62], [78.72, 31.74], [78.72, 31.98], [78.6, 32.1], [78.48, 32.22], [78.42, 32.4], [78.42, 32.52], [78.6, 32.58], [78.72, 32.58], [78.84, 32.46], [79.02, 32.4], [79.14, 32.52], [79.2, 32.7], [79.2, 32.94], [79.08, 33.06], [79.02, 33.24], [78.9, 33.36], [78.84, 33.54], [78.84, 33.78], [78.72, 33.9], [78.78, 34.08], [78.9, 34.2], [78.9, 34.32], [78.78, 34.44], [78.66, 34.56], [78.42, 34.56], [78.3, 34.68], [78.24, 34.86], [78.12, 34.98], [78.06, 35.16], [78.0, 35.34], [77.94, 35.52], [77.76, 35.46], [77.58, 35.4], [77.46, 35.28], [77.28, 35.22], [77.1, 35.16], [76.98, 35.04], [76.86, 34.92], [76.74, 34.8], [76.5, 34.8], [76.38, 34.68], [76.14, 34.68], [75.96, 34.62], [75.78, 34.56], [75.54, 34.56], [75.3, 34.56], [75.18, 34.68], [74.94, 34.68], [74.7, 34.68], [74.46, 34.68], [74.34, 34.8], [74.22, 34.68], [73.98, 34.68], [73.92, 34.5], [73.8, 34.38], [73.92, 34.26], [73.92, 34.02], [74.1, 33.96], [74.28, 33.9], [74.1, 33.84], [74.04, 33.66], [74.16, 33.54], [74.1, 33.36], [74.04, 33.18], [74.16, 33.06], [74.28, 32.94], [74.34, 32.76], [74.58, 32.76], [74.64, 32.58], [74.76, 32.46], [74.88, 32.46], [75.0, 32.46], [75.18, 32.4], [75.3, 32.28], [75.3, 32.16], [75.12, 32.1], [74.94, 32.04], [74.76, 31.98], [74.64, 31.86], [74.52, 31.74], [74.58, 31.56], [74.58, 31.44], [74.52, 31.26], [74.58, 31.08], [74.58, 30.96], [74.4, 30.9], [74.28, 30.78], [74.16, 30.66], [74.04, 30.54], [73.92, 30.42], [73.92, 30.18], [73.74, 30.12], [73.62, 30.0], [73.44, 29.94], [73.32, 29.82], [73.26, 29.64], [73.2, 29.46], [73.08, 29.34], [73.02, 29.16], [72.9, 29.04], [72.78, 28.92], [72.6, 28.86], [72.42, 28.8], [72.3, 28.68], [72.24, 28.5], [72.12, 28.38], [72.0, 28.26], [71.88, 28.14], [71.82, 27.96], [71.64, 27.9], [71.46, 27.84], [71.22, 27.84], [71.04, 27.78], [70.86, 27.72], [70.68, 27.78], [70.62, 27.96], [70.38, 27.96], [70.2, 27.9], [70.08, 27.78], [70.02, 27.6], [69.9, 27.48], [69.78, 27.36], [69.66, 27.24], [69.54, 27.12], [69.48, 26.94], [69.54, 26.76], [69.66, 26.64], [69.9, 26.64], [70.08, 26.58], [70.2, 26.46], [70.14, 26.28], [70.08, 26.1], [70.14, 25.92], [70.2, 25.74], [70.38, 25.68], [70.62, 25.68], [70.68, 25.5], [70.74, 25.32], [70.8, 25.14], [70.92, 25.02], [70.98, 24.84], [71.04, 24.66], [70.92, 24.54], [71.04, 24.42], [70.86, 24.36], [70.74, 24.24], [70.56, 24.3], [70.38, 24.36], [70.14, 24.36], [70.02, 24.24], [69.9, 24.12], [69.72, 24.18], [69.54, 24.24], [69.3, 24.24], [69.06, 24.24], [68.82, 24.24], [68.76, 24.06], [68.58, 24.0], [68.34, 24.0], [68.22, 23.88], [68.16, 23.7], [68.34, 23.64], [68.46, 23.76], [68.46, 23.64], [68.46, 23.52], [68.52, 23.34], [68.64, 23.22], [68.76, 23.1], [68.94, 23.04], [69.06, 22.92], [69.24, 22.86], [69.42, 22.8], [69.66, 22.8], [69.84, 22.86], [70.02, 22.92], [70.26, 22.92], [70.38, 23.04], [70.38, 22.92], [70.32, 22.74], [70.2, 22.62], [70.02, 22.56], [69.9, 22.44], [69.66, 22.44], [69.48, 22.38], [69.3, 22.32], [69.12, 22.38], [69.0, 22.38], [69.0, 22.14], [69.12, 22.02], [69.3, 21.96], [69.42, 21.84], [69.54, 21.72], [69.66, 21.6], [69.78, 21.48], [69.9, 21.36], [70.02, 21.24], [70.14, 21.12], [70.26, 21.0], [70.38, 20.88], [70.56, 20.82], [70.74, 20.76], [70.98, 20.76], [71.22, 20.76], [71.34, 20.88], [71.52, 20.94], [71.7, 21.0], [71.82, 21.12], [72.0, 21.18], [72.12, 21.3], [72.24, 21.42], [72.24, 21.66], [72.12, 21.78], [72.18, 21.96], [72.24, 22.14], [72.3, 22.32], [72.42, 22.2], [72.54, 22.32], [72.72, 22.26], [72.6, 22.14], [72.48, 22.02], [72.6, 21.9], [72.66, 21.72], [72.9, 21.72], [72.9, 21.6], [72.72, 21.54], [72.66, 21.36], [72.66, 21.24], [72.78, 21.12], [72.84, 20.94], [72.84, 20.7], [72.84, 20.46], [72.78, 20.28], [72.72, 20.1], [72.72, 19.86], [72.72, 19.62], [72.84, 19.5], [72.72, 19.38], [72.84, 19.26], [72.84, 19.02], [72.96, 18.9], [72.84, 18.78], [72.9, 18.6], [72.96, 18.42], [72.96, 18.18], [73.02, 18.0], [73.08, 17.82], [73.14, 17.64], [73.2, 17.46], [73.2, 17.22], [73.26, 17.04], [73.32, 16.86], [73.32, 16.62], [73.32, 16.38], [73.44, 16.26], [73.5, 16.08], [73.56, 15.9], [73.68, 15.78], [73.74, 15.6], [73.86, 15.48], [73.92, 15.3], [73.92, 15.06], [74.04, 14.94], [74.16, 14.82], [74.28, 14.7], [74.34, 14.52], [74.4, 14.34], [74.52, 14.22], [74.52, 13.98], [74.64, 13.86], [74.64, 13.62], [74.7, 13.44], [74.76, 13.26], [74.76, 13.02], [74.88, 12.9], [74.88, 12.66], [75.0, 12.54], [75.06, 12.36], [75.12, 12.18], [75.24, 12.06], [75.36, 11.94], [75.42, 11.76], [75.54, 11.64], [75.6, 11.46], [75.72, 11.34], [75.84, 11.22], [75.84, 10.98], [75.96, 10.86], [75.96, 10.62], [76.08, 10.5], [76.14, 10.32], [76.2, 10.14], [76.2, 9.9], [76.38, 9.84], [76.44, 9.66], [76.38, 9.48], [76.38, 9.36], [76.44, 9.18], [76.5, 9.0], [76.62, 8.88], [76.68, 8.7], [76.8, 8.58], [76.92, 8.46], [77.04, 8.34], [77.16, 8.22], [77.34, 8.16], [77.46, 8.04], [77.46, 8.04]], [[92.46, 10.56], [92.52, 10.74], [92.46, 10.92], [92.4, 10.74], [92.46, 10.56], [92.46, 10.56]], [[92.7, 11.52], [92.76, 11.7], [92.76, 11.94], [92.82, 12.12], [92.88, 12.3], [92.94, 12.48], [93.0, 12.66], [92.94, 12.84], [92.82, 12.96], [92.64, 12.9], [92.76, 12.78], [92.76, 12.54], [92.76, 12.3], [92.64, 12.18], [92.64, 11.94], [92.52, 11.82], [92.64, 11.7], [92.7, 11.52], [92.7, 11.52]], [[92.94, 13.08], [93.06, 13.2], [93.06, 13.32], [92.94, 13.44], [92.88, 13.26], [92.94, 13.08], [92.94, 13.08]]]}, "properties": {"name": "India (Natural Earth 50m admin-0, rasterised to G12 and contoured)"}}]}