{"type": "FeatureCollection", "features": [{"type": "Feature", "geometry": {"type": "LineString", "coordinates": [[77.7, 15.3], [77.7, 15.3]]}, "properties": {"kind": "member_track", "member": 0, "track": 0, "hazard": "heat_dome", "leads_h": [0, 6], "max_event_prob": 0.999, "main": false}}, {"type": "Feature", "geometry": {"type": "LineString", "coordinates": [[81.66, 21.42], [81.66, 21.42]]}, "properties": {"kind": "member_track", "member": 0, "track": 1, "hazard": "heat_dome", "leads_h": [12, 18], "max_event_prob": 0.826, "main": false}}, {"type": "Feature", "geometry": {"type": "LineString", "coordinates": [[76.38, 13.98], [76.38, 13.98], [76.74, 12.9], [76.74, 12.9]]}, "properties": {"kind": "member_track", "member": 0, "track": 2, "hazard": "heat_dome", "leads_h": [24, 30, 42, 48], "max_event_prob": 1.0, "main": false}}, {"type": "Feature", "geometry": {"type": "LineString", "coordinates": [[77.1, 12.42], [77.1, 12.42], [77.1, 12.42], [77.1, 12.42], [77.34, 12.78], [77.22, 12.66], [77.22, 12.66], [77.22, 12.66], [77.1, 12.54], [77.1, 12.54], [77.1, 12.54], [77.1, 12.54], [77.34, 12.18], [77.34, 12.06], [77.34, 12.06], [77.34, 12.06], [77.1, 11.94], [77.22, 12.06], [77.22, 12.06], [77.22, 12.06], [77.22, 12.06]]}, "properties": {"kind": "member_track", "member": 0, "track": 3, "hazard": "heat_dome", "leads_h": [66, 72, 78, 84, 90, 96, 102, 108, 114, 120, 126, 132, 138, 144, 150, 156, 162, 168, 174, 180, 186], "max_event_prob": 1.0, "main": true}}, {"type": "Feature", "geometry": {"type": "LineString", "coordinates": [[78.3, 26.94], [78.3, 26.94], [78.3, 26.94], [78.54, 26.82]]}, "properties": {"kind": "member_track", "member": 0, "track": 4, "hazard": "heat_dome", "leads_h": [168, 174, 180, 186], "max_event_prob": 0.999, "main": false}}, {"type": "Feature", "geometry": {"type": "LineString", "coordinates": [[77.82, 15.06], [77.82, 15.06], [77.82, 15.06], [77.1, 13.74], [76.86, 13.38], [76.86, 13.38], [76.86, 13.38], [77.22, 13.86], [77.1, 13.14], [77.1, 13.14], [77.1, 13.14], [76.98, 12.54], [77.22, 12.78], [77.22, 12.78], [77.22, 12.78], [77.46, 12.3], [77.46, 12.18], [77.46, 12.18], [77.46, 12.18], [77.58, 12.06], [77.58, 12.18], [77.58, 12.18], [77.58, 12.18], [77.58, 12.06], [77.7, 11.58], [77.7, 11.58], [77.7, 11.58], [77.7, 11.46], [77.7, 11.22], [77.7, 11.22], [77.7, 11.22], [77.58, 10.86], [77.46, 10.74], [77.46, 10.74], [77.46, 10.74], [77.46, 10.38]]}, "properties": {"kind": "member_track", "member": 1, "track": 0, "hazard": "heat_dome", "leads_h": [0, 6, 12, 18, 24, 30, 36, 42, 48, 54, 60, 66, 72, 78, 84, 90, 96, 102, 108, 114, 120, 126, 132, 138, 144, 150, 156, 162, 168, 174, 180, 186, 192, 198, 204, 210], "max_event_prob": 1.0, "main": true}}, {"type": "Feature", "geometry": {"type": "LineString", "coordinates": [[85.86, 24.66], [87.06, 24.9]]}, "properties": {"kind": "member_track", "member": 1, "track": 1, "hazard": "heat_dome", "leads_h": [66, 72], "max_event_prob": 0.831, "main": false}}, {"type": "Feature", "geometry": {"type": "LineString", "coordinates": [[85.62, 23.94], [85.5, 24.42], [85.5, 24.42], [85.5, 24.42], [84.3, 24.54], [83.46, 24.78], [83.46, 24.78], [83.46, 24.78], [82.86, 24.78], [83.34, 24.18], [83.34, 24.18]]}, "properties": {"kind": "member_track", "member": 1, "track": 2, "hazard": "heat_dome", "leads_h": [138, 144, 150, 156, 162, 168, 174, 180, 186, 192, 198], "max_event_prob": 1.0, "main": false}}, {"type": "Feature", "geometry": {"type": "LineString", "coordinates": [[77.58, 15.06], [77.58, 15.06], [76.62, 14.1], [76.26, 14.46], [76.26, 14.46], [76.86, 13.62], [76.98, 12.66], [76.98, 12.66], [76.98, 12.66], [76.98, 12.3], [77.1, 12.42], [77.1, 12.42], [77.1, 12.42], [77.22, 12.42], [77.1, 12.3], [77.1, 12.3], [77.1, 12.3], [77.1, 11.94], [77.1, 11.94], [77.1, 11.94], [77.1, 11.94], [77.1, 11.7], [77.1, 11.7], [77.1, 11.7], [77.1, 11.7], [76.74, 11.34], [76.26, 12.06], [76.26, 12.06]]}, "properties": {"kind": "member_track", "member": 2, "track": 0, "hazard": "heat_dome", "leads_h": [0, 6, 18, 24, 30, 42, 48, 54, 60, 66, 72, 78, 84, 90, 96, 102, 108, 114, 120, 126, 132, 138, 144, 150, 156, 162, 168, 180], "max_event_prob": 1.0, "main": true}}, {"type": "Feature", "geometry": {"type": "LineString", "coordinates": [[77.1, 13.98], [76.86, 13.74], [76.86, 13.74], [76.86, 13.74], [77.34, 13.26], [77.58, 12.9], [77.58, 12.9], [77.58, 12.9], [77.58, 12.54], [77.58, 12.3], [77.58, 12.3], [77.58, 12.3], [77.82, 12.3], [77.82, 12.06], [77.82, 12.06], [77.82, 12.06], [77.82, 11.7], [77.82, 11.7], [77.82, 11.7], [77.82, 11.7], [77.7, 11.7], [77.7, 11.7], [77.7, 11.7], [77.7, 11.7], [77.82, 11.34], [77.7, 10.86], [80.34, 8.34], [80.34, 8.34], [80.34, 8.34], [80.34, 8.34], [80.34, 8.34], [80.34, 8.34]]}, "properties": {"kind": "member_track", "member": 3, "track": 0, "hazard": "heat_dome", "leads_h": [18, 24, 30, 36, 42, 48, 54, 60, 66, 72, 78, 84, 90, 96, 102, 108, 114, 120, 126, 132, 138, 144, 150, 156, 162, 168, 174, 180, 186, 192, 198, 204], "max_event_prob": 1.0, "main": true}}, {"type": "Feature", "geometry": {"type": "LineString", "coordinates": [[84.42, 24.06], [85.02, 22.74], [85.02, 22.74]]}, "properties": {"kind": "member_track", "member": 3, "track": 1, "hazard": "heat_dome", "leads_h": [114, 126, 132], "max_event_prob": 0.975, "main": false}}, {"type": "Feature", "geometry": {"type": "LineString", "coordinates": [[80.34, 8.46], [80.34, 8.46], [80.34, 8.34], [80.34, 8.34], [77.7, 10.86], [77.7, 10.86], [77.58, 10.86], [77.46, 10.86], [77.46, 10.86], [77.46, 10.86], [77.34, 9.66]]}, "properties": {"kind": "member_track", "member": 3, "track": 2, "hazard": "heat_dome", "leads_h": [150, 156, 162, 168, 174, 180, 186, 192, 198, 204, 210], "max_event_prob": 1.0, "main": false}}, {"type": "Feature", "geometry": {"type": "LineString", "coordinates": [[77.22, 14.22], [76.86, 13.74], [76.86, 13.74], [76.86, 13.74], [77.46, 13.26], [77.7, 12.9], [77.7, 12.9], [77.7, 12.9], [77.7, 12.54], [77.7, 12.42], [77.7, 12.42], [77.7, 12.42], [77.82, 12.06], [77.7, 11.94], [77.7, 11.94], [77.7, 11.94], [77.58, 11.82], [77.58, 11.82], [77.58, 11.82], [77.58, 11.82], [77.58, 10.98], [77.7, 10.74], [77.7, 10.74], [77.7, 10.74], [77.58, 10.62], [77.58, 10.26], [77.58, 10.26], [77.58, 10.26], [77.46, 11.22], [77.46, 11.22], [77.46, 11.22], [77.46, 11.22], [80.34, 8.34], [80.34, 8.34], [80.34, 8.34]]}, "properties": {"kind": "member_track", "member": 4, "track": 0, "hazard": "heat_dome", "leads_h": [18, 24, 30, 36, 42, 48, 54, 60, 66, 72, 78, 84, 90, 96, 102, 108, 114, 120, 126, 132, 138, 144, 150, 156, 162, 168, 174, 180, 186, 192, 198, 204, 210, 216, 222], "max_event_prob": 1.0, "main": true}}, {"type": "Feature", "geometry": {"type": "LineString", "coordinates": [[80.22, 26.7], [81.66, 26.46], [81.66, 26.46], [83.22, 25.98], [80.94, 26.1], [80.94, 26.1], [80.94, 26.1], [79.26, 26.22]]}, "properties": {"kind": "member_track", "member": 4, "track": 1, "hazard": "heat_dome", "leads_h": [138, 150, 156, 162, 168, 174, 180, 186], "max_event_prob": 0.999, "main": false}}, {"type": "Feature", "geometry": {"type": "LineString", "coordinates": [[76.74, 14.22], [76.74, 14.22]]}, "properties": {"kind": "member_track", "member": 5, "track": 0, "hazard": "heat_dome", "leads_h": [24, 30], "max_event_prob": 0.999, "main": false}}, {"type": "Feature", "geometry": {"type": "LineString", "coordinates": [[76.98, 12.9], [76.98, 12.9], [76.98, 12.9], [77.82, 13.38], [77.82, 13.38], [77.82, 13.38], [77.82, 13.38]]}, "properties": {"kind": "member_track", "member": 5, "track": 1, "hazard": "heat_dome", "leads_h": [72, 78, 84, 90, 96, 102, 108], "max_event_prob": 0.999, "main": true}}, {"type": "Feature", "geometry": {"type": "LineString", "coordinates": [[82.86, 25.02], [82.86, 25.02]]}, "properties": {"kind": "member_track", "member": 5, "track": 2, "hazard": "heat_dome", "leads_h": [102, 108], "max_event_prob": 0.528, "main": false}}, {"type": "Feature", "geometry": {"type": "LineString", "coordinates": [[77.7, 12.66], [77.7, 12.66], [77.7, 12.66]]}, "properties": {"kind": "member_track", "member": 5, "track": 3, "hazard": "heat_dome", "leads_h": [138, 144, 150], "max_event_prob": 0.995, "main": false}}, {"type": "Feature", "geometry": {"type": "LineString", "coordinates": [[82.26, 25.5], [80.7, 25.86], [80.7, 25.86], [80.7, 25.86], [78.66, 26.7]]}, "properties": {"kind": "member_track", "member": 5, "track": 4, "hazard": "heat_dome", "leads_h": [138, 144, 150, 156, 162], "max_event_prob": 0.999, "main": false}}, {"type": "Feature", "geometry": {"type": "LineString", "coordinates": [[77.7, 12.18], [77.58, 12.06], [77.58, 12.06]]}, "properties": {"kind": "member_track", "member": 5, "track": 5, "hazard": "heat_dome", "leads_h": [186, 192, 198], "max_event_prob": 0.994, "main": false}}, {"type": "Feature", "geometry": {"type": "LineString", "coordinates": [[77.82, 15.18], [77.82, 15.18], [76.86, 14.34], [76.38, 14.1], [76.38, 14.1], [76.38, 14.1], [76.86, 12.9], [76.86, 12.78], [76.86, 12.78], [76.86, 12.78], [76.98, 12.42], [76.86, 12.3], [76.86, 12.3], [76.86, 12.3], [76.98, 12.54], [76.98, 12.54], [76.98, 12.54], [76.98, 12.54], [76.98, 12.3], [76.98, 11.94], [76.98, 11.94], [76.98, 11.94], [77.34, 11.58], [77.34, 11.58], [77.34, 11.58], [77.34, 11.58], [77.1, 11.22], [76.98, 11.58], [76.98, 11.58], [76.98, 11.58], [77.22, 11.58], [77.34, 11.7], [77.34, 11.7], [77.34, 11.7], [76.98, 11.22]]}, "properties": {"kind": "member_track", "member": 6, "track": 0, "hazard": "heat_dome", "leads_h": [0, 6, 18, 24, 30, 36, 42, 48, 54, 60, 66, 72, 78, 84, 90, 96, 102, 108, 114, 120, 126, 132, 138, 144, 150, 156, 162, 168, 174, 180, 186, 192, 198, 204, 210], "max_event_prob": 1.0, "main": true}}, {"type": "Feature", "geometry": {"type": "LineString", "coordinates": [[81.18, 21.3], [79.02, 18.78]]}, "properties": {"kind": "member_track", "member": 6, "track": 1, "hazard": "heat_dome", "leads_h": [12, 18], "max_event_prob": 0.998, "main": false}}, {"type": "Feature", "geometry": {"type": "LineString", "coordinates": [[77.1, 13.62], [77.1, 13.62], [77.1, 13.62], [77.7, 13.5], [77.82, 13.14], [77.82, 13.14], [77.82, 13.14], [77.58, 12.3], [77.58, 12.3], [77.58, 12.3], [77.58, 12.3], [77.7, 12.06], [77.7, 11.7], [77.7, 11.7], [77.7, 11.7], [77.7, 11.34], [77.7, 11.34], [77.7, 11.34], [77.7, 11.34], [77.7, 10.98], [77.7, 10.98], [77.7, 10.98], [77.7, 10.98], [77.7, 10.62], [77.46, 10.26], [77.46, 10.26], [77.46, 10.26], [77.34, 10.74], [77.34, 10.74], [77.34, 10.74], [77.34, 10.74], [77.22, 10.38]]}, "properties": {"kind": "member_track", "member": 7, "track": 0, "hazard": "heat_dome", "leads_h": [24, 30, 36, 42, 48, 54, 60, 66, 72, 78, 84, 90, 96, 102, 108, 114, 120, 126, 132, 138, 144, 150, 156, 162, 168, 174, 180, 186, 192, 198, 204, 210], "max_event_prob": 1.0, "main": true}}, {"type": "Feature", "geometry": {"type": "LineString", "coordinates": [[81.9, 18.42], [81.9, 18.42], [80.46, 23.58]]}, "properties": {"kind": "member_track", "member": 7, "track": 1, "hazard": "heat_dome", "leads_h": [30, 36, 48], "max_event_prob": 0.998, "main": false}}, {"type": "Feature", "geometry": {"type": "LineString", "coordinates": [[80.22, 8.46], [80.22, 8.46], [80.22, 8.46], [80.22, 8.46]]}, "properties": {"kind": "member_track", "member": 7, "track": 2, "hazard": "heat_dome", "leads_h": [138, 144, 150, 156], "max_event_prob": 0.99, "main": false}}, {"type": "Feature", "geometry": {"type": "LineString", "coordinates": [[78.06, 15.66], [78.06, 15.66]]}, "properties": {"kind": "member_track", "member": 8, "track": 0, "hazard": "heat_dome", "leads_h": [0, 6], "max_event_prob": 0.999, "main": false}}, {"type": "Feature", "geometry": {"type": "LineString", "coordinates": [[76.26, 13.98], [76.26, 13.98]]}, "properties": {"kind": "member_track", "member": 8, "track": 1, "hazard": "heat_dome", "leads_h": [24, 30], "max_event_prob": 1.0, "main": true}}, {"type": "Feature", "geometry": {"type": "LineString", "coordinates": [[79.5, 26.82], [78.78, 27.42]]}, "properties": {"kind": "member_track", "member": 8, "track": 2, "hazard": "heat_dome", "leads_h": [156, 162], "max_event_prob": 0.874, "main": false}}, {"type": "Feature", "geometry": {"type": "LineString", "coordinates": [[76.62, 13.14], [76.62, 13.14]]}, "properties": {"kind": "member_track", "member": 9, "track": 0, "hazard": "heat_dome", "leads_h": [24, 30], "max_event_prob": 0.999, "main": true}}, {"type": "Feature", "geometry": {"type": "LineString", "coordinates": [[77.22, 14.1], [77.1, 13.98], [77.1, 13.98], [77.1, 13.98], [77.58, 13.38], [77.7, 12.9], [77.7, 12.9], [77.7, 12.9], [77.7, 12.3], [77.7, 12.3], [77.7, 12.3], [77.7, 12.3], [77.94, 12.18], [77.82, 11.94], [77.82, 11.94], [77.82, 11.94], [77.94, 11.82], [77.94, 11.82], [80.34, 8.46], [77.94, 11.82], [80.34, 8.46], [80.34, 8.46], [80.34, 8.46], [80.34, 8.46], [80.34, 8.34], [80.34, 8.34], [80.34, 8.34], [80.34, 8.34], [80.34, 8.46], [80.34, 8.34], [77.58, 11.34], [77.58, 11.34], [80.1, 8.22]]}, "properties": {"kind": "member_track", "member": 10, "track": 0, "hazard": "heat_dome", "leads_h": [18, 24, 30, 36, 42, 48, 54, 60, 66, 72, 78, 84, 90, 96, 102, 108, 114, 120, 126, 132, 138, 144, 150, 156, 162, 168, 174, 180, 186, 192, 198, 204, 210], "max_event_prob": 1.0, "main": true}}, {"type": "Feature", "geometry": {"type": "LineString", "coordinates": [[80.34, 8.46], [80.34, 8.46], [77.94, 11.82], [80.34, 8.46], [77.82, 11.7], [77.82, 11.58], [77.82, 11.58], [77.82, 11.58], [77.94, 11.1], [77.82, 10.98], [77.82, 10.98], [77.82, 10.98], [77.58, 11.34], [77.58, 11.34], [80.34, 8.34], [80.34, 8.34], [77.58, 10.62]]}, "properties": {"kind": "member_track", "member": 10, "track": 1, "hazard": "heat_dome", "leads_h": [114, 120, 126, 132, 138, 144, 150, 156, 162, 168, 174, 180, 186, 192, 198, 204, 210], "max_event_prob": 1.0, "main": false}}, {"type": "Feature", "geometry": {"type": "LineString", "coordinates": [[77.82, 19.62], [77.82, 19.62], [77.22, 13.38], [77.22, 13.38], [77.22, 13.38], [77.22, 12.78], [77.34, 12.9], [77.34, 12.9], [77.34, 12.9], [77.46, 12.54], [77.46, 12.3], [77.46, 12.3], [77.46, 12.3], [77.58, 11.82], [77.58, 11.82], [77.58, 11.82], [77.58, 11.82], [77.58, 11.34], [77.58, 11.34], [77.58, 11.34], [77.58, 11.34], [77.58, 11.22], [77.1, 11.34], [77.1, 11.34], [77.1, 11.34], [77.1, 11.34], [77.1, 11.34], [77.1, 11.34], [77.1, 11.34], [76.74, 11.22]]}, "properties": {"kind": "member_track", "member": 11, "track": 0, "hazard": "heat_dome", "leads_h": [30, 36, 48, 54, 60, 66, 72, 78, 84, 90, 96, 102, 108, 114, 120, 126, 132, 138, 144, 150, 156, 162, 168, 174, 180, 186, 192, 198, 204, 210], "max_event_prob": 1.0, "main": true}}, {"type": "Feature", "geometry": {"type": "LineString", "coordinates": [[81.9, 25.26], [81.06, 25.14], [81.06, 25.14], [81.06, 25.14], [79.98, 25.5], [80.22, 25.74], [80.22, 25.74], [80.22, 25.74], [79.02, 26.1]]}, "properties": {"kind": "member_track", "member": 11, "track": 1, "hazard": "heat_dome", "leads_h": [138, 144, 150, 156, 162, 168, 174, 180, 186], "max_event_prob": 1.0, "main": false}}, {"type": "Feature", "geometry": {"type": "LineString", "coordinates": [[76.86, 13.14], [76.86, 13.14], [76.86, 13.14], [76.98, 13.26], [77.22, 13.5], [77.22, 13.5], [77.22, 13.5], [77.22, 13.38], [77.22, 13.38], [77.22, 13.38], [77.22, 13.38], [76.86, 13.38], [76.86, 13.26], [76.86, 13.26], [76.86, 13.26], [76.86, 12.9], [77.1, 12.42], [77.1, 12.42], [77.1, 12.42], [76.62, 12.42], [76.62, 13.02], [76.62, 13.02], [76.5, 12.18], [76.5, 12.18], [76.5, 12.18]]}, "properties": {"kind": "member_track", "member": 12, "track": 0, "hazard": "heat_dome", "leads_h": [48, 54, 60, 66, 72, 78, 84, 90, 96, 102, 108, 114, 120, 126, 132, 138, 144, 150, 156, 162, 168, 174, 186, 192, 198], "max_event_prob": 1.0, "main": true}}, {"type": "Feature", "geometry": {"type": "LineString", "coordinates": [[85.14, 24.54], [83.34, 25.38], [83.34, 25.38], [83.34, 25.38], [82.26, 25.74], [82.38, 26.1], [82.38, 26.1], [82.38, 26.1], [83.1, 25.74], [84.54, 24.9]]}, "properties": {"kind": "member_track", "member": 12, "track": 1, "hazard": "heat_dome", "leads_h": [138, 144, 150, 156, 162, 168, 174, 180, 186, 192], "max_event_prob": 1.0, "main": false}}, {"type": "Feature", "geometry": {"type": "LineString", "coordinates": [[77.82, 15.42], [77.82, 15.42], [77.82, 15.42], [76.86, 14.46], [76.98, 15.42], [76.98, 15.42], [76.98, 15.42], [76.86, 12.9], [76.86, 12.9], [76.86, 13.74], [76.86, 13.86], [76.86, 13.86], [76.86, 13.86], [76.98, 13.5], [76.98, 13.14], [76.98, 13.14], [76.98, 13.14], [76.86, 12.3], [76.86, 12.3], [76.86, 12.3], [76.86, 12.3], [76.62, 11.7], [76.62, 11.7], [76.62, 11.7], [76.62, 11.7]]}, "properties": {"kind": "member_track", "member": 13, "track": 0, "hazard": "heat_dome", "leads_h": [0, 6, 12, 18, 24, 30, 36, 48, 54, 66, 72, 78, 84, 90, 96, 102, 108, 114, 120, 126, 132, 138, 144, 150, 156], "max_event_prob": 1.0, "main": true}}, {"type": "Feature", "geometry": {"type": "LineString", "coordinates": [[81.9, 21.42], [81.9, 21.42]]}, "properties": {"kind": "member_track", "member": 13, "track": 1, "hazard": "heat_dome", "leads_h": [0, 12], "max_event_prob": 0.915, "main": false}}, {"type": "Feature", "geometry": {"type": "LineString", "coordinates": [[87.18, 24.78], [86.46, 24.9]]}, "properties": {"kind": "member_track", "member": 13, "track": 2, "hazard": "heat_dome", "leads_h": [90, 96], "max_event_prob": 0.921, "main": false}}, {"type": "Feature", "geometry": {"type": "LineString", "coordinates": [[86.22, 25.62], [83.46, 26.46], [83.46, 26.46], [83.46, 26.46], [81.66, 26.58], [78.9, 26.82], [78.9, 26.82], [78.9, 26.82], [76.86, 27.42]]}, "properties": {"kind": "member_track", "member": 13, "track": 3, "hazard": "heat_dome", "leads_h": [138, 144, 150, 156, 162, 168, 174, 180, 186], "max_event_prob": 0.999, "main": false}}, {"type": "Feature", "geometry": {"type": "LineString", "coordinates": [[76.14, 12.18], [76.14, 12.18]]}, "properties": {"kind": "member_track", "member": 13, "track": 4, "hazard": "heat_dome", "leads_h": [192, 198], "max_event_prob": 0.933, "main": false}}, {"type": "Feature", "geometry": {"type": "LineString", "coordinates": [[77.7, 13.5], [77.82, 13.38], [77.82, 13.38], [77.82, 13.38], [77.82, 13.5]]}, "properties": {"kind": "member_track", "member": 14, "track": 0, "hazard": "heat_dome", "leads_h": [66, 72, 78, 84, 90], "max_event_prob": 1.0, "main": false}}, {"type": "Feature", "geometry": {"type": "LineString", "coordinates": [[78.06, 24.42], [78.66, 24.42], [79.38, 24.3], [79.38, 24.3], [79.74, 21.66], [79.74, 21.66]]}, "properties": {"kind": "member_track", "member": 14, "track": 1, "hazard": "heat_dome", "leads_h": [156, 162, 174, 180, 192, 198], "max_event_prob": 0.999, "main": true}}, {"type": "Feature", "geometry": {"type": "LineString", "coordinates": [[78.06, 15.42], [78.06, 15.42], [78.06, 15.42], [77.1, 14.1], [76.74, 13.74], [76.74, 13.74], [76.74, 13.74], [76.98, 13.14], [76.86, 12.42], [76.86, 12.42], [76.86, 12.42], [77.1, 12.3], [77.22, 12.42], [77.22, 12.42], [77.22, 12.42], [77.58, 12.54], [77.46, 12.54], [77.46, 12.54], [77.46, 12.54], [77.58, 12.06], [77.58, 12.06], [77.58, 12.06], [77.58, 12.06], [77.7, 11.82], [77.7, 11.82], [77.7, 11.82], [77.7, 11.82], [77.46, 12.3], [77.1, 12.3], [77.1, 12.3], [77.1, 12.3], [77.1, 11.7], [76.98, 11.58], [76.98, 11.58], [76.98, 11.58], [76.86, 10.98]]}, "properties": {"kind": "member_track", "member": 15, "track": 0, "hazard": "heat_dome", "leads_h": [0, 6, 12, 18, 24, 30, 36, 42, 48, 54, 60, 66, 72, 78, 84, 90, 96, 102, 108, 114, 120, 126, 132, 138, 144, 150, 156, 162, 168, 174, 180, 186, 192, 198, 204, 210], "max_event_prob": 1.0, "main": true}}, {"type": "Feature", "geometry": {"type": "LineString", "coordinates": [[78.18, 26.34], [78.42, 26.46], [78.3, 26.82], [78.3, 26.82], [78.3, 26.82], [77.58, 26.94]]}, "properties": {"kind": "member_track", "member": 15, "track": 1, "hazard": "heat_dome", "leads_h": [156, 162, 168, 174, 180, 186], "max_event_prob": 0.955, "main": false}}, {"type": "Feature", "geometry": {"type": "LineString", "coordinates": [[77.58, 14.94], [77.58, 14.94], [76.74, 14.1], [76.62, 13.86], [76.62, 13.86], [76.62, 13.86], [76.98, 13.74], [76.98, 12.9], [76.98, 12.9], [76.98, 12.9], [76.98, 12.42], [77.22, 12.66], [77.22, 12.66], [77.22, 12.66], [77.34, 12.66], [77.1, 12.42], [77.1, 12.42], [77.1, 12.42]]}, "properties": {"kind": "member_track", "member": 16, "track": 0, "hazard": "heat_dome", "leads_h": [0, 6, 18, 24, 30, 36, 42, 48, 54, 60, 66, 72, 78, 84, 90, 96, 102, 108], "max_event_prob": 1.0, "main": true}}, {"type": "Feature", "geometry": {"type": "LineString", "coordinates": [[87.42, 23.82], [87.42, 23.82], [87.42, 23.82]]}, "properties": {"kind": "member_track", "member": 16, "track": 1, "hazard": "heat_dome", "leads_h": [144, 150, 156], "max_event_prob": 0.682, "main": false}}, {"type": "Feature", "geometry": {"type": "LineString", "coordinates": [[77.58, 15.3], [77.58, 15.3], [77.58, 15.3], [78.06, 19.26]]}, "properties": {"kind": "member_track", "member": 17, "track": 0, "hazard": "heat_dome", "leads_h": [0, 6, 12, 24], "max_event_prob": 1.0, "main": false}}, {"type": "Feature", "geometry": {"type": "LineString", "coordinates": [[78.06, 19.26], [76.74, 13.38], [76.74, 13.38], [76.86, 13.62], [76.86, 13.74], [76.86, 13.74], [76.86, 13.74], [76.98, 13.38], [76.86, 13.38], [76.86, 13.38], [76.86, 13.38], [76.62, 12.9], [76.62, 12.78], [76.62, 12.78], [76.62, 12.78]]}, "properties": {"kind": "member_track", "member": 17, "track": 1, "hazard": "heat_dome", "leads_h": [36, 48, 54, 66, 72, 78, 84, 90, 96, 102, 108, 114, 120, 126, 132], "max_event_prob": 1.0, "main": true}}, {"type": "Feature", "geometry": {"type": "LineString", "coordinates": [[82.14, 23.46], [82.14, 23.46]]}, "properties": {"kind": "member_track", "member": 17, "track": 2, "hazard": "heat_dome", "leads_h": [54, 60], "max_event_prob": 0.998, "main": false}}, {"type": "Feature", "geometry": {"type": "LineString", "coordinates": [[76.14, 11.94], [76.38, 11.7], [76.38, 11.7], [76.38, 11.7], [76.98, 11.34], [76.98, 11.34], [76.98, 11.34], [76.98, 11.34]]}, "properties": {"kind": "member_track", "member": 17, "track": 3, "hazard": "heat_dome", "leads_h": [162, 168, 174, 180, 186, 192, 198, 204], "max_event_prob": 0.999, "main": false}}, {"type": "Feature", "geometry": {"type": "LineString", "coordinates": [[78.54, 16.14], [78.54, 16.14], [78.54, 16.14], [77.34, 14.1], [77.1, 13.38], [77.1, 13.38], [77.1, 13.38], [77.46, 13.02], [77.58, 12.66], [77.58, 12.66], [77.58, 12.66], [78.06, 12.06], [78.06, 12.18], [78.06, 12.18], [78.06, 12.18], [78.3, 12.54], [78.3, 12.3], [78.3, 12.3], [78.3, 12.3], [78.06, 11.46], [78.06, 11.58], [78.06, 11.58], [78.06, 11.58], [78.18, 11.7], [78.18, 11.82], [78.18, 11.82], [78.18, 11.82], [80.34, 8.34], [78.66, 10.26], [78.66, 10.26], [80.34, 8.34], [77.82, 10.5], [80.34, 8.46], [77.82, 10.5], [80.34, 8.46]]}, "properties": {"kind": "member_track", "member": 18, "track": 0, "hazard": "heat_dome", "leads_h": [0, 6, 12, 18, 24, 30, 36, 42, 48, 54, 60, 66, 72, 78, 84, 90, 96, 102, 108, 114, 120, 126, 132, 138, 144, 150, 156, 162, 168, 174, 180, 186, 192, 198, 204], "max_event_prob": 1.0, "main": true}}, {"type": "Feature", "geometry": {"type": "LineString", "coordinates": [[80.7, 25.26], [80.7, 25.26], [81.66, 25.74], [81.42, 26.34], [81.42, 26.34], [81.42, 26.34], [80.58, 26.46]]}, "properties": {"kind": "member_track", "member": 18, "track": 1, "hazard": "heat_dome", "leads_h": [150, 156, 162, 168, 174, 180, 186], "max_event_prob": 0.998, "main": false}}, {"type": "Feature", "geometry": {"type": "LineString", "coordinates": [[78.3, 11.46], [80.34, 8.34], [80.34, 8.34], [78.66, 10.26], [80.34, 8.46], [77.82, 10.5], [80.34, 8.46], [77.82, 10.5]]}, "properties": {"kind": "member_track", "member": 18, "track": 2, "hazard": "heat_dome", "leads_h": [162, 168, 174, 180, 186, 192, 198, 204], "max_event_prob": 1.0, "main": false}}, {"type": "Feature", "geometry": {"type": "LineString", "coordinates": [[76.74, 12.78], [76.74, 12.9], [76.74, 12.9], [76.74, 12.9], [76.98, 12.78], [76.86, 12.78], [76.86, 12.78], [76.86, 12.78], [76.74, 12.78], [76.74, 12.9], [76.74, 12.9]]}, "properties": {"kind": "member_track", "member": 19, "track": 0, "hazard": "heat_dome", "leads_h": [66, 72, 78, 84, 90, 96, 102, 108, 114, 120, 126], "max_event_prob": 1.0, "main": false}}, {"type": "Feature", "geometry": {"type": "LineString", "coordinates": [[81.9, 25.26], [81.9, 25.26], [82.02, 25.5], [81.06, 26.1], [81.06, 26.1], [81.06, 26.1], [82.62, 25.86], [81.78, 26.34], [81.78, 26.34], [81.78, 26.34], [81.54, 26.94], [80.94, 27.3], [80.94, 27.3], [80.94, 27.3]]}, "properties": {"kind": "member_track", "member": 19, "track": 1, "hazard": "heat_dome", "leads_h": [102, 108, 114, 120, 126, 132, 138, 144, 150, 156, 162, 168, 174, 180], "max_event_prob": 0.999, "main": true}}, {"type": "Feature", "geometry": {"type": "LineString", "coordinates": [[76.26, 11.82], [76.26, 11.82], [76.26, 11.82]]}, "properties": {"kind": "member_track", "member": 19, "track": 2, "hazard": "heat_dome", "leads_h": [186, 192, 198], "max_event_prob": 0.878, "main": false}}, {"type": "Feature", "geometry": {"type": "LineString", "coordinates": [[77.88857142857141, 15.317142857142857], [77.88857142857141, 15.317142857142857], [78.06, 15.51], [77.016, 14.123999999999999], [76.74923076923078, 13.887692307692308], [76.8257142857143, 14.297142857142859], [77.04, 14.819999999999999], [77.244, 13.367999999999999], [77.20285714285716, 12.942857142857141], [77.20285714285716, 12.942857142857141], [77.27000000000001, 12.909999999999998], [77.244, 12.636000000000001], [77.2875, 12.712500000000002], [77.2875, 12.712500000000002], [77.2875, 12.712500000000002], [77.49750000000002, 12.659999999999998], [77.4375, 12.509999999999998], [77.7, 13.259999999999998], [77.7, 13.259999999999998], [77.69200000000001, 12.996000000000002], [77.628, 13.012], [77.78800000000001, 12.788000000000002], [77.628, 13.012], [78.01714285714287, 12.49714285714286], [77.99142857142859, 12.445714285714287], [77.99142857142859, 12.445714285714287], [77.99600000000002, 13.244], [78.16285714285716, 13.037142857142857], [77.82000000000001, 12.373846153846156], [78.26307692307692, 13.121538461538462], [78.36461538461539, 12.900000000000004], [77.82000000000002, 10.816363636363636], [78.26727272727274, 11.48181818181818], [77.78727272727274, 11.939999999999998], [77.99333333333334, 10.606666666666667], [77.95714285714287, 10.105714285714285], [80.34, 8.34], [80.34, 8.34]]}, "properties": {"kind": "consensus", "hazard": "heat_dome", "leads_h": [0, 6, 12, 18, 24, 30, 36, 42, 48, 54, 60, 66, 72, 78, 84, 90, 96, 102, 108, 114, 120, 126, 132, 138, 144, 150, 156, 162, 168, 174, 180, 186, 192, 198, 204, 210, 216, 222], "spread_km": [42.0, 42.0, 45.2, 29.6, 55.7, 115.7, 187.7, 43.5, 47.8, 47.8, 46.8, 58.1, 58.5, 58.5, 58.5, 59.1, 64.5, 183.9, 183.9, 215.5, 217.5, 236.9, 217.5, 253.5, 252.3, 252.3, 378.8, 433.8, 306.4, 473.6, 488.5, 148.9, 300.5, 234.7, 161.1, 184.4, 0.0, 0.0], "member_count": [7, 7, 4, 10, 13, 14, 12, 10, 14, 14, 12, 15, 16, 16, 16, 16, 16, 17, 17, 15, 15, 15, 15, 14, 14, 14, 15, 14, 13, 13, 13, 11, 11, 11, 9, 7, 1, 1], "n_members": 20}}, {"type": "Feature", "geometry": {"type": "Polygon", "coordinates": [[[68.39999999999999, 7.2], [92.64, 7.2], [92.64, 34.92], [68.39999999999999, 34.92], [68.39999999999999, 7.2]]]}, "properties": {"kind": "bbox4d", "lat_min": 7.2, "lat_max": 34.92, "lon_min": 68.39999999999999, "lon_max": 92.64, "level_hPa_bottom": 1013, "level_hPa_top": 1013, "t_start": "2024-06-05 18:00:00", "t_end": "2024-06-13 06:00:00", "lead_start_h": 18, "lead_end_h": 198, "member_count_min": 10, "n_members": 20, "hazard": "heat_dome", "source": "GNN consensus"}}]}