{"type": "FeatureCollection", "features": [{"type": "Feature", "geometry": {"type": "LineString", "coordinates": [[86.58, 9.42], [86.22, 9.54], [86.1, 9.66], [85.62, 10.14], [85.5, 10.74], [85.26, 11.1], [85.14, 11.46]]}, "properties": {"kind": "member_track", "member": 0, "track": 0, "hazard": "tropical_cyclone", "leads_h": [6, 12, 18, 24, 30, 36, 42], "min_msl_hpa": 985.0, "main": true}}, {"type": "Feature", "geometry": {"type": "LineString", "coordinates": [[86.94, 9.3], [86.58, 9.3], [86.34, 9.54], [86.22, 9.9], [86.1, 10.02], [85.98, 10.5], [85.86, 10.62], [85.98, 10.98], [85.86, 11.1], [85.86, 12.06], [85.98, 13.02], [85.74, 13.02], [85.74, 13.62], [85.86, 14.22], [86.22, 14.58], [85.98, 15.54], [85.74, 15.78], [85.38, 16.14], [86.22, 18.54]]}, "properties": {"kind": "member_track", "member": 1, "track": 0, "hazard": "tropical_cyclone", "leads_h": [6, 12, 18, 24, 30, 36, 42, 48, 54, 60, 66, 72, 78, 84, 90, 96, 102, 108, 120], "min_msl_hpa": 897.4, "main": true}}, {"type": "Feature", "geometry": {"type": "LineString", "coordinates": [[86.7, 19.98], [87.3, 21.66], [88.02, 23.1]]}, "properties": {"kind": "member_track", "member": 1, "track": 1, "hazard": "tropical_cyclone", "leads_h": [126, 132, 138], "min_msl_hpa": 948.0, "main": false}}, {"type": "Feature", "geometry": {"type": "LineString", "coordinates": [[86.94, 9.06], [86.58, 8.82], [86.58, 9.18], [86.22, 9.54], [86.22, 9.54], [86.46, 9.9], [86.22, 10.14], [86.34, 10.5], [86.34, 10.74], [86.82, 10.74], [86.34, 11.58], [86.1, 11.82], [86.46, 12.66], [87.06, 13.38], [87.18, 13.74], [87.06, 14.22], [87.54, 14.82], [88.14, 15.9], [88.02, 16.98], [88.5, 18.54], [88.62, 19.14], [89.1, 20.7], [89.7, 21.54]]}, "properties": {"kind": "member_track", "member": 2, "track": 0, "hazard": "tropical_cyclone", "leads_h": [6, 12, 18, 24, 30, 36, 42, 48, 54, 60, 66, 72, 78, 84, 90, 96, 102, 108, 114, 120, 126, 132, 138], "min_msl_hpa": 878.8, "main": true}}, {"type": "Feature", "geometry": {"type": "LineString", "coordinates": [[86.82, 9.54], [86.58, 9.54], [86.46, 9.78], [86.1, 10.26], [86.1, 10.86], [86.1, 10.98], [85.86, 11.22], [85.74, 11.58], [85.98, 12.18], [86.1, 12.9], [86.22, 13.86], [85.62, 13.86], [86.1, 14.34], [86.58, 14.82], [86.46, 15.78], [86.82, 16.74], [86.94, 18.06]]}, "properties": {"kind": "member_track", "member": 3, "track": 0, "hazard": "tropical_cyclone", "leads_h": [6, 12, 18, 24, 30, 36, 42, 48, 54, 60, 66, 72, 78, 84, 90, 96, 102], "min_msl_hpa": 890.6, "main": true}}, {"type": "Feature", "geometry": {"type": "LineString", "coordinates": [[86.82, 19.38], [87.3, 20.46], [88.02, 21.3], [88.74, 22.62], [89.58, 23.7], [90.42, 25.26], [91.38, 25.86]]}, "properties": {"kind": "member_track", "member": 3, "track": 1, "hazard": "tropical_cyclone", "leads_h": [108, 114, 120, 126, 132, 138, 144], "min_msl_hpa": 937.1, "main": false}}, {"type": "Feature", "geometry": {"type": "LineString", "coordinates": [[87.3, 9.9], [87.06, 10.02], [86.94, 10.62], [86.94, 11.1], [87.18, 11.46], [87.3, 11.82], [87.3, 12.3], [87.66, 12.78], [88.02, 13.38], [88.38, 13.86], [88.5, 14.46], [88.62, 15.18], [88.86, 16.14], [89.58, 17.22], [89.7, 18.42], [90.06, 19.62], [90.18, 20.58], [90.3, 21.54], [91.26, 22.5]]}, "properties": {"kind": "member_track", "member": 4, "track": 0, "hazard": "tropical_cyclone", "leads_h": [6, 12, 18, 24, 30, 36, 42, 48, 54, 60, 66, 72, 78, 84, 90, 96, 102, 108, 114], "min_msl_hpa": 923.4, "main": true}}, {"type": "Feature", "geometry": {"type": "LineString", "coordinates": [[91.74, 23.58], [92.22, 25.14]]}, "properties": {"kind": "member_track", "member": 4, "track": 1, "hazard": "tropical_cyclone", "leads_h": [120, 126], "min_msl_hpa": 967.6, "main": false}}, {"type": "Feature", "geometry": {"type": "LineString", "coordinates": [[93.54, 26.58], [93.42, 27.9]]}, "properties": {"kind": "member_track", "member": 4, "track": 2, "hazard": "tropical_cyclone", "leads_h": [132, 138], "min_msl_hpa": 987.4, "main": false}}, {"type": "Feature", "geometry": {"type": "LineString", "coordinates": [[86.82, 9.18], [86.58, 9.06], [86.1, 9.18], [85.98, 9.78], [85.98, 9.78], [85.86, 9.9], [85.98, 10.02], [86.22, 10.14], [86.1, 10.5], [86.1, 11.1], [85.98, 11.7], [85.98, 11.7], [86.46, 12.18], [86.82, 12.9], [86.46, 13.14], [86.82, 13.86], [87.18, 14.34], [87.9, 14.94], [88.26, 15.9], [88.26, 17.34], [88.5, 19.02], [88.86, 20.58], [89.46, 21.42], [89.94, 21.9]]}, "properties": {"kind": "member_track", "member": 5, "track": 0, "hazard": "tropical_cyclone", "leads_h": [6, 12, 18, 24, 30, 36, 42, 48, 54, 60, 66, 72, 78, 84, 90, 96, 102, 108, 114, 120, 126, 132, 138, 144], "min_msl_hpa": 888.0, "main": true}}, {"type": "Feature", "geometry": {"type": "LineString", "coordinates": [[86.94, 9.42], [86.82, 9.42], [86.46, 9.54], [86.34, 10.02], [86.58, 10.26], [86.7, 10.26], [86.7, 10.5], [86.82, 10.98], [86.82, 11.46], [87.18, 12.18], [87.3, 13.02], [87.06, 13.14], [86.94, 14.34], [87.3, 14.7], [88.14, 16.02], [88.5, 17.82], [88.62, 18.54], [88.38, 20.58], [89.34, 21.9]]}, "properties": {"kind": "member_track", "member": 6, "track": 0, "hazard": "tropical_cyclone", "leads_h": [6, 12, 18, 24, 30, 36, 42, 48, 54, 60, 66, 72, 78, 84, 96, 108, 114, 120, 126], "min_msl_hpa": 856.9, "main": true}}, {"type": "Feature", "geometry": {"type": "LineString", "coordinates": [[87.66, 15.18], [88.02, 16.74]]}, "properties": {"kind": "member_track", "member": 6, "track": 1, "hazard": "tropical_cyclone", "leads_h": [90, 102], "min_msl_hpa": 885.3, "main": false}}, {"type": "Feature", "geometry": {"type": "LineString", "coordinates": [[90.06, 22.98], [90.54, 24.66], [90.42, 24.9]]}, "properties": {"kind": "member_track", "member": 6, "track": 2, "hazard": "tropical_cyclone", "leads_h": [132, 138, 144], "min_msl_hpa": 953.1, "main": false}}, {"type": "Feature", "geometry": {"type": "LineString", "coordinates": [[86.94, 9.78], [86.58, 9.66], [86.1, 10.02], [85.98, 10.5], [85.98, 10.62], [85.86, 11.1], [85.86, 11.46], [85.98, 11.7], [86.1, 12.06], [86.34, 12.78], [86.22, 13.38], [85.98, 13.5], [85.86, 14.46], [86.46, 15.54], [86.22, 16.5], [86.94, 17.34], [86.7, 18.54], [86.7, 19.5], [87.18, 19.98], [87.42, 22.02], [75.9, 22.02]]}, "properties": {"kind": "member_track", "member": 7, "track": 0, "hazard": "tropical_cyclone", "leads_h": [6, 12, 18, 24, 30, 36, 42, 48, 54, 60, 66, 72, 78, 84, 90, 96, 102, 108, 114, 120, 126], "min_msl_hpa": 908.0, "main": true}}, {"type": "Feature", "geometry": {"type": "LineString", "coordinates": [[87.42, 24.42], [88.86, 25.5]]}, "properties": {"kind": "member_track", "member": 7, "track": 1, "hazard": "tropical_cyclone", "leads_h": [126, 132], "min_msl_hpa": 959.5, "main": false}}, {"type": "Feature", "geometry": {"type": "LineString", "coordinates": [[87.18, 9.78], [87.06, 9.78], [86.82, 10.14], [86.82, 10.74], [87.18, 11.22], [87.06, 11.7], [87.18, 12.06], [87.3, 12.42], [87.3, 12.9], [87.42, 13.74], [87.3, 14.46], [87.18, 14.46], [86.82, 14.94], [87.18, 16.02], [87.3, 16.74], [87.42, 17.82], [87.54, 18.54]]}, "properties": {"kind": "member_track", "member": 8, "track": 0, "hazard": "tropical_cyclone", "leads_h": [6, 12, 18, 24, 30, 36, 42, 48, 54, 60, 66, 72, 78, 84, 90, 96, 102], "min_msl_hpa": 868.1, "main": true}}, {"type": "Feature", "geometry": {"type": "LineString", "coordinates": [[87.54, 19.74], [88.26, 20.46], [89.94, 23.58], [90.54, 24.66], [91.02, 25.98], [91.14, 27.06]]}, "properties": {"kind": "member_track", "member": 8, "track": 1, "hazard": "tropical_cyclone", "leads_h": [108, 114, 126, 132, 138, 144], "min_msl_hpa": 922.6, "main": false}}, {"type": "Feature", "geometry": {"type": "LineString", "coordinates": [[86.58, 9.78], [86.1, 9.78], [85.74, 10.26], [85.38, 10.5], [85.26, 10.98], [85.26, 11.34], [85.02, 12.06], [85.26, 12.42], [85.26, 12.54], [85.62, 13.26], [84.66, 14.22], [84.78, 15.18], [84.78, 16.26], [84.78, 17.7], [84.66, 19.02], [84.78, 21.66], [84.78, 23.1], [84.66, 24.42], [85.02, 25.5]]}, "properties": {"kind": "member_track", "member": 9, "track": 0, "hazard": "tropical_cyclone", "leads_h": [6, 12, 18, 24, 30, 36, 42, 48, 54, 60, 72, 78, 90, 96, 108, 120, 126, 132, 138], "min_msl_hpa": 919.0, "main": true}}, {"type": "Feature", "geometry": {"type": "LineString", "coordinates": [[65.7, 15.18], [65.7, 15.18], [65.7, 15.18], [65.58, 15.3], [65.58, 15.42], [65.46, 15.54], [65.46, 15.54], [65.46, 15.54], [65.46, 15.66], [65.22, 15.9]]}, "properties": {"kind": "member_track", "member": 9, "track": 1, "hazard": "tropical_cyclone", "leads_h": [78, 84, 90, 96, 102, 108, 114, 120, 126, 132], "min_msl_hpa": 985.5, "main": false}}, {"type": "Feature", "geometry": {"type": "LineString", "coordinates": [[84.78, 17.94], [84.9, 20.46]]}, "properties": {"kind": "member_track", "member": 9, "track": 2, "hazard": "tropical_cyclone", "leads_h": [102, 114], "min_msl_hpa": 953.9, "main": false}}, {"type": "Feature", "geometry": {"type": "LineString", "coordinates": [[87.18, 9.3], [86.7, 8.94], [86.46, 9.06], [86.34, 9.66], [86.34, 9.78], [86.34, 10.02], [86.58, 10.14], [86.58, 10.26], [86.7, 10.62], [87.06, 11.22], [86.94, 11.7], [86.7, 11.58], [86.7, 12.3], [87.18, 12.78], [87.3, 13.26], [87.78, 13.98], [88.02, 15.18], [88.38, 16.02], [88.62, 16.86]]}, "properties": {"kind": "member_track", "member": 10, "track": 0, "hazard": "tropical_cyclone", "leads_h": [6, 12, 18, 24, 30, 36, 42, 48, 54, 60, 66, 72, 78, 84, 90, 96, 102, 108, 114], "min_msl_hpa": 883.5, "main": true}}, {"type": "Feature", "geometry": {"type": "LineString", "coordinates": [[88.86, 18.18], [90.06, 19.14]]}, "properties": {"kind": "member_track", "member": 10, "track": 1, "hazard": "tropical_cyclone", "leads_h": [120, 126], "min_msl_hpa": 939.5, "main": false}}, {"type": "Feature", "geometry": {"type": "LineString", "coordinates": [[90.54, 20.22], [91.74, 21.78], [91.62, 22.62]]}, "properties": {"kind": "member_track", "member": 10, "track": 2, "hazard": "tropical_cyclone", "leads_h": [132, 138, 144], "min_msl_hpa": 965.0, "main": false}}, {"type": "Feature", "geometry": {"type": "LineString", "coordinates": [[87.42, 9.78], [86.82, 9.66], [86.82, 9.9], [86.58, 10.62], [86.82, 10.98], [86.7, 11.34], [87.06, 11.58], [87.42, 12.18], [87.18, 12.78], [87.66, 13.38], [87.42, 14.22], [87.18, 14.46], [87.42, 15.42], [88.38, 16.02], [88.86, 16.62], [88.5, 17.46], [88.98, 17.82], [89.1, 18.78], [90.06, 19.98], [90.54, 21.54], [91.5, 24.18], [92.58, 25.26]]}, "properties": {"kind": "member_track", "member": 11, "track": 0, "hazard": "tropical_cyclone", "leads_h": [6, 12, 18, 24, 30, 36, 42, 48, 54, 60, 66, 72, 78, 84, 90, 96, 102, 108, 114, 120, 132, 138], "min_msl_hpa": 871.9, "main": true}}, {"type": "Feature", "geometry": {"type": "LineString", "coordinates": [[87.06, 9.54], [86.7, 9.54], [86.34, 9.9], [85.98, 10.5], [86.1, 10.74], [86.1, 11.1], [85.98, 11.46], [86.1, 11.7], [86.34, 12.06], [86.58, 12.9], [86.34, 13.74], [86.46, 14.34], [86.82, 14.82], [87.06, 15.66], [87.06, 16.74], [87.3, 17.94], [87.42, 18.06], [86.82, 19.14], [87.66, 19.74], [88.5, 20.94], [88.86, 22.14], [89.46, 23.34]]}, "properties": {"kind": "member_track", "member": 12, "track": 0, "hazard": "tropical_cyclone", "leads_h": [6, 12, 18, 24, 30, 36, 42, 48, 54, 60, 66, 72, 78, 84, 90, 96, 102, 108, 114, 120, 126, 132], "min_msl_hpa": 887.7, "main": true}}, {"type": "Feature", "geometry": {"type": "LineString", "coordinates": [[89.58, 24.18], [89.7, 25.14]]}, "properties": {"kind": "member_track", "member": 12, "track": 1, "hazard": "tropical_cyclone", "leads_h": [138, 144], "min_msl_hpa": 978.5, "main": false}}, {"type": "Feature", "geometry": {"type": "LineString", "coordinates": [[87.18, 9.66], [86.82, 9.9], [86.7, 10.14], [86.58, 10.62], [86.7, 10.86], [86.58, 11.1], [86.7, 11.46], [86.94, 11.94], [87.18, 12.42], [87.42, 13.26], [87.18, 13.86], [87.18, 13.98], [87.18, 14.82], [87.42, 15.66], [87.54, 16.38], [87.42, 17.34], [87.42, 18.42]]}, "properties": {"kind": "member_track", "member": 13, "track": 0, "hazard": "tropical_cyclone", "leads_h": [6, 12, 18, 24, 30, 36, 42, 48, 54, 60, 66, 72, 78, 84, 90, 96, 102], "min_msl_hpa": 887.8, "main": true}}, {"type": "Feature", "geometry": {"type": "LineString", "coordinates": [[87.78, 19.5], [87.78, 20.34], [88.5, 21.54], [88.74, 22.74], [90.06, 23.7], [91.38, 25.5], [91.5, 25.98]]}, "properties": {"kind": "member_track", "member": 13, "track": 1, "hazard": "tropical_cyclone", "leads_h": [108, 114, 120, 126, 132, 138, 144], "min_msl_hpa": 936.6, "main": false}}, {"type": "Feature", "geometry": {"type": "LineString", "coordinates": [[86.94, 9.42], [86.46, 9.42], [86.22, 9.9], [86.1, 10.5], [86.22, 10.98], [86.1, 11.34], [85.98, 11.34], [86.1, 11.82], [85.86, 12.18], [86.1, 12.54], [85.98, 13.26], [86.1, 13.62], [86.34, 14.22]]}, "properties": {"kind": "member_track", "member": 14, "track": 0, "hazard": "tropical_cyclone", "leads_h": [6, 12, 18, 24, 30, 36, 42, 48, 54, 60, 66, 72, 78], "min_msl_hpa": 940.7, "main": true}}, {"type": "Feature", "geometry": {"type": "LineString", "coordinates": [[86.34, 14.7], [86.58, 15.42], [86.82, 16.5], [86.82, 17.22], [87.3, 18.66], [88.02, 19.62], [88.02, 21.06]]}, "properties": {"kind": "member_track", "member": 14, "track": 1, "hazard": "tropical_cyclone", "leads_h": [84, 90, 96, 102, 108, 114, 120], "min_msl_hpa": 949.1, "main": false}}, {"type": "Feature", "geometry": {"type": "LineString", "coordinates": [[87.3, 9.54], [86.82, 9.42], [86.58, 9.9], [86.34, 10.62], [86.34, 10.86], [86.22, 11.1], [86.22, 11.46], [86.46, 11.58], [86.46, 11.94], [86.7, 12.3], [86.58, 13.14]]}, "properties": {"kind": "member_track", "member": 15, "track": 0, "hazard": "tropical_cyclone", "leads_h": [6, 12, 18, 24, 30, 36, 42, 48, 54, 60, 66], "min_msl_hpa": 969.7, "main": true}}, {"type": "Feature", "geometry": {"type": "LineString", "coordinates": [[86.82, 9.54], [86.22, 9.54], [85.98, 10.02], [85.38, 10.38], [85.5, 10.62], [85.5, 10.98], [85.26, 11.34], [85.26, 11.82], [85.38, 12.3], [85.26, 12.78], [85.14, 13.74]]}, "properties": {"kind": "member_track", "member": 16, "track": 0, "hazard": "tropical_cyclone", "leads_h": [6, 12, 18, 24, 30, 36, 42, 48, 54, 60, 66], "min_msl_hpa": 919.0, "main": true}}, {"type": "Feature", "geometry": {"type": "LineString", "coordinates": [[84.78, 14.34], [85.02, 14.94], [85.5, 16.38], [85.62, 18.3], [85.74, 20.58], [85.5, 23.34], [87.18, 25.14], [87.78, 25.74]]}, "properties": {"kind": "member_track", "member": 16, "track": 1, "hazard": "tropical_cyclone", "leads_h": [72, 78, 90, 102, 114, 126, 138, 144], "min_msl_hpa": 899.7, "main": false}}, {"type": "Feature", "geometry": {"type": "LineString", "coordinates": [[85.14, 15.66], [85.62, 17.34], [85.62, 19.26], [85.74, 21.9], [86.7, 24.42]]}, "properties": {"kind": "member_track", "member": 16, "track": 2, "hazard": "tropical_cyclone", "leads_h": [84, 96, 108, 120, 132], "min_msl_hpa": 913.4, "main": false}}, {"type": "Feature", "geometry": {"type": "LineString", "coordinates": [[87.3, 9.42], [86.82, 9.3], [86.82, 9.54], [86.7, 10.14], [86.7, 10.38], [86.58, 10.38], [86.46, 10.62], [86.34, 10.74], [86.46, 11.22], [86.58, 11.7], [86.34, 12.78]]}, "properties": {"kind": "member_track", "member": 17, "track": 0, "hazard": "tropical_cyclone", "leads_h": [6, 12, 18, 24, 30, 36, 42, 48, 54, 60, 72], "min_msl_hpa": 894.6, "main": true}}, {"type": "Feature", "geometry": {"type": "LineString", "coordinates": [[86.58, 12.42], [86.34, 13.38], [86.22, 14.22], [86.46, 15.42], [86.82, 16.14], [86.7, 16.62], [87.06, 17.58], [86.7, 18.3]]}, "properties": {"kind": "member_track", "member": 17, "track": 1, "hazard": "tropical_cyclone", "leads_h": [66, 78, 84, 90, 96, 102, 108, 114], "min_msl_hpa": 877.2, "main": false}}, {"type": "Feature", "geometry": {"type": "LineString", "coordinates": [[87.3, 19.38], [89.22, 23.22]]}, "properties": {"kind": "member_track", "member": 17, "track": 2, "hazard": "tropical_cyclone", "leads_h": [120, 132], "min_msl_hpa": 936.3, "main": false}}, {"type": "Feature", "geometry": {"type": "LineString", "coordinates": [[87.78, 21.78], [89.7, 23.94], [90.06, 24.78]]}, "properties": {"kind": "member_track", "member": 17, "track": 3, "hazard": "tropical_cyclone", "leads_h": [126, 138, 144], "min_msl_hpa": 939.8, "main": false}}, {"type": "Feature", "geometry": {"type": "LineString", "coordinates": [[86.58, 9.42], [85.98, 9.18], [85.98, 9.18], [85.5, 9.54], [85.38, 9.78], [85.38, 10.02], [85.26, 10.38], [85.02, 10.5], [84.78, 10.62], [85.26, 10.98], [85.02, 12.18], [84.66, 12.3], [84.66, 12.9], [84.66, 13.26], [85.02, 13.86], [85.14, 14.94], [84.66, 15.3], [85.02, 16.5], [85.5, 17.46]]}, "properties": {"kind": "member_track", "member": 18, "track": 0, "hazard": "tropical_cyclone", "leads_h": [6, 12, 18, 24, 30, 36, 42, 48, 54, 60, 66, 72, 78, 84, 90, 96, 102, 108, 114], "min_msl_hpa": 873.3, "main": true}}, {"type": "Feature", "geometry": {"type": "LineString", "coordinates": [[65.82, 15.3], [65.7, 15.3], [65.82, 15.42], [65.7, 15.54], [65.58, 15.42], [65.34, 15.66], [65.46, 15.78], [65.46, 15.78], [65.34, 15.78], [65.34, 15.9], [65.34, 15.9]]}, "properties": {"kind": "member_track", "member": 18, "track": 1, "hazard": "tropical_cyclone", "leads_h": [72, 78, 84, 96, 102, 108, 114, 120, 126, 132, 138], "min_msl_hpa": 985.7, "main": false}}, {"type": "Feature", "geometry": {"type": "LineString", "coordinates": [[86.22, 19.14], [86.58, 20.1], [87.42, 21.18], [87.66, 22.62], [87.06, 23.34]]}, "properties": {"kind": "member_track", "member": 18, "track": 2, "hazard": "tropical_cyclone", "leads_h": [120, 126, 132, 138, 144], "min_msl_hpa": 929.0, "main": false}}, {"type": "Feature", "geometry": {"type": "LineString", "coordinates": [[86.82, 9.42], [86.58, 9.42], [86.1, 9.42], [85.74, 10.02], [85.62, 10.38], [85.62, 10.74], [85.5, 10.98], [85.74, 11.1], [85.5, 11.58], [85.74, 12.3], [85.62, 12.78], [85.98, 12.78], [85.86, 13.38], [86.34, 14.22], [86.58, 14.82], [86.58, 15.66], [86.46, 16.38], [86.82, 16.86], [87.78, 19.26], [88.86, 22.86], [89.7, 23.94], [90.18, 25.02]]}, "properties": {"kind": "member_track", "member": 19, "track": 0, "hazard": "tropical_cyclone", "leads_h": [6, 12, 18, 24, 30, 36, 42, 48, 54, 60, 66, 72, 78, 84, 90, 96, 102, 108, 120, 132, 138, 144], "min_msl_hpa": 908.9, "main": true}}, {"type": "Feature", "geometry": {"type": "LineString", "coordinates": [[87.42, 17.94], [88.02, 20.82]]}, "properties": {"kind": "member_track", "member": 19, "track": 1, "hazard": "tropical_cyclone", "leads_h": [114, 126], "min_msl_hpa": 950.7, "main": false}}, {"type": "Feature", "geometry": {"type": "LineString", "coordinates": [[86.982, 9.509999999999996], [86.60400000000001, 9.462], [86.38199999999999, 9.744000000000002], [86.14199999999998, 10.254], [86.18999999999998, 10.542], [86.14799999999998, 10.836], [86.10600000000002, 11.13], [86.27684210526314, 11.42842105263158], [86.2957894736842, 11.820000000000002], [86.53578947368422, 12.42], [86.47411764705882, 13.18235294117647], [86.32588235294118, 13.337647058823531], [86.4375, 14.1075], [86.99142857142859, 14.742857142857142], [86.90571428571427, 15.488571428571428], [87.116, 16.412], [87.29076923076923, 17.063076923076924], [87.31, 17.680000000000003], [88.35333333333332, 18.660000000000004], [87.82, 20.046666666666667], [86.0, 21.220000000000002], [88.74, 22.679999999999996], [89.292, 23.532000000000004], [90.06, 23.46]]}, "properties": {"kind": "consensus", "hazard": "tropical_cyclone", "leads_h": [6, 12, 18, 24, 30, 36, 42, 48, 54, 60, 66, 72, 78, 84, 90, 96, 102, 108, 114, 120, 126, 132, 138, 144], "spread_km": [32.8, 39.6, 51.2, 60.9, 75.7, 79.9, 92.5, 101.9, 109.0, 119.8, 121.2, 135.4, 140.3, 160.1, 194.2, 199.4, 220.8, 248.1, 238.6, 214.6, 445.6, 228.4, 278.2, 173.9], "member_count": [20, 20, 20, 20, 20, 20, 20, 19, 19, 19, 17, 17, 16, 14, 14, 15, 13, 12, 9, 9, 6, 6, 5, 2], "n_members": 20}}, {"type": "Feature", "geometry": {"type": "Polygon", "coordinates": [[[82.8, 7.800000000000001], [91.32000000000001, 7.800000000000001], [91.32000000000001, 22.439999999999998], [82.8, 22.439999999999998], [82.8, 7.800000000000001]]]}, "properties": {"kind": "bbox4d", "lat_min": 7.800000000000001, "lat_max": 22.439999999999998, "lon_min": 82.8, "lon_max": 91.32000000000001, "level_hPa_bottom": 1013, "level_hPa_top": 850, "t_start": "2020-05-15 12:00:00", "t_end": "2020-05-19 18:00:00", "lead_start_h": 6, "lead_end_h": 108, "member_count_min": 12, "n_members": 20, "hazard": "tropical_cyclone", "source": "GNN consensus"}}]}