{"type": "FeatureCollection", "features": [{"type": "Feature", "geometry": {"type": "LineString", "coordinates": [[75.18, 29.34], [75.3, 29.34], [75.3, 29.34], [75.54, 28.38], [75.54, 28.38], [75.3, 28.5], [75.3, 28.5], [75.3, 28.62], [75.3, 28.62], [75.54, 28.86], [75.54, 28.86], [76.02, 27.54], [76.02, 27.54], [76.02, 27.54], [76.02, 27.54]]}, "properties": {"kind": "member_track", "member": 0, "track": 0, "hazard": "cold_wave", "leads_h": [42, 48, 54, 60, 66, 72, 78, 84, 90, 96, 102, 108, 114, 120, 126], "max_event_prob": 1.0, "main": true}}, {"type": "Feature", "geometry": {"type": "LineString", "coordinates": [[76.14, 29.58], [76.14, 29.58], [76.14, 29.58], [76.14, 28.62], [76.14, 28.62], [76.02, 28.74], [76.02, 28.74], [78.9, 28.14], [79.02, 28.14], [79.02, 28.14]]}, "properties": {"kind": "member_track", "member": 1, "track": 0, "hazard": "cold_wave", "leads_h": [42, 48, 54, 60, 66, 72, 78, 90, 96, 102], "max_event_prob": 1.0, "main": true}}, {"type": "Feature", "geometry": {"type": "LineString", "coordinates": [[85.26, 26.34], [85.26, 26.34]]}, "properties": {"kind": "member_track", "member": 1, "track": 1, "hazard": "cold_wave", "leads_h": [96, 102], "max_event_prob": 0.792, "main": false}}, {"type": "Feature", "geometry": {"type": "LineString", "coordinates": [[85.02, 27.18], [85.02, 27.18]]}, "properties": {"kind": "member_track", "member": 1, "track": 2, "hazard": "cold_wave", "leads_h": [120, 126], "max_event_prob": 0.92, "main": false}}, {"type": "Feature", "geometry": {"type": "LineString", "coordinates": [[75.66, 29.22], [75.66, 29.22], [75.66, 29.22], [75.3, 27.9], [75.3, 27.9], [75.3, 27.9], [75.3, 27.9], [74.22, 26.7], [74.22, 26.7], [74.34, 26.82], [74.34, 26.82], [76.26, 28.02], [76.26, 28.02], [76.38, 28.02]]}, "properties": {"kind": "member_track", "member": 2, "track": 0, "hazard": "cold_wave", "leads_h": [42, 48, 54, 60, 66, 72, 78, 84, 90, 96, 102, 108, 114, 120], "max_event_prob": 1.0, "main": true}}, {"type": "Feature", "geometry": {"type": "LineString", "coordinates": [[77.94, 27.18], [77.94, 27.18], [78.06, 27.18], [77.58, 26.82], [77.58, 26.82], [77.7, 26.82], [77.7, 26.82], [78.06, 26.58], [78.06, 26.58], [78.06, 26.58], [78.06, 26.58], [75.3, 27.18], [75.3, 27.18], [75.3, 27.18], [75.3, 27.18]]}, "properties": {"kind": "member_track", "member": 3, "track": 0, "hazard": "cold_wave", "leads_h": [42, 48, 54, 60, 66, 72, 78, 84, 90, 96, 102, 108, 114, 120, 126], "max_event_prob": 1.0, "main": true}}, {"type": "Feature", "geometry": {"type": "LineString", "coordinates": [[76.26, 29.7], [76.26, 29.82], [76.26, 29.82], [76.38, 29.94], [76.38, 29.94], [76.5, 29.94], [76.5, 29.94], [75.54, 29.22], [75.54, 29.22], [75.54, 29.34], [75.54, 29.34], [76.86, 29.1], [76.86, 29.1], [76.86, 29.1], [76.86, 29.1]]}, "properties": {"kind": "member_track", "member": 4, "track": 0, "hazard": "cold_wave", "leads_h": [42, 48, 54, 60, 66, 72, 78, 84, 90, 96, 102, 108, 114, 120, 126], "max_event_prob": 1.0, "main": true}}, {"type": "Feature", "geometry": {"type": "LineString", "coordinates": [[84.9, 26.58], [84.9, 26.58]]}, "properties": {"kind": "member_track", "member": 4, "track": 1, "hazard": "cold_wave", "leads_h": [96, 102], "max_event_prob": 0.932, "main": false}}, {"type": "Feature", "geometry": {"type": "LineString", "coordinates": [[75.18, 28.14], [75.18, 28.14], [75.18, 28.14], [75.06, 28.62], [75.06, 28.62], [75.18, 28.62], [75.18, 28.62], [74.94, 27.54], [74.94, 27.54], [74.94, 27.54], [74.94, 27.54], [75.18, 27.42], [75.18, 27.42], [75.18, 27.3], [75.18, 27.3]]}, "properties": {"kind": "member_track", "member": 6, "track": 0, "hazard": "cold_wave", "leads_h": [42, 48, 54, 60, 66, 72, 78, 84, 90, 96, 102, 108, 114, 120, 126], "max_event_prob": 1.0, "main": true}}, {"type": "Feature", "geometry": {"type": "LineString", "coordinates": [[79.74, 25.14], [79.86, 25.14], [79.86, 25.14], [80.1, 24.78]]}, "properties": {"kind": "member_track", "member": 6, "track": 1, "hazard": "cold_wave", "leads_h": [66, 72, 78, 90], "max_event_prob": 0.988, "main": false}}, {"type": "Feature", "geometry": {"type": "LineString", "coordinates": [[75.18, 29.7], [75.3, 29.7], [75.3, 29.7], [74.46, 28.62], [74.46, 28.62], [74.46, 28.74], [74.46, 28.74], [73.74, 27.42], [73.74, 27.42], [73.86, 27.42], [73.86, 27.42], [76.14, 28.26], [76.14, 28.26], [76.14, 28.26]]}, "properties": {"kind": "member_track", "member": 7, "track": 0, "hazard": "cold_wave", "leads_h": [42, 48, 54, 60, 66, 72, 78, 84, 90, 96, 102, 108, 114, 120], "max_event_prob": 1.0, "main": true}}, {"type": "Feature", "geometry": {"type": "LineString", "coordinates": [[76.74, 28.26], [76.74, 28.38], [76.74, 28.38], [74.94, 28.74], [74.94, 28.74], [74.94, 28.74]]}, "properties": {"kind": "member_track", "member": 8, "track": 0, "hazard": "cold_wave", "leads_h": [42, 48, 54, 60, 66, 72], "max_event_prob": 0.999, "main": false}}, {"type": "Feature", "geometry": {"type": "LineString", "coordinates": [[73.86, 26.94], [73.98, 26.94], [73.98, 26.94], [74.7, 26.34], [74.82, 26.34]]}, "properties": {"kind": "member_track", "member": 8, "track": 1, "hazard": "cold_wave", "leads_h": [90, 96, 102, 114, 120], "max_event_prob": 1.0, "main": true}}, {"type": "Feature", "geometry": {"type": "LineString", "coordinates": [[77.22, 28.62], [76.98, 28.74], [76.98, 28.74], [75.78, 29.34], [75.78, 29.34], [75.78, 29.34], [75.78, 29.34], [74.22, 28.62], [74.22, 28.62], [74.34, 28.62], [74.46, 28.62], [75.54, 28.62], [75.54, 28.62], [75.54, 28.62], [75.54, 28.62]]}, "properties": {"kind": "member_track", "member": 9, "track": 0, "hazard": "cold_wave", "leads_h": [42, 48, 54, 60, 66, 72, 78, 84, 90, 96, 102, 108, 114, 120, 126], "max_event_prob": 1.0, "main": true}}, {"type": "Feature", "geometry": {"type": "LineString", "coordinates": [[78.06, 27.78], [78.06, 27.78], [78.06, 27.78], [78.66, 27.42], [78.66, 27.42], [78.66, 27.42], [78.66, 27.42], [78.06, 26.94], [78.06, 26.94], [78.06, 26.94], [78.06, 26.94], [78.18, 26.82], [78.18, 26.82], [78.06, 26.82], [78.06, 26.82]]}, "properties": {"kind": "member_track", "member": 10, "track": 0, "hazard": "cold_wave", "leads_h": [42, 48, 54, 60, 66, 72, 78, 84, 90, 96, 102, 108, 114, 120, 126], "max_event_prob": 1.0, "main": true}}, {"type": "Feature", "geometry": {"type": "LineString", "coordinates": [[75.9, 29.58], [75.54, 29.82]]}, "properties": {"kind": "member_track", "member": 11, "track": 0, "hazard": "cold_wave", "leads_h": [42, 48], "max_event_prob": 0.997, "main": true}}, {"type": "Feature", "geometry": {"type": "LineString", "coordinates": [[74.94, 29.58], [75.06, 29.58], [75.06, 29.58], [75.18, 28.38], [75.18, 28.38], [75.06, 28.38], [75.06, 28.38], [74.58, 27.78], [74.58, 27.78], [74.7, 27.66], [74.7, 27.66], [75.78, 28.02], [75.78, 28.02]]}, "properties": {"kind": "member_track", "member": 12, "track": 0, "hazard": "cold_wave", "leads_h": [42, 48, 54, 60, 66, 72, 78, 84, 90, 96, 102, 114, 120], "max_event_prob": 1.0, "main": true}}, {"type": "Feature", "geometry": {"type": "LineString", "coordinates": [[84.66, 27.06], [84.78, 27.06]]}, "properties": {"kind": "member_track", "member": 12, "track": 1, "hazard": "cold_wave", "leads_h": [114, 120], "max_event_prob": 0.906, "main": false}}, {"type": "Feature", "geometry": {"type": "LineString", "coordinates": [[76.26, 28.74], [76.26, 28.86], [76.26, 28.86], [77.1, 28.14], [77.1, 28.14], [77.1, 28.26], [77.1, 28.26], [78.18, 27.42], [78.18, 27.42], [78.06, 27.42], [78.06, 27.42], [77.22, 27.66], [77.22, 27.66], [77.22, 27.66], [77.22, 27.66]]}, "properties": {"kind": "member_track", "member": 13, "track": 0, "hazard": "cold_wave", "leads_h": [42, 48, 54, 60, 66, 72, 78, 84, 90, 96, 102, 108, 114, 120, 126], "max_event_prob": 1.0, "main": true}}, {"type": "Feature", "geometry": {"type": "LineString", "coordinates": [[76.26, 29.22], [76.26, 29.22], [76.26, 29.22], [77.7, 28.02], [77.7, 28.02], [77.7, 28.14], [77.7, 28.14], [76.26, 28.5], [76.26, 28.5], [76.26, 28.5], [76.26, 28.5]]}, "properties": {"kind": "member_track", "member": 14, "track": 0, "hazard": "cold_wave", "leads_h": [42, 48, 54, 60, 66, 72, 78, 84, 90, 96, 102], "max_event_prob": 1.0, "main": true}}, {"type": "Feature", "geometry": {"type": "LineString", "coordinates": [[82.14, 24.78], [80.58, 25.02], [76.74, 27.42], [76.74, 27.42]]}, "properties": {"kind": "member_track", "member": 14, "track": 1, "hazard": "cold_wave", "leads_h": [96, 102, 114, 120], "max_event_prob": 0.975, "main": false}}, {"type": "Feature", "geometry": {"type": "LineString", "coordinates": [[80.58, 25.02], [82.14, 24.78]]}, "properties": {"kind": "member_track", "member": 14, "track": 2, "hazard": "cold_wave", "leads_h": [96, 102], "max_event_prob": 0.971, "main": false}}, {"type": "Feature", "geometry": {"type": "LineString", "coordinates": [[76.74, 28.38], [76.74, 28.38], [76.74, 28.5], [76.74, 28.5], [76.98, 28.26], [76.98, 28.26], [76.98, 28.26], [77.1, 28.26], [78.54, 27.78], [78.54, 27.78], [78.42, 27.78], [78.42, 27.78], [77.7, 27.78], [77.7, 27.78], [77.7, 27.78], [77.7, 27.78]]}, "properties": {"kind": "member_track", "member": 15, "track": 0, "hazard": "cold_wave", "leads_h": [36, 42, 48, 54, 60, 66, 72, 78, 84, 90, 96, 102, 108, 114, 120, 126], "max_event_prob": 1.0, "main": true}}, {"type": "Feature", "geometry": {"type": "LineString", "coordinates": [[77.34, 27.54], [77.34, 27.54], [77.34, 27.54], [73.62, 27.78], [73.62, 27.78], [73.62, 27.78], [73.62, 27.78], [74.22, 27.3], [74.22, 27.3], [74.34, 27.3], [74.34, 27.3], [75.3, 28.02], [75.3, 28.02], [75.3, 28.02], [75.3, 28.02]]}, "properties": {"kind": "member_track", "member": 16, "track": 0, "hazard": "cold_wave", "leads_h": [42, 48, 54, 60, 66, 72, 78, 84, 90, 96, 102, 108, 114, 120, 126], "max_event_prob": 1.0, "main": true}}, {"type": "Feature", "geometry": {"type": "LineString", "coordinates": [[80.22, 24.78], [80.34, 24.66]]}, "properties": {"kind": "member_track", "member": 16, "track": 1, "hazard": "cold_wave", "leads_h": [66, 72], "max_event_prob": 0.852, "main": false}}, {"type": "Feature", "geometry": {"type": "LineString", "coordinates": [[75.42, 29.34], [75.54, 29.34], [75.54, 29.34], [76.74, 28.26], [76.74, 28.26], [76.74, 28.26], [76.74, 28.26], [77.58, 28.14], [77.58, 28.14], [77.58, 28.14], [77.58, 28.14], [76.5, 28.26], [76.5, 28.26], [76.62, 28.26], [76.62, 28.26]]}, "properties": {"kind": "member_track", "member": 17, "track": 0, "hazard": "cold_wave", "leads_h": [42, 48, 54, 60, 66, 72, 78, 84, 90, 96, 102, 108, 114, 120, 126], "max_event_prob": 1.0, "main": true}}, {"type": "Feature", "geometry": {"type": "LineString", "coordinates": [[76.02, 28.38], [76.02, 28.5], [76.02, 28.5], [77.58, 27.3], [77.58, 27.3], [77.58, 27.3], [77.58, 27.3], [75.78, 26.58], [75.78, 26.58], [76.02, 26.58], [76.02, 26.58], [74.1, 26.82], [74.1, 26.82], [74.22, 26.82], [74.22, 26.82]]}, "properties": {"kind": "member_track", "member": 18, "track": 0, "hazard": "cold_wave", "leads_h": [42, 48, 54, 60, 66, 72, 78, 84, 90, 96, 102, 108, 114, 120, 126], "max_event_prob": 1.0, "main": true}}, {"type": "Feature", "geometry": {"type": "LineString", "coordinates": [[76.98, 28.26], [76.98, 28.26], [76.98, 28.26], [74.58, 28.02], [74.58, 28.02], [74.1, 28.26], [74.1, 28.38], [74.46, 28.26], [74.46, 28.26], [74.46, 28.26], [74.46, 28.26], [74.94, 28.02], [74.94, 28.02], [74.94, 28.14], [74.94, 28.14]]}, "properties": {"kind": "member_track", "member": 19, "track": 0, "hazard": "cold_wave", "leads_h": [42, 48, 54, 60, 66, 72, 78, 84, 90, 96, 102, 108, 114, 120, 126], "max_event_prob": 1.0, "main": true}}, {"type": "Feature", "geometry": {"type": "LineString", "coordinates": [[76.74, 28.38], [76.25999999999999, 28.793333333333333], [76.25333333333332, 28.84], [76.30235294117647, 28.78235294117647], [76.13999999999999, 28.22470588235294], [76.13999999999999, 28.22470588235294], [76.10470588235295, 28.27411764705882], [76.11176470588235, 28.281176470588232], [75.85499999999999, 27.7125], [75.91333333333334, 27.693333333333335], [75.97333333333333, 27.713333333333335], [75.98, 27.713333333333335], [76.08857142857143, 27.82285714285714], [75.9825, 27.742499999999996], [76.00500000000001, 27.742499999999996], [76.08, 27.769999999999996]]}, "properties": {"kind": "consensus", "hazard": "cold_wave", "leads_h": [36, 42, 48, 54, 60, 66, 72, 78, 84, 90, 96, 102, 108, 114, 120, 126], "spread_km": [0.0, 110.9, 108.5, 108.9, 137.8, 137.8, 143.0, 143.6, 174.9, 185.0, 182.3, 181.9, 112.1, 113.9, 113.9, 124.0], "member_count": [1, 18, 18, 17, 17, 17, 17, 17, 16, 18, 18, 18, 14, 16, 16, 12], "n_members": 20}}, {"type": "Feature", "geometry": {"type": "Polygon", "coordinates": [[[67.32, 21.360000000000003], [87.60000000000001, 21.360000000000003], [87.60000000000001, 35.04], [67.32, 35.04], [67.32, 21.360000000000003]]]}, "properties": {"kind": "bbox4d", "lat_min": 21.360000000000003, "lat_max": 35.04, "lon_min": 67.32, "lon_max": 87.60000000000001, "level_hPa_bottom": 1013, "level_hPa_top": 1013, "t_start": "2022-12-21 18:00:00", "t_end": "2022-12-25 06:00:00", "lead_start_h": 42, "lead_end_h": 126, "member_count_min": 12, "n_members": 20, "hazard": "cold_wave", "source": "GNN consensus"}}]}