{"type": "FeatureCollection", "features": [{"type": "Feature", "geometry": {"type": "LineString", "coordinates": [[91.74, 8.46], [90.9, 9.3], [91.26, 10.62]]}, "properties": {"kind": "member_track", "member": 0, "track": 0, "hazard": "tropical_cyclone", "leads_h": [36, 42, 54], "min_msl_hpa": 1000.5, "main": false}}, {"type": "Feature", "geometry": {"type": "LineString", "coordinates": [[91.38, 9.9], [91.86, 10.74], [91.86, 11.22], [91.74, 11.82], [91.98, 11.94], [91.98, 12.06], [92.22, 11.82], [91.74, 11.82], [91.26, 11.82], [90.54, 11.58], [89.7, 12.06], [88.98, 13.02], [87.78, 13.02], [87.42, 13.38], [87.18, 13.74], [85.38, 15.06]]}, "properties": {"kind": "member_track", "member": 0, "track": 1, "hazard": "tropical_cyclone", "leads_h": [48, 60, 66, 72, 78, 84, 90, 96, 102, 108, 114, 120, 126, 132, 138, 150], "min_msl_hpa": 956.8, "main": true}}, {"type": "Feature", "geometry": {"type": "LineString", "coordinates": [[85.98, 14.7], [83.94, 14.94], [83.22, 15.06], [82.02, 15.06], [81.06, 14.34], [80.94, 14.1], [79.98, 14.34], [79.26, 13.38], [78.3, 13.98], [77.46, 14.34]]}, "properties": {"kind": "member_track", "member": 0, "track": 2, "hazard": "tropical_cyclone", "leads_h": [144, 156, 162, 168, 174, 180, 186, 192, 198, 204], "min_msl_hpa": 955.4, "main": false}}, {"type": "Feature", "geometry": {"type": "LineString", "coordinates": [[90.42, 7.98], [89.58, 8.58], [89.7, 9.18], [89.46, 9.9], [89.7, 10.14], [89.7, 10.62], [89.7, 11.46], [89.7, 11.7], [89.46, 12.54], [89.22, 12.78], [88.62, 13.14]]}, "properties": {"kind": "member_track", "member": 1, "track": 0, "hazard": "tropical_cyclone", "leads_h": [36, 42, 48, 54, 60, 66, 72, 78, 84, 96, 108], "min_msl_hpa": 964.4, "main": false}}, {"type": "Feature", "geometry": {"type": "LineString", "coordinates": [[88.5, 13.26], [87.9, 13.02], [87.18, 13.26], [85.74, 13.74], [84.66, 13.62], [83.58, 13.38], [83.1, 13.98], [82.86, 13.26], [81.66, 12.66], [79.5, 12.42], [76.98, 12.3], [76.02, 12.42], [74.94, 11.58], [73.98, 11.7]]}, "properties": {"kind": "member_track", "member": 1, "track": 1, "hazard": "tropical_cyclone", "leads_h": [102, 114, 120, 126, 132, 138, 144, 150, 156, 168, 180, 186, 192, 198], "min_msl_hpa": 933.2, "main": true}}, {"type": "Feature", "geometry": {"type": "LineString", "coordinates": [[80.7, 12.3], [78.9, 12.06]]}, "properties": {"kind": "member_track", "member": 1, "track": 2, "hazard": "tropical_cyclone", "leads_h": [162, 174], "min_msl_hpa": 936.9, "main": false}}, {"type": "Feature", "geometry": {"type": "LineString", "coordinates": [[71.46, 13.38], [70.86, 12.9], [69.66, 13.62]]}, "properties": {"kind": "member_track", "member": 1, "track": 3, "hazard": "tropical_cyclone", "leads_h": [210, 216, 222], "min_msl_hpa": 1001.3, "main": false}}, {"type": "Feature", "geometry": {"type": "LineString", "coordinates": [[91.38, 7.62], [90.54, 8.34]]}, "properties": {"kind": "member_track", "member": 2, "track": 0, "hazard": "tropical_cyclone", "leads_h": [36, 42], "min_msl_hpa": 1002.0, "main": false}}, {"type": "Feature", "geometry": {"type": "LineString", "coordinates": [[91.02, 9.9], [90.9, 10.62], [91.14, 10.86], [91.5, 11.34], [91.86, 11.46], [91.62, 12.06], [91.26, 12.18], [91.02, 12.18], [90.06, 12.78]]}, "properties": {"kind": "member_track", "member": 2, "track": 1, "hazard": "tropical_cyclone", "leads_h": [66, 72, 78, 84, 90, 96, 102, 108, 114], "min_msl_hpa": 979.2, "main": true}}, {"type": "Feature", "geometry": {"type": "LineString", "coordinates": [[89.22, 13.02], [87.78, 12.66], [86.7, 12.66]]}, "properties": {"kind": "member_track", "member": 2, "track": 2, "hazard": "tropical_cyclone", "leads_h": [120, 126, 132], "min_msl_hpa": 971.5, "main": false}}, {"type": "Feature", "geometry": {"type": "LineString", "coordinates": [[85.86, 12.78], [85.38, 13.62], [84.78, 13.02], [83.82, 12.9]]}, "properties": {"kind": "member_track", "member": 2, "track": 3, "hazard": "tropical_cyclone", "leads_h": [138, 144, 150, 156], "min_msl_hpa": 971.4, "main": false}}, {"type": "Feature", "geometry": {"type": "LineString", "coordinates": [[82.62, 12.54], [81.54, 12.54], [80.34, 12.54], [79.62, 12.66]]}, "properties": {"kind": "member_track", "member": 2, "track": 4, "hazard": "tropical_cyclone", "leads_h": [162, 168, 174, 180], "min_msl_hpa": 972.0, "main": false}}, {"type": "Feature", "geometry": {"type": "LineString", "coordinates": [[77.94, 12.42], [77.22, 12.54]]}, "properties": {"kind": "member_track", "member": 2, "track": 5, "hazard": "tropical_cyclone", "leads_h": [186, 192], "min_msl_hpa": 979.6, "main": false}}, {"type": "Feature", "geometry": {"type": "LineString", "coordinates": [[76.62, 12.9], [74.94, 13.26]]}, "properties": {"kind": "member_track", "member": 2, "track": 6, "hazard": "tropical_cyclone", "leads_h": [198, 210], "min_msl_hpa": 1005.1, "main": false}}, {"type": "Feature", "geometry": {"type": "LineString", "coordinates": [[90.9, 9.9], [91.02, 10.26], [91.62, 10.26], [91.38, 10.62], [91.5, 10.86], [91.62, 11.46], [91.86, 11.22], [91.74, 11.46], [91.38, 11.94], [90.9, 12.42], [90.78, 12.66], [90.66, 13.14], [89.22, 13.26], [87.3, 13.86], [84.9, 13.62]]}, "properties": {"kind": "member_track", "member": 3, "track": 0, "hazard": "tropical_cyclone", "leads_h": [54, 60, 66, 72, 78, 84, 90, 96, 102, 108, 114, 120, 126, 138, 150], "min_msl_hpa": 965.9, "main": true}}, {"type": "Feature", "geometry": {"type": "LineString", "coordinates": [[88.26, 13.62], [85.86, 13.62], [84.18, 13.62], [81.9, 13.98], [81.18, 13.86], [80.94, 14.34], [79.98, 13.98], [79.5, 13.86], [78.54, 13.98], [77.1, 13.62]]}, "properties": {"kind": "member_track", "member": 3, "track": 1, "hazard": "tropical_cyclone", "leads_h": [132, 144, 156, 168, 174, 180, 186, 192, 198, 204], "min_msl_hpa": 963.9, "main": false}}, {"type": "Feature", "geometry": {"type": "LineString", "coordinates": [[91.26, 8.22], [90.3, 8.7], [91.14, 10.02], [91.5, 10.38], [91.74, 10.98], [91.5, 11.58], [91.86, 11.82], [91.98, 12.18], [91.74, 12.42], [91.26, 12.78], [91.26, 12.66], [91.38, 12.78], [90.54, 13.02], [90.18, 12.9], [88.62, 13.38], [85.38, 14.34], [83.7, 14.1]]}, "properties": {"kind": "member_track", "member": 4, "track": 0, "hazard": "tropical_cyclone", "leads_h": [36, 42, 54, 60, 66, 72, 78, 84, 90, 96, 102, 108, 114, 120, 132, 144, 156], "min_msl_hpa": 955.9, "main": true}}, {"type": "Feature", "geometry": {"type": "LineString", "coordinates": [[89.1, 12.54], [86.94, 13.86], [84.54, 14.34], [83.34, 13.98], [82.62, 13.74], [82.02, 14.34], [81.3, 14.82], [81.06, 14.46], [79.74, 13.86]]}, "properties": {"kind": "member_track", "member": 4, "track": 1, "hazard": "tropical_cyclone", "leads_h": [126, 138, 150, 162, 168, 174, 180, 186, 198], "min_msl_hpa": 957.5, "main": false}}, {"type": "Feature", "geometry": {"type": "LineString", "coordinates": [[91.86, 7.62], [91.14, 8.34], [91.26, 9.18], [91.26, 9.54], [91.62, 9.9], [91.62, 10.38], [91.86, 10.98], [92.22, 10.98], [92.82, 11.46], [93.06, 11.58], [92.82, 11.58], [92.34, 12.06], [92.1, 12.42], [91.26, 12.3], [91.14, 13.02], [89.82, 13.5], [88.74, 13.38], [87.9, 13.38], [87.06, 13.86], [85.98, 13.74], [85.5, 13.86], [85.26, 14.1], [84.9, 13.62], [83.58, 13.38], [83.22, 13.74], [81.18, 13.14], [79.26, 13.26]]}, "properties": {"kind": "member_track", "member": 5, "track": 0, "hazard": "tropical_cyclone", "leads_h": [36, 42, 48, 54, 60, 66, 72, 78, 84, 90, 96, 102, 108, 114, 120, 126, 132, 138, 144, 150, 156, 162, 168, 174, 180, 192, 204], "min_msl_hpa": 938.1, "main": true}}, {"type": "Feature", "geometry": {"type": "LineString", "coordinates": [[82.5, 13.62], [80.34, 13.5], [78.66, 13.74], [78.06, 12.54]]}, "properties": {"kind": "member_track", "member": 5, "track": 1, "hazard": "tropical_cyclone", "leads_h": [186, 198, 210, 216], "min_msl_hpa": 943.3, "main": false}}, {"type": "Feature", "geometry": {"type": "LineString", "coordinates": [[90.06, 9.18], [89.94, 10.86], [89.82, 10.98], [89.46, 11.34], [89.34, 12.18], [89.1, 12.42], [88.74, 12.9], [88.62, 13.26], [88.14, 13.38], [88.26, 13.86], [88.26, 14.34], [87.42, 15.06]]}, "properties": {"kind": "member_track", "member": 6, "track": 0, "hazard": "tropical_cyclone", "leads_h": [42, 54, 60, 66, 72, 78, 84, 90, 96, 102, 108, 114], "min_msl_hpa": 957.2, "main": false}}, {"type": "Feature", "geometry": {"type": "LineString", "coordinates": [[86.82, 15.66], [84.66, 15.66]]}, "properties": {"kind": "member_track", "member": 6, "track": 1, "hazard": "tropical_cyclone", "leads_h": [120, 132], "min_msl_hpa": 942.7, "main": false}}, {"type": "Feature", "geometry": {"type": "LineString", "coordinates": [[85.86, 15.54], [84.18, 15.9], [82.98, 16.26], [82.02, 15.66], [81.18, 15.78], [80.22, 16.14], [79.38, 15.54], [78.18, 15.78], [77.1, 16.02], [75.78, 16.38], [75.18, 15.42], [73.98, 15.06], [72.78, 15.54]]}, "properties": {"kind": "member_track", "member": 6, "track": 2, "hazard": "tropical_cyclone", "leads_h": [126, 138, 144, 150, 156, 162, 168, 174, 180, 186, 192, 198, 204], "min_msl_hpa": 929.1, "main": true}}, {"type": "Feature", "geometry": {"type": "LineString", "coordinates": [[71.34, 15.66], [71.46, 15.54], [70.26, 15.06]]}, "properties": {"kind": "member_track", "member": 6, "track": 3, "hazard": "tropical_cyclone", "leads_h": [210, 216, 222], "min_msl_hpa": 998.4, "main": false}}, {"type": "Feature", "geometry": {"type": "LineString", "coordinates": [[91.38, 9.18], [90.42, 9.78], [90.9, 10.5], [91.02, 11.34]]}, "properties": {"kind": "member_track", "member": 7, "track": 0, "hazard": "tropical_cyclone", "leads_h": [36, 42, 48, 54], "min_msl_hpa": 999.9, "main": false}}, {"type": "Feature", "geometry": {"type": "LineString", "coordinates": [[91.38, 11.82], [90.9, 12.06], [90.9, 12.9], [91.14, 13.26], [91.14, 13.62], [91.26, 14.1], [90.54, 14.22], [90.42, 14.34], [90.3, 14.58]]}, "properties": {"kind": "member_track", "member": 7, "track": 1, "hazard": "tropical_cyclone", "leads_h": [60, 66, 72, 78, 84, 90, 96, 102, 108], "min_msl_hpa": 971.7, "main": true}}, {"type": "Feature", "geometry": {"type": "LineString", "coordinates": [[89.58, 15.06], [88.5, 15.3], [86.7, 15.78], [85.74, 16.5], [85.14, 16.26], [83.46, 16.26], [81.9, 17.1]]}, "properties": {"kind": "member_track", "member": 7, "track": 2, "hazard": "tropical_cyclone", "leads_h": [114, 120, 126, 132, 138, 150, 162], "min_msl_hpa": 954.1, "main": false}}, {"type": "Feature", "geometry": {"type": "LineString", "coordinates": [[84.06, 16.02], [82.74, 16.5], [81.66, 17.34]]}, "properties": {"kind": "member_track", "member": 7, "track": 3, "hazard": "tropical_cyclone", "leads_h": [144, 156, 168], "min_msl_hpa": 951.9, "main": false}}, {"type": "Feature", "geometry": {"type": "LineString", "coordinates": [[80.34, 16.74], [79.86, 17.82], [79.38, 18.54], [77.94, 19.62]]}, "properties": {"kind": "member_track", "member": 7, "track": 4, "hazard": "tropical_cyclone", "leads_h": [174, 180, 192, 204], "min_msl_hpa": 954.4, "main": false}}, {"type": "Feature", "geometry": {"type": "LineString", "coordinates": [[79.74, 17.94], [77.94, 19.02], [76.14, 19.74]]}, "properties": {"kind": "member_track", "member": 7, "track": 5, "hazard": "tropical_cyclone", "leads_h": [186, 198, 210], "min_msl_hpa": 956.1, "main": false}}, {"type": "Feature", "geometry": {"type": "LineString", "coordinates": [[90.42, 8.34], [89.46, 9.18], [89.82, 9.66], [89.46, 10.14], [89.58, 10.5], [90.06, 10.98], [89.46, 11.58], [89.7, 11.58], [89.34, 12.3], [88.5, 12.78]]}, "properties": {"kind": "member_track", "member": 8, "track": 0, "hazard": "tropical_cyclone", "leads_h": [36, 42, 48, 54, 60, 66, 72, 78, 90, 102], "min_msl_hpa": 979.3, "main": false}}, {"type": "Feature", "geometry": {"type": "LineString", "coordinates": [[89.34, 11.94], [88.98, 12.42], [88.14, 13.02], [86.7, 13.26], [86.22, 13.02], [85.02, 13.5], [84.54, 14.58], [83.46, 14.34], [82.86, 14.58], [82.26, 15.18], [81.9, 16.02], [81.3, 15.66], [80.46, 15.54], [79.26, 15.66], [78.78, 16.02], [78.06, 16.5], [77.22, 16.14], [76.38, 16.26], [75.78, 16.02]]}, "properties": {"kind": "member_track", "member": 8, "track": 1, "hazard": "tropical_cyclone", "leads_h": [84, 96, 108, 114, 120, 126, 132, 138, 144, 150, 156, 162, 168, 174, 180, 186, 192, 198, 204], "min_msl_hpa": 951.9, "main": true}}, {"type": "Feature", "geometry": {"type": "LineString", "coordinates": [[92.22, 7.86], [91.62, 8.46]]}, "properties": {"kind": "member_track", "member": 9, "track": 0, "hazard": "tropical_cyclone", "leads_h": [36, 42], "min_msl_hpa": 1002.5, "main": false}}, {"type": "Feature", "geometry": {"type": "LineString", "coordinates": [[91.98, 9.18], [91.98, 10.02], [92.46, 10.26], [92.7, 10.74], [93.18, 11.22], [93.3, 11.58], [93.06, 11.58]]}, "properties": {"kind": "member_track", "member": 9, "track": 1, "hazard": "tropical_cyclone", "leads_h": [48, 54, 60, 66, 72, 78, 84], "min_msl_hpa": 996.1, "main": true}}, {"type": "Feature", "geometry": {"type": "LineString", "coordinates": [[92.58, 8.58], [91.74, 9.18], [92.22, 10.38], [92.46, 11.1], [92.7, 11.22], [92.94, 11.7], [93.3, 12.18]]}, "properties": {"kind": "member_track", "member": 10, "track": 0, "hazard": "tropical_cyclone", "leads_h": [36, 42, 48, 54, 60, 66, 72], "min_msl_hpa": 992.4, "main": false}}, {"type": "Feature", "geometry": {"type": "LineString", "coordinates": [[93.66, 12.66], [93.9, 13.02], [94.14, 13.14], [93.9, 13.62], [94.14, 13.98], [93.78, 13.74], [93.3, 14.1], [92.82, 14.34], [91.86, 14.46], [91.62, 14.34], [90.54, 14.94], [89.22, 14.82], [80.94, 16.02]]}, "properties": {"kind": "member_track", "member": 10, "track": 1, "hazard": "tropical_cyclone", "leads_h": [78, 84, 90, 96, 102, 108, 114, 120, 126, 132, 138, 150, 162], "min_msl_hpa": 931.8, "main": true}}, {"type": "Feature", "geometry": {"type": "LineString", "coordinates": [[88.38, 14.7], [87.54, 14.1], [86.22, 13.74], [85.5, 13.98], [84.66, 14.34], [84.06, 14.22], [83.34, 14.34], [82.86, 13.86], [82.26, 13.62], [82.26, 13.86], [82.14, 14.7]]}, "properties": {"kind": "member_track", "member": 10, "track": 2, "hazard": "tropical_cyclone", "leads_h": [156, 162, 168, 174, 180, 186, 192, 198, 204, 210, 216], "min_msl_hpa": 927.6, "main": false}}, {"type": "Feature", "geometry": {"type": "LineString", "coordinates": [[91.02, 10.38], [91.14, 10.62], [91.26, 10.98], [91.26, 12.18], [90.9, 12.78], [91.14, 12.78], [90.42, 13.62], [90.3, 13.86], [88.98, 14.1], [87.66, 13.86], [86.82, 14.46], [86.22, 14.58], [85.38, 14.34], [84.18, 15.06], [83.7, 14.82], [83.1, 14.7], [82.26, 15.42], [81.3, 15.78], [79.02, 15.9], [76.14, 16.02], [74.82, 16.86]]}, "properties": {"kind": "member_track", "member": 11, "track": 0, "hazard": "tropical_cyclone", "leads_h": [54, 60, 66, 78, 84, 90, 102, 108, 114, 120, 126, 132, 138, 144, 150, 156, 168, 174, 186, 198, 210], "min_msl_hpa": 947.2, "main": true}}, {"type": "Feature", "geometry": {"type": "LineString", "coordinates": [[80.82, 16.02], [77.94, 15.9], [75.54, 16.14]]}, "properties": {"kind": "member_track", "member": 11, "track": 1, "hazard": "tropical_cyclone", "leads_h": [180, 192, 204], "min_msl_hpa": 950.6, "main": false}}, {"type": "Feature", "geometry": {"type": "LineString", "coordinates": [[90.66, 7.26], [89.58, 7.62], [89.94, 8.46], [89.82, 8.82], [90.06, 8.94], [89.7, 9.3], [89.94, 10.26], [89.82, 10.26], [89.7, 10.38], [89.94, 10.74], [89.34, 10.38], [89.1, 10.5]]}, "properties": {"kind": "member_track", "member": 12, "track": 0, "hazard": "tropical_cyclone", "leads_h": [36, 42, 48, 54, 60, 66, 72, 78, 84, 96, 102, 108], "min_msl_hpa": 978.2, "main": true}}, {"type": "Feature", "geometry": {"type": "LineString", "coordinates": [[88.62, 11.1], [87.54, 10.5], [86.34, 10.98], [85.14, 11.34], [82.98, 11.58], [81.18, 10.98], [80.22, 11.1], [79.62, 10.74], [78.3, 11.1], [78.06, 10.98], [75.42, 12.54]]}, "properties": {"kind": "member_track", "member": 12, "track": 1, "hazard": "tropical_cyclone", "leads_h": [114, 120, 126, 138, 150, 162, 168, 174, 180, 186, 198], "min_msl_hpa": 961.2, "main": false}}, {"type": "Feature", "geometry": {"type": "LineString", "coordinates": [[85.26, 11.46], [83.58, 11.34], [82.26, 10.98]]}, "properties": {"kind": "member_track", "member": 12, "track": 2, "hazard": "tropical_cyclone", "leads_h": [132, 144, 156], "min_msl_hpa": 962.1, "main": false}}, {"type": "Feature", "geometry": {"type": "LineString", "coordinates": [[91.38, 7.38], [90.54, 7.98], [90.9, 8.82], [91.38, 9.18], [91.98, 9.18], [92.1, 9.9], [91.86, 10.02], [92.58, 10.26], [91.74, 10.02], [91.26, 9.66], [91.14, 9.42], [90.42, 9.66], [89.46, 9.42], [88.5, 9.3], [87.66, 9.66], [86.82, 10.5], [85.5, 11.1], [85.74, 11.1], [85.14, 10.98], [85.02, 10.74], [83.82, 10.86], [83.22, 10.5], [81.42, 10.5], [78.78, 11.1]]}, "properties": {"kind": "member_track", "member": 13, "track": 0, "hazard": "tropical_cyclone", "leads_h": [36, 42, 48, 54, 66, 78, 84, 90, 96, 102, 108, 114, 120, 126, 132, 138, 144, 150, 156, 162, 168, 174, 186, 198], "min_msl_hpa": 955.0, "main": true}}, {"type": "Feature", "geometry": {"type": "LineString", "coordinates": [[91.74, 9.18], [92.22, 9.42]]}, "properties": {"kind": "member_track", "member": 13, "track": 1, "hazard": "tropical_cyclone", "leads_h": [60, 72], "min_msl_hpa": 995.5, "main": false}}, {"type": "Feature", "geometry": {"type": "LineString", "coordinates": [[81.9, 10.74], [80.22, 10.62]]}, "properties": {"kind": "member_track", "member": 13, "track": 2, "hazard": "tropical_cyclone", "leads_h": [180, 192], "min_msl_hpa": 958.6, "main": false}}, {"type": "Feature", "geometry": {"type": "LineString", "coordinates": [[91.14, 7.26], [90.54, 7.74], [90.66, 8.46], [90.3, 8.82], [90.06, 9.42], [90.18, 9.66], [90.3, 9.78], [90.42, 10.14], [90.06, 10.14], [89.46, 9.9], [89.22, 9.66], [88.38, 10.38], [87.3, 10.62], [86.46, 10.74], [85.38, 11.1], [84.9, 11.1], [83.46, 11.46], [81.78, 11.7], [80.82, 11.58], [80.1, 11.34], [78.9, 11.58], [77.94, 10.5], [75.18, 9.9]]}, "properties": {"kind": "member_track", "member": 14, "track": 0, "hazard": "tropical_cyclone", "leads_h": [36, 42, 48, 54, 66, 72, 78, 84, 90, 96, 102, 114, 120, 126, 132, 138, 144, 156, 162, 168, 180, 192, 204], "min_msl_hpa": 961.3, "main": true}}, {"type": "Feature", "geometry": {"type": "LineString", "coordinates": [[79.62, 11.1], [78.18, 11.34], [80.22, 24.66]]}, "properties": {"kind": "member_track", "member": 14, "track": 1, "hazard": "tropical_cyclone", "leads_h": [174, 186, 198], "min_msl_hpa": 965.0, "main": false}}, {"type": "Feature", "geometry": {"type": "LineString", "coordinates": [[90.66, 9.18], [90.78, 10.02], [90.66, 10.5], [90.78, 11.22], [91.02, 11.94], [91.26, 12.18], [91.02, 12.66], [90.9, 12.66], [90.3, 12.3], [90.06, 12.66], [89.58, 13.14], [88.38, 13.62], [87.9, 13.98], [87.18, 14.22], [86.22, 14.7], [84.9, 14.1], [84.78, 14.1], [83.94, 13.98], [83.22, 14.7], [83.34, 14.58], [82.02, 15.06], [80.22, 15.54], [78.18, 14.94]]}, "properties": {"kind": "member_track", "member": 15, "track": 0, "hazard": "tropical_cyclone", "leads_h": [42, 48, 54, 66, 72, 78, 84, 90, 96, 102, 108, 114, 120, 126, 132, 144, 150, 156, 162, 168, 174, 186, 198], "min_msl_hpa": 948.8, "main": true}}, {"type": "Feature", "geometry": {"type": "LineString", "coordinates": [[80.94, 14.94], [79.5, 15.18], [76.62, 15.42]]}, "properties": {"kind": "member_track", "member": 15, "track": 1, "hazard": "tropical_cyclone", "leads_h": [180, 192, 204], "min_msl_hpa": 948.4, "main": false}}, {"type": "Feature", "geometry": {"type": "LineString", "coordinates": [[90.54, 8.1], [90.54, 8.82], [90.66, 9.06], [90.9, 9.54], [90.9, 9.78], [90.54, 10.5], [90.78, 10.5], [90.78, 10.86], [90.78, 11.1], [90.66, 10.74], [91.14, 11.7], [90.66, 11.94], [89.58, 12.66], [87.9, 12.66], [87.06, 12.42], [86.46, 12.3], [84.54, 12.06], [83.82, 11.34]]}, "properties": {"kind": "member_track", "member": 16, "track": 0, "hazard": "tropical_cyclone", "leads_h": [42, 48, 54, 60, 66, 72, 78, 84, 90, 96, 102, 108, 114, 126, 132, 138, 144, 156], "min_msl_hpa": 953.8, "main": true}}, {"type": "Feature", "geometry": {"type": "LineString", "coordinates": [[65.94, 15.18], [65.94, 15.3], [65.82, 15.42], [65.7, 15.42]]}, "properties": {"kind": "member_track", "member": 16, "track": 1, "hazard": "tropical_cyclone", "leads_h": [90, 96, 102, 114], "min_msl_hpa": 986.9, "main": false}}, {"type": "Feature", "geometry": {"type": "LineString", "coordinates": [[84.54, 11.7], [83.34, 11.22], [82.74, 10.26], [81.54, 10.98], [79.86, 11.1]]}, "properties": {"kind": "member_track", "member": 16, "track": 2, "hazard": "tropical_cyclone", "leads_h": [150, 162, 168, 174, 180], "min_msl_hpa": 955.1, "main": false}}, {"type": "Feature", "geometry": {"type": "LineString", "coordinates": [[65.22, 15.9], [65.1, 15.9], [65.22, 15.9]]}, "properties": {"kind": "member_track", "member": 16, "track": 3, "hazard": "tropical_cyclone", "leads_h": [150, 156, 162], "min_msl_hpa": 986.0, "main": false}}, {"type": "Feature", "geometry": {"type": "LineString", "coordinates": [[79.02, 11.1], [77.1, 10.74], [75.54, 11.1], [73.98, 10.74]]}, "properties": {"kind": "member_track", "member": 16, "track": 4, "hazard": "tropical_cyclone", "leads_h": [186, 192, 198, 204], "min_msl_hpa": 958.8, "main": false}}, {"type": "Feature", "geometry": {"type": "LineString", "coordinates": [[90.06, 7.74], [89.22, 8.1], [89.22, 8.94], [88.98, 9.3], [89.34, 9.3], [89.22, 9.54], [89.34, 10.38], [89.22, 10.5], [88.74, 10.5], [88.14, 10.62], [87.78, 10.62], [87.54, 10.86], [87.06, 10.98], [86.22, 11.1], [84.9, 11.34], [83.34, 11.82], [82.86, 11.58], [81.42, 12.06], [80.34, 11.1], [78.9, 10.5], [78.66, 10.74], [78.06, 11.1], [77.46, 10.86], [74.94, 11.46], [73.02, 11.94], [72.06, 12.3]]}, "properties": {"kind": "member_track", "member": 17, "track": 0, "hazard": "tropical_cyclone", "leads_h": [36, 42, 48, 54, 60, 66, 72, 84, 90, 96, 102, 108, 114, 120, 126, 132, 138, 144, 150, 156, 162, 168, 174, 186, 198, 210], "min_msl_hpa": 936.0, "main": true}}, {"type": "Feature", "geometry": {"type": "LineString", "coordinates": [[76.26, 11.34], [74.22, 11.34], [71.82, 11.22]]}, "properties": {"kind": "member_track", "member": 17, "track": 1, "hazard": "tropical_cyclone", "leads_h": [180, 192, 204], "min_msl_hpa": 939.5, "main": false}}, {"type": "Feature", "geometry": {"type": "LineString", "coordinates": [[91.86, 8.22], [91.38, 9.06], [91.5, 10.14], [91.5, 10.5], [91.5, 10.98], [91.62, 11.7], [91.5, 12.18], [91.74, 12.18], [91.5, 12.66], [91.5, 13.26], [91.74, 13.14], [92.58, 6.3]]}, "properties": {"kind": "member_track", "member": 18, "track": 0, "hazard": "tropical_cyclone", "leads_h": [36, 42, 48, 54, 60, 66, 72, 78, 84, 90, 96, 108], "min_msl_hpa": 988.5, "main": true}}, {"type": "Feature", "geometry": {"type": "LineString", "coordinates": [[92.7, 7.74], [92.34, 7.98], [92.34, 8.94], [92.46, 9.42], [92.7, 9.78], [92.94, 10.14], [93.42, 11.1], [93.78, 10.98]]}, "properties": {"kind": "member_track", "member": 19, "track": 0, "hazard": "tropical_cyclone", "leads_h": [36, 42, 48, 54, 60, 66, 72, 78], "min_msl_hpa": 993.2, "main": false}}, {"type": "Feature", "geometry": {"type": "LineString", "coordinates": [[93.54, 10.86], [93.42, 10.5], [93.66, 10.5], [93.66, 10.5], [93.18, 10.74], [92.82, 10.98], [91.62, 10.86], [90.3, 11.34]]}, "properties": {"kind": "member_track", "member": 19, "track": 1, "hazard": "tropical_cyclone", "leads_h": [84, 90, 96, 102, 114, 120, 126, 138], "min_msl_hpa": 957.5, "main": true}}, {"type": "Feature", "geometry": {"type": "LineString", "coordinates": [[90.78, 11.22], [89.1, 11.1], [88.02, 10.74], [86.82, 10.86], [85.5, 11.22], [84.78, 11.34]]}, "properties": {"kind": "member_track", "member": 19, "track": 2, "hazard": "tropical_cyclone", "leads_h": [132, 144, 156, 168, 174, 180], "min_msl_hpa": 953.6, "main": false}}, {"type": "Feature", "geometry": {"type": "LineString", "coordinates": [[88.74, 10.98], [87.42, 11.1]]}, "properties": {"kind": "member_track", "member": 19, "track": 3, "hazard": "tropical_cyclone", "leads_h": [150, 162], "min_msl_hpa": 955.8, "main": false}}, {"type": "Feature", "geometry": {"type": "LineString", "coordinates": [[83.82, 12.06], [82.74, 10.86], [82.26, 10.5]]}, "properties": {"kind": "member_track", "member": 19, "track": 4, "hazard": "tropical_cyclone", "leads_h": [186, 192, 198], "min_msl_hpa": 957.2, "main": false}}, {"type": "Feature", "geometry": {"type": "LineString", "coordinates": [[91.1742857142857, 7.671428571428572], [90.43333333333334, 8.313333333333334], [90.816, 9.192], [90.8, 9.67], [91.16181818181818, 10.24909090909091], [91.132, 10.443999999999997], [91.07538461538462, 11.127692307692307], [91.604, 11.395999999999999], [91.46, 11.639999999999999], [91.68400000000001, 11.796], [91.14000000000001, 11.745000000000001], [90.84, 11.94], [90.604, 11.916], [89.748, 12.355999999999998], [89.11846153846153, 12.512307692307692], [87.76285714285716, 12.900000000000002], [86.79, 13.079999999999998], [86.22, 13.130769230769234], [84.12545454545453, 13.532727272727271], [84.28909090909092, 13.859999999999998], [82.78363636363636, 13.238181818181818], [81.92999999999999, 13.709999999999999], [81.31333333333333, 13.379999999999999], [80.71714285714286, 13.86], [78.99600000000001, 13.931999999999999], [77.92285714285715, 14.099999999999998], [77.292, 13.356], [75.78, 13.859999999999998], [75.75, 13.679999999999998], [73.44, 14.58]]}, "properties": {"kind": "consensus", "hazard": "tropical_cyclone", "leads_h": [36, 42, 48, 54, 60, 66, 72, 78, 84, 90, 96, 102, 108, 114, 120, 126, 132, 138, 144, 150, 156, 162, 168, 174, 180, 186, 192, 198, 204, 210], "spread_km": [73.7, 82.6, 97.9, 97.9, 105.5, 125.7, 128.9, 137.4, 163.1, 169.3, 194.1, 204.4, 225.0, 216.6, 264.3, 264.0, 255.9, 281.9, 221.9, 252.4, 260.8, 324.1, 308.9, 325.6, 308.9, 343.2, 340.5, 308.9, 362.0, 293.8], "member_count": [7, 9, 10, 12, 11, 15, 13, 15, 18, 15, 16, 16, 15, 15, 13, 14, 12, 13, 11, 11, 11, 8, 9, 7, 5, 7, 5, 7, 4, 2], "n_members": 20}}, {"type": "Feature", "geometry": {"type": "Polygon", "coordinates": [[[77.52, 6.24], [95.28, 6.24], [95.28, 18.48], [77.52, 18.48], [77.52, 6.24]]]}, "properties": {"kind": "bbox4d", "lat_min": 6.24, "lat_max": 18.48, "lon_min": 77.52, "lon_max": 95.28, "level_hPa_bottom": 1013, "level_hPa_top": 850, "t_start": "2020-05-16 12:00:00", "t_end": "2020-05-21 00:00:00", "lead_start_h": 48, "lead_end_h": 156, "member_count_min": 10, "n_members": 20, "hazard": "tropical_cyclone", "source": "GNN consensus"}}]}