{"type": "FeatureCollection", "features": [{"type": "Feature", "geometry": {"type": "LineString", "coordinates": [[89.82, 9.9], [88.74, 9.78], [87.3, 10.26]]}, "properties": {"kind": "member_track", "member": 0, "track": 0, "hazard": "tropical_cyclone", "leads_h": [18, 24, 36], "min_msl_hpa": 998.9, "main": false}}, {"type": "Feature", "geometry": {"type": "LineString", "coordinates": [[88.02, 10.14], [86.7, 10.14], [84.9, 11.1], [83.46, 11.7], [83.22, 11.7], [82.86, 12.3], [82.38, 12.78], [82.26, 12.78], [82.98, 13.86], [83.7, 14.46], [83.82, 14.1]]}, "properties": {"kind": "member_track", "member": 0, "track": 1, "hazard": "tropical_cyclone", "leads_h": [30, 42, 48, 60, 66, 78, 84, 90, 96, 102, 108], "min_msl_hpa": 984.5, "main": true}}, {"type": "Feature", "geometry": {"type": "LineString", "coordinates": [[83.94, 14.22], [85.02, 14.7]]}, "properties": {"kind": "member_track", "member": 0, "track": 2, "hazard": "tropical_cyclone", "leads_h": [114, 120], "min_msl_hpa": 999.6, "main": false}}, {"type": "Feature", "geometry": {"type": "LineString", "coordinates": [[89.46, 9.3], [88.86, 10.02], [87.78, 10.14], [85.86, 10.86]]}, "properties": {"kind": "member_track", "member": 1, "track": 0, "hazard": "tropical_cyclone", "leads_h": [12, 18, 24, 36], "min_msl_hpa": 998.5, "main": false}}, {"type": "Feature", "geometry": {"type": "LineString", "coordinates": [[85.02, 11.1], [83.22, 12.18], [82.14, 12.9], [80.94, 12.78], [80.1, 13.38], [79.98, 13.86]]}, "properties": {"kind": "member_track", "member": 1, "track": 1, "hazard": "tropical_cyclone", "leads_h": [42, 48, 54, 60, 66, 78], "min_msl_hpa": 992.0, "main": false}}, {"type": "Feature", "geometry": {"type": "LineString", "coordinates": [[79.74, 13.38], [79.02, 14.46], [79.02, 14.82], [79.02, 15.78], [78.3, 15.78], [79.14, 16.38], [79.62, 16.74]]}, "properties": {"kind": "member_track", "member": 1, "track": 2, "hazard": "tropical_cyclone", "leads_h": [72, 84, 90, 96, 102, 114, 120], "min_msl_hpa": 983.5, "main": true}}, {"type": "Feature", "geometry": {"type": "LineString", "coordinates": [[89.46, 9.18], [88.74, 9.9]]}, "properties": {"kind": "member_track", "member": 2, "track": 0, "hazard": "tropical_cyclone", "leads_h": [12, 18], "min_msl_hpa": 1001.5, "main": false}}, {"type": "Feature", "geometry": {"type": "LineString", "coordinates": [[87.66, 9.9], [86.46, 10.14], [85.86, 10.74], [84.9, 10.86], [83.22, 11.46], [82.14, 11.94], [81.3, 12.06], [80.82, 12.42], [79.86, 12.3], [79.5, 12.66], [79.26, 13.38], [79.38, 13.62], [79.38, 14.34], [79.5, 14.82], [79.5, 15.18], [79.98, 15.42]]}, "properties": {"kind": "member_track", "member": 2, "track": 1, "hazard": "tropical_cyclone", "leads_h": [24, 30, 36, 42, 48, 54, 60, 66, 72, 78, 84, 90, 96, 102, 108, 114], "min_msl_hpa": 986.3, "main": true}}, {"type": "Feature", "geometry": {"type": "LineString", "coordinates": [[89.7, 8.94], [88.02, 9.78]]}, "properties": {"kind": "member_track", "member": 3, "track": 0, "hazard": "tropical_cyclone", "leads_h": [12, 24], "min_msl_hpa": 999.8, "main": false}}, {"type": "Feature", "geometry": {"type": "LineString", "coordinates": [[89.22, 9.78], [87.06, 10.02], [86.34, 10.62], [85.5, 10.26], [83.58, 10.98], [82.74, 11.94], [82.26, 12.06], [81.54, 12.42], [81.06, 12.66], [81.18, 13.26], [80.94, 13.86], [79.5, 14.7], [79.26, 14.94], [79.74, 14.94], [80.22, 15.54], [80.22, 15.66]]}, "properties": {"kind": "member_track", "member": 3, "track": 1, "hazard": "tropical_cyclone", "leads_h": [18, 30, 36, 42, 48, 54, 60, 66, 72, 78, 84, 96, 102, 114, 120, 132], "min_msl_hpa": 972.8, "main": true}}, {"type": "Feature", "geometry": {"type": "LineString", "coordinates": [[65.94, 15.06], [65.82, 15.18], [65.7, 15.42], [65.7, 15.42], [65.46, 15.66], [65.46, 15.66], [65.46, 15.66], [65.46, 15.66], [65.22, 15.78], [65.22, 15.78], [65.1, 15.9]]}, "properties": {"kind": "member_track", "member": 3, "track": 2, "hazard": "tropical_cyclone", "leads_h": [72, 78, 90, 96, 102, 108, 114, 120, 126, 132, 138], "min_msl_hpa": 987.9, "main": false}}, {"type": "Feature", "geometry": {"type": "LineString", "coordinates": [[89.34, 9.54], [88.5, 9.54]]}, "properties": {"kind": "member_track", "member": 4, "track": 0, "hazard": "tropical_cyclone", "leads_h": [18, 24], "min_msl_hpa": 1000.5, "main": false}}, {"type": "Feature", "geometry": {"type": "LineString", "coordinates": [[87.66, 9.78], [87.06, 10.38], [86.58, 10.5], [84.78, 11.1], [82.5, 11.58], [82.02, 11.7], [81.66, 11.82], [81.78, 12.54], [81.18, 13.14], [81.42, 13.62], [81.3, 14.22], [81.3, 14.22], [81.18, 14.46]]}, "properties": {"kind": "member_track", "member": 4, "track": 1, "hazard": "tropical_cyclone", "leads_h": [30, 36, 42, 48, 60, 66, 72, 78, 84, 90, 102, 108, 114], "min_msl_hpa": 988.5, "main": true}}, {"type": "Feature", "geometry": {"type": "LineString", "coordinates": [[89.46, 9.42], [88.74, 10.14], [86.46, 10.74], [85.62, 11.1]]}, "properties": {"kind": "member_track", "member": 5, "track": 0, "hazard": "tropical_cyclone", "leads_h": [12, 18, 30, 36], "min_msl_hpa": 997.8, "main": false}}, {"type": "Feature", "geometry": {"type": "LineString", "coordinates": [[84.9, 11.22], [82.98, 12.42], [81.66, 13.14], [80.58, 12.78], [79.86, 12.78], [79.38, 12.9], [78.78, 13.38], [77.94, 14.46], [77.7, 14.82], [77.46, 16.02], [77.46, 16.02], [77.46, 16.02]]}, "properties": {"kind": "member_track", "member": 5, "track": 1, "hazard": "tropical_cyclone", "leads_h": [42, 48, 54, 60, 66, 72, 78, 84, 90, 96, 102, 108], "min_msl_hpa": 986.1, "main": true}}, {"type": "Feature", "geometry": {"type": "LineString", "coordinates": [[90.06, 9.3], [89.58, 10.26], [88.5, 10.14], [87.66, 10.74], [86.94, 11.22]]}, "properties": {"kind": "member_track", "member": 6, "track": 0, "hazard": "tropical_cyclone", "leads_h": [12, 18, 24, 30, 36], "min_msl_hpa": 998.2, "main": false}}, {"type": "Feature", "geometry": {"type": "LineString", "coordinates": [[86.1, 11.34], [84.42, 12.18], [83.46, 13.14], [82.5, 13.14], [81.9, 13.26], [81.54, 13.62], [81.54, 14.1], [80.94, 14.82], [80.82, 15.06], [80.22, 16.14]]}, "properties": {"kind": "member_track", "member": 6, "track": 1, "hazard": "tropical_cyclone", "leads_h": [42, 48, 54, 60, 66, 72, 78, 84, 90, 102], "min_msl_hpa": 984.4, "main": true}}, {"type": "Feature", "geometry": {"type": "LineString", "coordinates": [[80.34, 16.02], [80.22, 16.14], [81.06, 17.1]]}, "properties": {"kind": "member_track", "member": 6, "track": 2, "hazard": "tropical_cyclone", "leads_h": [108, 114, 120], "min_msl_hpa": 992.8, "main": false}}, {"type": "Feature", "geometry": {"type": "LineString", "coordinates": [[78.3, 25.26], [79.02, 24.9]]}, "properties": {"kind": "member_track", "member": 6, "track": 3, "hazard": "tropical_cyclone", "leads_h": [162, 174], "min_msl_hpa": 997.2, "main": false}}, {"type": "Feature", "geometry": {"type": "LineString", "coordinates": [[89.82, 10.38], [88.62, 10.62], [87.9, 10.98], [86.7, 11.7]]}, "properties": {"kind": "member_track", "member": 7, "track": 0, "hazard": "tropical_cyclone", "leads_h": [18, 24, 30, 36], "min_msl_hpa": 998.2, "main": false}}, {"type": "Feature", "geometry": {"type": "LineString", "coordinates": [[86.1, 12.18], [84.42, 12.78]]}, "properties": {"kind": "member_track", "member": 7, "track": 1, "hazard": "tropical_cyclone", "leads_h": [42, 48], "min_msl_hpa": 997.5, "main": false}}, {"type": "Feature", "geometry": {"type": "LineString", "coordinates": [[83.7, 13.5], [82.98, 13.98]]}, "properties": {"kind": "member_track", "member": 7, "track": 2, "hazard": "tropical_cyclone", "leads_h": [54, 60], "min_msl_hpa": 993.2, "main": false}}, {"type": "Feature", "geometry": {"type": "LineString", "coordinates": [[82.38, 14.46], [82.26, 14.82], [82.38, 15.18], [81.78, 15.66], [82.62, 16.38], [82.26, 17.1], [82.5, 17.46], [82.5, 17.46], [82.86, 17.7]]}, "properties": {"kind": "member_track", "member": 7, "track": 3, "hazard": "tropical_cyclone", "leads_h": [66, 72, 78, 84, 90, 96, 102, 108, 114], "min_msl_hpa": 983.2, "main": true}}, {"type": "Feature", "geometry": {"type": "LineString", "coordinates": [[89.82, 9.42], [89.1, 10.14], [87.9, 10.14], [86.82, 10.5], [85.98, 10.74], [85.14, 10.86], [83.7, 12.18], [82.5, 12.78], [81.54, 12.78], [81.06, 13.5], [80.22, 13.74], [80.34, 14.58], [79.98, 15.42], [80.1, 15.9], [79.5, 16.38], [79.98, 16.38], [79.86, 16.5], [79.62, 16.86]]}, "properties": {"kind": "member_track", "member": 8, "track": 0, "hazard": "tropical_cyclone", "leads_h": [12, 18, 24, 30, 36, 42, 48, 54, 60, 66, 72, 78, 84, 90, 96, 102, 108, 114], "min_msl_hpa": 974.2, "main": true}}, {"type": "Feature", "geometry": {"type": "LineString", "coordinates": [[89.94, 9.54], [89.46, 10.26], [87.66, 10.98], [86.46, 11.7], [85.62, 11.82], [83.94, 12.54], [82.86, 13.14], [82.38, 13.02], [81.66, 13.5], [81.3, 13.86], [81.66, 14.58], [80.7, 15.18], [80.46, 15.66], [80.1, 16.74]]}, "properties": {"kind": "member_track", "member": 9, "track": 0, "hazard": "tropical_cyclone", "leads_h": [12, 18, 30, 36, 42, 48, 54, 60, 66, 72, 78, 84, 90, 96], "min_msl_hpa": 986.5, "main": true}}, {"type": "Feature", "geometry": {"type": "LineString", "coordinates": [[89.7, 9.42], [88.02, 10.14], [86.1, 10.98]]}, "properties": {"kind": "member_track", "member": 10, "track": 0, "hazard": "tropical_cyclone", "leads_h": [12, 24, 36], "min_msl_hpa": 996.5, "main": false}}, {"type": "Feature", "geometry": {"type": "LineString", "coordinates": [[89.1, 10.14], [86.82, 10.5], [85.26, 10.98], [83.7, 11.82], [81.54, 12.42], [80.94, 13.02], [80.46, 13.14], [80.58, 13.5], [80.34, 14.34], [80.34, 14.82], [79.74, 15.3], [79.14, 15.06], [79.74, 14.58]]}, "properties": {"kind": "member_track", "member": 10, "track": 1, "hazard": "tropical_cyclone", "leads_h": [18, 30, 42, 48, 60, 66, 72, 78, 84, 90, 96, 102, 108], "min_msl_hpa": 969.0, "main": true}}, {"type": "Feature", "geometry": {"type": "LineString", "coordinates": [[80.34, 14.94], [80.94, 15.78], [81.78, 15.66], [81.78, 15.9]]}, "properties": {"kind": "member_track", "member": 10, "track": 2, "hazard": "tropical_cyclone", "leads_h": [114, 120, 126, 132], "min_msl_hpa": 995.5, "main": false}}, {"type": "Feature", "geometry": {"type": "LineString", "coordinates": [[89.7, 9.18], [89.1, 9.78], [88.14, 10.14], [86.94, 10.5], [86.22, 10.86]]}, "properties": {"kind": "member_track", "member": 11, "track": 0, "hazard": "tropical_cyclone", "leads_h": [12, 18, 24, 30, 36], "min_msl_hpa": 996.9, "main": false}}, {"type": "Feature", "geometry": {"type": "LineString", "coordinates": [[85.26, 10.98], [83.46, 11.7], [82.26, 12.42], [81.54, 12.66], [81.18, 12.78], [80.82, 12.9], [81.18, 13.62], [80.34, 14.46], [80.34, 14.7], [79.98, 15.3], [79.86, 15.9], [79.86, 16.02], [80.22, 15.9], [80.94, 16.26]]}, "properties": {"kind": "member_track", "member": 11, "track": 1, "hazard": "tropical_cyclone", "leads_h": [42, 48, 54, 60, 66, 72, 78, 84, 90, 96, 102, 108, 114, 126], "min_msl_hpa": 982.5, "main": true}}, {"type": "Feature", "geometry": {"type": "LineString", "coordinates": [[89.58, 9.42], [88.98, 9.9], [88.14, 10.38], [86.94, 10.74], [85.98, 11.22], [85.26, 11.1]]}, "properties": {"kind": "member_track", "member": 12, "track": 0, "hazard": "tropical_cyclone", "leads_h": [12, 18, 24, 30, 36, 42], "min_msl_hpa": 997.9, "main": false}}, {"type": "Feature", "geometry": {"type": "LineString", "coordinates": [[83.58, 11.94], [82.62, 12.78], [82.02, 12.54], [81.18, 13.14], [80.58, 13.5], [80.82, 13.86], [80.46, 14.82], [80.46, 15.3], [79.74, 15.9], [79.38, 16.62]]}, "properties": {"kind": "member_track", "member": 12, "track": 1, "hazard": "tropical_cyclone", "leads_h": [48, 54, 60, 66, 72, 78, 84, 90, 102, 114], "min_msl_hpa": 989.4, "main": true}}, {"type": "Feature", "geometry": {"type": "LineString", "coordinates": [[79.74, 15.78], [79.74, 15.9]]}, "properties": {"kind": "member_track", "member": 12, "track": 2, "hazard": "tropical_cyclone", "leads_h": [96, 108], "min_msl_hpa": 989.0, "main": false}}, {"type": "Feature", "geometry": {"type": "LineString", "coordinates": [[89.1, 10.38], [88.02, 10.74], [87.18, 11.34], [86.34, 11.94], [85.26, 12.18], [82.74, 14.22], [81.78, 14.22]]}, "properties": {"kind": "member_track", "member": 13, "track": 0, "hazard": "tropical_cyclone", "leads_h": [18, 24, 30, 36, 42, 54, 60], "min_msl_hpa": 991.0, "main": false}}, {"type": "Feature", "geometry": {"type": "LineString", "coordinates": [[80.94, 14.7], [80.94, 14.82], [80.82, 15.3], [80.34, 15.66], [80.58, 16.14], [80.34, 16.98], [80.22, 17.22], [80.34, 17.1], [80.46, 18.3], [80.1, 19.14], [80.46, 19.14], [81.18, 18.9]]}, "properties": {"kind": "member_track", "member": 13, "track": 1, "hazard": "tropical_cyclone", "leads_h": [66, 72, 78, 84, 90, 96, 102, 108, 114, 120, 126, 132], "min_msl_hpa": 976.5, "main": true}}, {"type": "Feature", "geometry": {"type": "LineString", "coordinates": [[89.7, 9.3], [89.1, 10.14], [88.02, 10.38], [86.82, 10.74], [86.22, 11.22]]}, "properties": {"kind": "member_track", "member": 14, "track": 0, "hazard": "tropical_cyclone", "leads_h": [12, 18, 24, 30, 36], "min_msl_hpa": 998.0, "main": false}}, {"type": "Feature", "geometry": {"type": "LineString", "coordinates": [[85.38, 11.7], [83.58, 12.78], [82.26, 13.38], [81.78, 12.9], [80.94, 13.5], [80.46, 13.74], [79.98, 14.46], [79.38, 15.42]]}, "properties": {"kind": "member_track", "member": 14, "track": 1, "hazard": "tropical_cyclone", "leads_h": [42, 48, 54, 60, 66, 72, 78, 90], "min_msl_hpa": 988.5, "main": true}}, {"type": "Feature", "geometry": {"type": "LineString", "coordinates": [[79.26, 14.82], [79.26, 16.02], [78.9, 16.62], [79.26, 16.62]]}, "properties": {"kind": "member_track", "member": 14, "track": 2, "hazard": "tropical_cyclone", "leads_h": [84, 96, 102, 108], "min_msl_hpa": 985.5, "main": false}}, {"type": "Feature", "geometry": {"type": "LineString", "coordinates": [[89.94, 8.94], [89.46, 9.66], [87.42, 10.14], [86.46, 10.74], [85.74, 10.5], [84.06, 11.34], [82.98, 12.06], [82.02, 11.94], [82.02, 11.94], [81.54, 11.82], [81.66, 12.42], [81.42, 13.38], [81.3, 13.98], [81.42, 15.3], [81.54, 15.3], [81.9, 15.06], [83.22, 15.78], [83.58, 16.26], [83.58, 16.62]]}, "properties": {"kind": "member_track", "member": 15, "track": 0, "hazard": "tropical_cyclone", "leads_h": [12, 18, 30, 36, 42, 48, 54, 60, 66, 72, 78, 84, 90, 96, 102, 108, 120, 126, 132], "min_msl_hpa": 982.2, "main": true}}, {"type": "Feature", "geometry": {"type": "LineString", "coordinates": [[90.06, 9.06], [89.46, 9.54], [88.38, 9.78], [87.54, 9.9], [87.06, 10.38], [86.46, 10.62], [85.02, 10.98], [83.46, 11.82], [82.26, 12.3], [82.38, 12.9], [81.42, 12.9], [81.3, 13.5], [81.3, 14.22]]}, "properties": {"kind": "member_track", "member": 16, "track": 0, "hazard": "tropical_cyclone", "leads_h": [12, 18, 24, 30, 36, 42, 48, 60, 66, 78, 84, 90, 96], "min_msl_hpa": 981.8, "main": true}}, {"type": "Feature", "geometry": {"type": "LineString", "coordinates": [[89.46, 9.9], [88.86, 10.38], [87.78, 10.62], [86.7, 11.34], [85.74, 11.82], [84.78, 12.06], [83.1, 13.02], [82.02, 14.22], [81.06, 14.1], [80.46, 14.7], [79.74, 15.06], [79.38, 15.78], [79.5, 15.9], [79.26, 16.98], [79.14, 17.1], [79.14, 17.34]]}, "properties": {"kind": "member_track", "member": 17, "track": 0, "hazard": "tropical_cyclone", "leads_h": [12, 18, 24, 30, 36, 42, 48, 54, 60, 66, 78, 84, 90, 96, 102, 108], "min_msl_hpa": 979.1, "main": true}}, {"type": "Feature", "geometry": {"type": "LineString", "coordinates": [[89.7, 9.42], [88.98, 10.14], [88.14, 10.38], [87.18, 10.74], [86.22, 11.34], [85.5, 11.34], [83.82, 12.3], [82.74, 13.14], [81.9, 13.38], [81.3, 13.86], [80.7, 13.98], [80.94, 14.58], [80.34, 15.18], [80.46, 16.02], [79.98, 16.74], [79.5, 16.86], [79.98, 16.62]]}, "properties": {"kind": "member_track", "member": 18, "track": 0, "hazard": "tropical_cyclone", "leads_h": [12, 18, 24, 30, 36, 42, 48, 54, 60, 66, 72, 78, 84, 90, 96, 102, 108], "min_msl_hpa": 979.2, "main": true}}, {"type": "Feature", "geometry": {"type": "LineString", "coordinates": [[89.46, 9.42], [88.74, 10.26], [87.54, 10.5], [86.34, 10.62]]}, "properties": {"kind": "member_track", "member": 19, "track": 0, "hazard": "tropical_cyclone", "leads_h": [12, 18, 24, 30], "min_msl_hpa": 1000.1, "main": false}}, {"type": "Feature", "geometry": {"type": "LineString", "coordinates": [[85.62, 11.1], [84.78, 11.46], [82.98, 12.06], [81.18, 13.02], [80.1, 13.26], [79.74, 13.98], [78.9, 14.34], [78.9, 14.34], [78.42, 14.94], [78.9, 14.82]]}, "properties": {"kind": "member_track", "member": 19, "track": 1, "hazard": "tropical_cyclone", "leads_h": [36, 42, 48, 60, 72, 78, 84, 90, 96, 102], "min_msl_hpa": 987.1, "main": true}}, {"type": "Feature", "geometry": {"type": "LineString", "coordinates": [[89.82, 9.38], [89.205, 10.005], [87.97200000000001, 10.164], [87.21272727272726, 10.38], [86.28, 10.956], [85.5375, 11.040000000000003], [83.81294117647059, 11.876470588235296], [82.52, 12.839999999999998], [81.94235294117647, 12.582352941176469], [81.42666666666668, 13.093333333333334], [80.74235294117646, 13.309411764705882], [80.94000000000001, 13.803157894736845], [80.37157894736843, 14.422105263157894], [80.33368421052633, 14.88315789473684], [80.04, 15.6675], [80.01529411764707, 15.787058823529412], [80.45, 15.85], [80.28666666666668, 16.28666666666667], [80.78999999999999, 16.8], [81.65999999999998, 17.220000000000002], [81.66000000000001, 17.060000000000002]]}, "properties": {"kind": "consensus", "hazard": "tropical_cyclone", "leads_h": [12, 18, 24, 30, 36, 42, 48, 54, 60, 66, 72, 78, 84, 90, 96, 102, 108, 114, 120, 126, 132], "spread_km": [34.2, 36.8, 40.1, 67.1, 68.9, 81.8, 86.2, 75.9, 94.5, 114.4, 108.1, 137.5, 136.5, 144.9, 164.9, 162.2, 191.6, 154.7, 207.7, 203.5, 213.2], "member_count": [6, 8, 5, 11, 10, 16, 17, 12, 17, 18, 17, 19, 19, 19, 16, 17, 12, 9, 4, 3, 3], "n_members": 20}}, {"type": "Feature", "geometry": {"type": "Polygon", "coordinates": [[[76.67999999999999, 9.36], [88.44, 9.36], [88.44, 18.599999999999998], [76.67999999999999, 18.599999999999998], [76.67999999999999, 9.36]]]}, "properties": {"kind": "bbox4d", "lat_min": 9.36, "lat_max": 18.599999999999998, "lon_min": 76.67999999999999, "lon_max": 88.44, "level_hPa_bottom": 1013, "level_hPa_top": 850, "t_start": "2020-05-14 06:00:00", "t_end": "2020-05-17 12:00:00", "lead_start_h": 30, "lead_end_h": 108, "member_count_min": 10, "n_members": 20, "hazard": "tropical_cyclone", "source": "GNN consensus"}}]}