{"type": "FeatureCollection", "features": [{"type": "Feature", "geometry": {"type": "LineString", "coordinates": [[77.7, 28.62], [77.7, 28.62], [77.7, 28.62], [77.7, 28.62], [75.66, 29.1], [75.66, 29.1], [75.66, 29.1], [75.66, 29.1], [76.26, 28.38], [76.26, 28.38], [76.26, 28.38], [76.38, 28.26], [76.5, 26.34], [76.5, 26.34], [76.5, 26.46], [76.5, 26.46], [78.18, 25.62], [78.18, 25.62], [78.06, 25.62], [78.18, 25.62], [76.14, 24.54], [76.14, 24.54], [76.14, 24.54]]}, "properties": {"kind": "member_track", "member": 0, "track": 0, "hazard": "cold_wave", "leads_h": [60, 66, 72, 78, 84, 90, 96, 102, 108, 114, 120, 126, 132, 138, 144, 150, 156, 162, 168, 174, 180, 186, 192], "max_event_prob": 1.0, "main": true}}, {"type": "Feature", "geometry": {"type": "LineString", "coordinates": [[90.42, 26.82], [90.42, 26.82], [90.42, 26.82], [90.42, 26.82]]}, "properties": {"kind": "member_track", "member": 0, "track": 1, "hazard": "cold_wave", "leads_h": [180, 186, 192, 198], "max_event_prob": 0.999, "main": false}}, {"type": "Feature", "geometry": {"type": "LineString", "coordinates": [[75.78, 31.38], [75.78, 31.38], [75.78, 31.38], [78.42, 29.34], [78.42, 29.34], [78.42, 29.46], [78.42, 29.46], [78.3, 29.58], [78.3, 29.58], [78.3, 29.58], [78.3, 29.58], [76.74, 27.78], [76.74, 27.78], [76.86, 27.78], [76.86, 27.78], [75.66, 27.66], [75.66, 27.66], [75.78, 27.78], [75.78, 27.78], [75.06, 25.86], [75.06, 25.86], [75.06, 25.86], [75.06, 25.86]]}, "properties": {"kind": "member_track", "member": 1, "track": 0, "hazard": "cold_wave", "leads_h": [66, 72, 78, 84, 90, 96, 102, 108, 114, 120, 126, 132, 138, 144, 150, 156, 162, 168, 174, 180, 186, 192, 198], "max_event_prob": 1.0, "main": true}}, {"type": "Feature", "geometry": {"type": "LineString", "coordinates": [[78.54, 29.34], [79.5, 26.7], [79.5, 26.7], [79.5, 26.7], [79.5, 26.7], [80.46, 26.58], [80.46, 26.58], [80.46, 26.58], [80.46, 26.58], [82.14, 26.58], [82.14, 26.58], [82.14, 26.58], [82.26, 26.58], [82.26, 26.34], [82.26, 26.34], [82.14, 26.34], [82.14, 26.34], [83.46, 25.74], [83.46, 25.74], [83.46, 25.74], [83.7, 25.74], [77.46, 25.74], [77.46, 25.74], [77.22, 25.86]]}, "properties": {"kind": "member_track", "member": 2, "track": 0, "hazard": "cold_wave", "leads_h": [54, 60, 66, 72, 78, 84, 90, 96, 102, 108, 114, 120, 126, 132, 138, 144, 150, 156, 162, 168, 174, 186, 192, 198], "max_event_prob": 1.0, "main": true}}, {"type": "Feature", "geometry": {"type": "LineString", "coordinates": [[73.74, 30.9], [73.74, 30.9], [73.74, 30.9]]}, "properties": {"kind": "member_track", "member": 2, "track": 1, "hazard": "cold_wave", "leads_h": [66, 72, 78], "max_event_prob": 0.993, "main": false}}, {"type": "Feature", "geometry": {"type": "LineString", "coordinates": [[95.82, 24.18], [95.82, 24.18], [95.82, 24.18], [95.7, 24.18], [95.7, 24.18], [95.7, 24.18], [95.7, 24.18]]}, "properties": {"kind": "member_track", "member": 2, "track": 2, "hazard": "cold_wave", "leads_h": [162, 168, 174, 180, 186, 192, 198], "max_event_prob": 1.0, "main": false}}, {"type": "Feature", "geometry": {"type": "LineString", "coordinates": [[77.34, 28.5], [77.34, 28.5], [77.34, 28.5], [77.82, 29.1], [77.82, 29.1], [77.82, 29.1], [77.82, 29.1], [76.38, 28.38], [76.38, 28.38], [76.38, 28.38], [76.98, 28.02], [77.94, 27.18], [77.94, 27.18], [77.94, 27.18], [77.7, 27.3], [78.06, 27.42], [78.06, 27.42], [78.06, 27.42], [78.18, 27.42], [79.98, 27.3], [79.98, 27.3], [79.98, 27.3], [79.86, 27.3]]}, "properties": {"kind": "member_track", "member": 3, "track": 0, "hazard": "cold_wave", "leads_h": [66, 72, 78, 84, 90, 96, 102, 108, 114, 120, 126, 132, 138, 144, 150, 156, 162, 168, 174, 180, 186, 192, 198], "max_event_prob": 1.0, "main": true}}, {"type": "Feature", "geometry": {"type": "LineString", "coordinates": [[80.7, 27.54], [80.7, 27.3], [80.7, 27.3], [83.82, 26.7], [83.7, 26.7]]}, "properties": {"kind": "member_track", "member": 4, "track": 0, "hazard": "cold_wave", "leads_h": [66, 72, 78, 90, 96], "max_event_prob": 0.993, "main": true}}, {"type": "Feature", "geometry": {"type": "LineString", "coordinates": [[75.42, 31.74], [75.42, 31.74]]}, "properties": {"kind": "member_track", "member": 4, "track": 1, "hazard": "cold_wave", "leads_h": [72, 78], "max_event_prob": 0.983, "main": false}}, {"type": "Feature", "geometry": {"type": "LineString", "coordinates": [[76.98, 28.38], [76.98, 28.5], [76.98, 28.5], [76.98, 28.74], [76.98, 28.74], [76.98, 28.86], [76.98, 28.86], [74.1, 29.1], [74.1, 29.1], [73.98, 29.1], [74.58, 28.86], [74.22, 27.66], [74.22, 27.66], [74.22, 27.66], [74.22, 27.66], [75.18, 27.66], [75.18, 27.66], [75.18, 27.66], [75.3, 27.66], [79.38, 27.78], [79.38, 27.78], [77.1, 28.02], [77.1, 28.02]]}, "properties": {"kind": "member_track", "member": 5, "track": 0, "hazard": "cold_wave", "leads_h": [66, 72, 78, 84, 90, 96, 102, 108, 114, 120, 126, 132, 138, 144, 150, 156, 162, 168, 174, 180, 186, 192, 198], "max_event_prob": 1.0, "main": true}}, {"type": "Feature", "geometry": {"type": "LineString", "coordinates": [[91.26, 26.7], [91.38, 26.7]]}, "properties": {"kind": "member_track", "member": 5, "track": 1, "hazard": "cold_wave", "leads_h": [192, 198], "max_event_prob": 0.976, "main": false}}, {"type": "Feature", "geometry": {"type": "LineString", "coordinates": [[76.14, 25.86], [76.14, 25.86]]}, "properties": {"kind": "member_track", "member": 5, "track": 2, "hazard": "cold_wave", "leads_h": [234, 240], "max_event_prob": 0.79, "main": false}}, {"type": "Feature", "geometry": {"type": "LineString", "coordinates": [[80.7, 27.06], [80.7, 27.06], [80.7, 27.06], [82.5, 27.06], [82.5, 27.06], [82.5, 27.18], [82.5, 27.18], [83.1, 27.18], [83.1, 27.18], [83.1, 27.18], [84.42, 26.82], [82.98, 26.1], [82.98, 26.1], [82.98, 26.22], [82.98, 26.22], [80.94, 26.34], [80.94, 26.34], [80.94, 26.34], [81.18, 26.34], [83.94, 25.62], [83.94, 25.62], [83.94, 25.62]]}, "properties": {"kind": "member_track", "member": 8, "track": 0, "hazard": "cold_wave", "leads_h": [66, 72, 78, 84, 90, 96, 102, 108, 114, 120, 126, 132, 138, 144, 150, 156, 162, 168, 174, 180, 186, 192], "max_event_prob": 1.0, "main": true}}, {"type": "Feature", "geometry": {"type": "LineString", "coordinates": [[78.78, 27.54], [78.78, 27.54], [78.78, 27.54], [79.02, 27.54], [79.98, 26.94], [79.98, 26.94], [79.98, 26.94], [79.98, 26.94], [78.18, 26.94], [78.18, 26.94], [78.18, 27.06], [78.18, 27.06], [76.38, 26.94], [76.38, 26.94], [76.38, 26.94], [76.38, 26.94], [75.9, 25.74], [75.9, 25.74], [75.9, 25.74], [75.9, 25.74], [78.3, 25.62], [78.3, 25.62], [78.18, 25.62], [78.42, 25.5]]}, "properties": {"kind": "member_track", "member": 9, "track": 0, "hazard": "cold_wave", "leads_h": [60, 66, 72, 78, 84, 90, 96, 102, 108, 114, 120, 126, 132, 138, 144, 150, 156, 162, 168, 174, 180, 186, 192, 198], "max_event_prob": 1.0, "main": true}}, {"type": "Feature", "geometry": {"type": "LineString", "coordinates": [[72.06, 29.94], [72.06, 29.94]]}, "properties": {"kind": "member_track", "member": 9, "track": 1, "hazard": "cold_wave", "leads_h": [72, 78], "max_event_prob": 0.985, "main": false}}, {"type": "Feature", "geometry": {"type": "LineString", "coordinates": [[78.54, 29.34], [78.18, 27.78], [78.18, 27.78], [78.18, 27.78], [81.18, 27.3], [81.18, 27.3], [81.18, 27.3], [81.18, 27.3], [80.7, 27.78], [80.7, 27.78], [80.58, 27.78], [79.86, 27.66], [78.3, 26.94], [78.3, 26.94], [78.42, 26.94], [78.42, 26.94], [78.78, 27.42], [78.78, 27.42], [78.78, 27.42], [78.78, 27.42], [80.1, 26.34], [80.1, 26.34], [80.1, 26.34], [80.1, 26.34]]}, "properties": {"kind": "member_track", "member": 10, "track": 0, "hazard": "cold_wave", "leads_h": [54, 66, 72, 78, 84, 90, 96, 102, 108, 114, 120, 126, 132, 138, 144, 150, 156, 162, 168, 174, 180, 186, 192, 198], "max_event_prob": 1.0, "main": true}}, {"type": "Feature", "geometry": {"type": "LineString", "coordinates": [[77.22, 26.58], [77.22, 26.58], [77.22, 26.58]]}, "properties": {"kind": "member_track", "member": 10, "track": 1, "hazard": "cold_wave", "leads_h": [90, 96, 102], "max_event_prob": 0.963, "main": false}}, {"type": "Feature", "geometry": {"type": "LineString", "coordinates": [[88.38, 25.98], [88.38, 25.98], [88.38, 25.98], [88.38, 25.98]]}, "properties": {"kind": "member_track", "member": 10, "track": 2, "hazard": "cold_wave", "leads_h": [180, 186, 192, 198], "max_event_prob": 0.911, "main": false}}, {"type": "Feature", "geometry": {"type": "LineString", "coordinates": [[81.78, 26.7], [81.78, 26.7], [82.14, 26.7], [83.94, 26.34], [83.94, 26.34], [83.94, 26.34], [83.94, 26.34], [84.78, 26.22], [84.78, 26.22], [84.78, 26.34], [84.78, 26.34], [85.74, 25.86], [85.74, 25.86], [85.14, 26.22], [84.42, 26.22]]}, "properties": {"kind": "member_track", "member": 11, "track": 0, "hazard": "cold_wave", "leads_h": [66, 72, 78, 84, 90, 96, 102, 108, 114, 120, 126, 132, 138, 144, 150], "max_event_prob": 1.0, "main": true}}, {"type": "Feature", "geometry": {"type": "LineString", "coordinates": [[94.14, 25.02], [94.14, 25.02], [94.14, 25.02], [94.14, 25.02], [94.26, 24.42], [94.26, 24.42], [94.26, 24.42], [94.38, 24.3]]}, "properties": {"kind": "member_track", "member": 11, "track": 1, "hazard": "cold_wave", "leads_h": [156, 162, 168, 174, 180, 186, 192, 198], "max_event_prob": 0.999, "main": false}}, {"type": "Feature", "geometry": {"type": "LineString", "coordinates": [[77.7, 27.78], [77.82, 27.9], [77.82, 27.9], [80.7, 27.42], [80.7, 27.42], [80.58, 27.42], [80.58, 27.42], [78.06, 28.26], [78.06, 28.26], [78.06, 28.26], [78.06, 28.26], [78.18, 27.18], [78.18, 27.18], [77.94, 27.18], [77.94, 27.18], [75.42, 27.06], [75.42, 27.06], [75.42, 27.06], [75.42, 27.06], [76.62, 27.9], [76.62, 27.9]]}, "properties": {"kind": "member_track", "member": 12, "track": 0, "hazard": "cold_wave", "leads_h": [66, 72, 78, 84, 90, 96, 102, 108, 114, 120, 126, 132, 138, 144, 150, 156, 162, 168, 174, 180, 186], "max_event_prob": 1.0, "main": true}}, {"type": "Feature", "geometry": {"type": "LineString", "coordinates": [[78.66, 28.26], [78.66, 28.26], [78.54, 28.26], [78.54, 28.26], [80.1, 28.26], [80.1, 28.26], [80.1, 28.26], [79.98, 28.38]]}, "properties": {"kind": "member_track", "member": 13, "track": 0, "hazard": "cold_wave", "leads_h": [60, 66, 72, 78, 84, 90, 96, 102], "max_event_prob": 1.0, "main": false}}, {"type": "Feature", "geometry": {"type": "LineString", "coordinates": [[72.18, 28.86], [72.18, 28.86], [72.18, 28.86], [72.18, 28.86], [73.38, 26.82], [73.38, 26.82], [73.26, 26.82], [73.26, 26.82], [74.1, 26.94], [74.1, 26.94], [74.1, 26.94], [74.1, 26.94]]}, "properties": {"kind": "member_track", "member": 13, "track": 1, "hazard": "cold_wave", "leads_h": [108, 114, 120, 126, 132, 138, 144, 150, 156, 162, 168, 174], "max_event_prob": 1.0, "main": true}}, {"type": "Feature", "geometry": {"type": "LineString", "coordinates": [[91.98, 26.82], [91.98, 26.82], [91.98, 26.82], [91.98, 26.82]]}, "properties": {"kind": "member_track", "member": 13, "track": 2, "hazard": "cold_wave", "leads_h": [180, 186, 192, 198], "max_event_prob": 0.99, "main": false}}, {"type": "Feature", "geometry": {"type": "LineString", "coordinates": [[77.94, 27.42], [77.94, 27.42], [77.94, 27.54], [77.94, 27.54], [78.54, 27.54], [78.54, 27.54], [78.54, 27.54], [78.54, 27.54], [77.58, 27.18], [77.58, 27.18], [77.58, 27.18], [77.58, 27.18], [77.22, 26.58], [77.22, 26.58], [76.86, 26.7], [76.86, 26.7], [76.14, 25.5], [76.14, 25.5], [76.26, 25.5], [76.5, 25.5]]}, "properties": {"kind": "member_track", "member": 14, "track": 0, "hazard": "cold_wave", "leads_h": [60, 66, 72, 78, 84, 90, 96, 102, 108, 114, 120, 126, 132, 138, 144, 150, 156, 162, 168, 174], "max_event_prob": 1.0, "main": true}}, {"type": "Feature", "geometry": {"type": "LineString", "coordinates": [[84.3, 25.02], [84.18, 24.9]]}, "properties": {"kind": "member_track", "member": 14, "track": 1, "hazard": "cold_wave", "leads_h": [144, 150], "max_event_prob": 0.996, "main": false}}, {"type": "Feature", "geometry": {"type": "LineString", "coordinates": [[87.06, 24.78], [87.06, 24.78], [86.94, 24.78], [87.06, 24.78]]}, "properties": {"kind": "member_track", "member": 14, "track": 2, "hazard": "cold_wave", "leads_h": [180, 186, 192, 198], "max_event_prob": 0.999, "main": false}}, {"type": "Feature", "geometry": {"type": "LineString", "coordinates": [[79.38, 27.9], [79.38, 27.9], [79.5, 27.9], [80.94, 27.9], [80.94, 27.9], [80.7, 27.9], [80.7, 27.9], [77.82, 28.5], [77.82, 28.5], [77.82, 28.5], [77.94, 28.5], [77.82, 27.66], [77.82, 27.66], [77.7, 27.66], [79.5, 27.54]]}, "properties": {"kind": "member_track", "member": 15, "track": 0, "hazard": "cold_wave", "leads_h": [66, 72, 78, 84, 90, 96, 102, 108, 114, 120, 126, 132, 138, 144, 150], "max_event_prob": 1.0, "main": true}}, {"type": "Feature", "geometry": {"type": "LineString", "coordinates": [[84.18, 26.58], [84.18, 26.58], [84.18, 26.58], [84.3, 26.58], [84.9, 26.7], [84.9, 26.7], [84.9, 26.7], [84.9, 26.7]]}, "properties": {"kind": "member_track", "member": 15, "track": 1, "hazard": "cold_wave", "leads_h": [156, 162, 168, 174, 180, 186, 192, 198], "max_event_prob": 1.0, "main": false}}, {"type": "Feature", "geometry": {"type": "LineString", "coordinates": [[81.06, 26.94], [81.06, 26.94], [80.94, 26.94], [81.06, 26.94], [80.82, 27.18], [80.82, 27.18], [80.7, 27.18], [80.82, 27.18], [80.34, 27.54], [80.34, 27.54], [80.22, 27.66], [80.7, 27.42], [81.78, 26.7], [81.78, 26.7], [81.78, 26.82], [81.9, 26.7], [83.7, 26.22], [83.7, 26.22], [83.7, 26.22], [83.7, 26.22], [84.66, 26.22], [84.66, 26.22], [84.66, 26.22], [84.66, 26.1], [88.26, 25.74], [88.26, 25.74]]}, "properties": {"kind": "member_track", "member": 16, "track": 0, "hazard": "cold_wave", "leads_h": [60, 66, 72, 78, 84, 90, 96, 102, 108, 114, 120, 126, 132, 138, 144, 150, 156, 162, 168, 174, 180, 186, 192, 198, 204, 210], "max_event_prob": 1.0, "main": true}}, {"type": "Feature", "geometry": {"type": "LineString", "coordinates": [[77.82, 27.18], [77.82, 27.18], [77.82, 27.18], [77.82, 27.18], [78.06, 27.3], [78.06, 27.3], [78.06, 27.3], [78.06, 27.3], [76.26, 26.7], [76.26, 26.7], [76.26, 26.7], [76.26, 26.7], [74.94, 25.38], [74.94, 25.38], [74.94, 25.38], [75.06, 25.38], [75.54, 24.78], [75.54, 24.78], [75.54, 24.78], [75.42, 24.78], [76.74, 25.14], [76.74, 25.14], [76.74, 25.14], [76.74, 25.14]]}, "properties": {"kind": "member_track", "member": 17, "track": 0, "hazard": "cold_wave", "leads_h": [60, 66, 72, 78, 84, 90, 96, 102, 108, 114, 120, 126, 132, 138, 144, 150, 156, 162, 168, 174, 180, 186, 192, 198], "max_event_prob": 1.0, "main": true}}, {"type": "Feature", "geometry": {"type": "LineString", "coordinates": [[79.74, 27.54], [79.74, 27.54], [79.74, 27.54], [79.74, 27.54], [82.5, 27.06], [82.5, 27.06], [82.5, 27.06], [82.26, 27.18], [82.98, 26.82], [82.98, 26.82], [82.98, 26.82], [82.98, 26.82], [82.38, 26.1], [82.38, 26.1], [79.62, 26.82], [79.62, 26.82], [79.02, 26.58], [79.02, 26.58], [79.02, 26.58], [79.02, 26.58], [78.18, 26.82], [78.18, 26.82], [78.18, 26.82]]}, "properties": {"kind": "member_track", "member": 18, "track": 0, "hazard": "cold_wave", "leads_h": [60, 66, 72, 78, 84, 90, 96, 102, 108, 114, 120, 126, 132, 138, 144, 150, 156, 162, 168, 174, 180, 186, 192], "max_event_prob": 0.999, "main": true}}, {"type": "Feature", "geometry": {"type": "LineString", "coordinates": [[75.78, 31.26], [75.78, 31.26], [75.78, 31.26]]}, "properties": {"kind": "member_track", "member": 18, "track": 1, "hazard": "cold_wave", "leads_h": [66, 72, 78], "max_event_prob": 0.991, "main": false}}, {"type": "Feature", "geometry": {"type": "LineString", "coordinates": [[78.78, 24.54], [78.78, 24.54], [78.78, 24.66], [78.78, 24.66], [78.78, 24.66], [78.78, 24.66]]}, "properties": {"kind": "member_track", "member": 18, "track": 2, "hazard": "cold_wave", "leads_h": [144, 150, 156, 162, 168, 174], "max_event_prob": 0.794, "main": false}}, {"type": "Feature", "geometry": {"type": "LineString", "coordinates": [[84.42, 25.5], [84.42, 25.38], [84.42, 25.38]]}, "properties": {"kind": "member_track", "member": 18, "track": 3, "hazard": "cold_wave", "leads_h": [162, 168, 174], "max_event_prob": 0.928, "main": false}}, {"type": "Feature", "geometry": {"type": "LineString", "coordinates": [[78.54, 27.78], [78.54, 27.78], [78.66, 27.78], [78.66, 27.78], [81.06, 27.18], [81.06, 27.18], [81.18, 27.18], [81.18, 27.18], [77.7, 27.54], [77.7, 27.54], [77.7, 27.66], [77.7, 27.54], [80.22, 26.34], [80.22, 26.34], [80.1, 26.46], [81.78, 26.34], [87.18, 25.38], [87.18, 25.38], [87.3, 25.38], [86.1, 25.02], [86.1, 25.02], [86.1, 25.02], [86.46, 25.14]]}, "properties": {"kind": "member_track", "member": 19, "track": 0, "hazard": "cold_wave", "leads_h": [60, 66, 72, 78, 84, 90, 96, 102, 108, 114, 120, 126, 132, 138, 144, 150, 162, 168, 174, 180, 186, 192, 198], "max_event_prob": 1.0, "main": true}}, {"type": "Feature", "geometry": {"type": "LineString", "coordinates": [[71.34, 29.94], [71.34, 29.94]]}, "properties": {"kind": "member_track", "member": 19, "track": 1, "hazard": "cold_wave", "leads_h": [96, 102], "max_event_prob": 0.995, "main": false}}, {"type": "Feature", "geometry": {"type": "LineString", "coordinates": [[75.66, 29.82], [75.66, 29.82]]}, "properties": {"kind": "member_track", "member": 19, "track": 2, "hazard": "cold_wave", "leads_h": [96, 102], "max_event_prob": 0.858, "main": false}}, {"type": "Feature", "geometry": {"type": "LineString", "coordinates": [[78.54, 29.34], [78.88499999999999, 27.465], [78.80117647058825, 27.808235294117647], [78.80823529411765, 27.81529411764706], [78.85764705882355, 27.81529411764706], [79.9725, 27.630000000000003], [80.19882352941175, 27.57529411764706], [80.17058823529412, 27.596470588235295], [79.94250000000001, 27.660000000000004], [78.63882352941177, 27.73764705882353], [78.63882352941177, 27.73764705882353], [78.61764705882354, 27.76588235294118], [78.7729411764706, 27.674117647058825], [78.64588235294119, 26.7], [78.64588235294119, 26.7], [78.39882352941177, 26.79882352941176], [78.56117647058822, 26.784705882352938], [77.86285714285714, 26.47714285714286], [78.484, 26.404], [78.492, 26.412], [78.56400000000001, 26.412], [79.6, 26.179999999999996], [79.4353846153846, 26.146153846153844], [79.47, 26.02], [79.51333333333334, 26.14], [88.26, 25.74], [88.26, 25.74]]}, "properties": {"kind": "consensus", "hazard": "cold_wave", "leads_h": [54, 60, 66, 72, 78, 84, 90, 96, 102, 108, 114, 120, 126, 132, 138, 144, 150, 156, 162, 168, 174, 180, 186, 192, 198, 204, 210], "spread_km": [0.0, 106.4, 157.6, 156.1, 160.1, 204.2, 210.2, 209.2, 202.8, 284.3, 284.3, 281.9, 283.5, 287.1, 287.1, 261.5, 271.8, 272.2, 321.4, 320.8, 323.6, 315.1, 305.4, 315.9, 315.5, 0.0, 0.0], "member_count": [2, 8, 17, 17, 17, 16, 17, 17, 16, 17, 17, 17, 17, 17, 17, 17, 17, 14, 15, 15, 15, 12, 13, 12, 9, 1, 1], "n_members": 20}}, {"type": "Feature", "geometry": {"type": "Polygon", "coordinates": [[[67.08, 18.48], [97.68, 18.48], [97.68, 34.56], [67.08, 34.56], [67.08, 18.48]]]}, "properties": {"kind": "bbox4d", "lat_min": 18.48, "lat_max": 34.56, "lon_min": 67.08, "lon_max": 97.68, "level_hPa_bottom": 1013, "level_hPa_top": 1013, "t_start": "2022-12-28 18:00:00", "t_end": "2023-01-03 00:00:00", "lead_start_h": 66, "lead_end_h": 192, "member_count_min": 12, "n_members": 20, "hazard": "cold_wave", "source": "GNN consensus"}}]}