{"type": "FeatureCollection", "features": [{"type": "Feature", "geometry": {"type": "LineString", "coordinates": [[74.58, 27.3], [74.58, 27.3], [74.58, 27.3]]}, "properties": {"kind": "member_track", "member": 0, "track": 0, "hazard": "cold_wave", "leads_h": [66, 72, 78], "max_event_prob": 1.0, "main": true}}, {"type": "Feature", "geometry": {"type": "LineString", "coordinates": [[75.18, 29.34], [74.22, 28.38], [74.22, 28.38], [74.22, 28.5], [74.22, 28.5], [75.54, 28.14], [75.54, 28.14], [75.54, 28.14], [75.78, 28.02], [77.34, 27.78], [77.34, 27.78], [77.34, 27.78], [77.34, 27.78], [78.9, 26.34], [78.9, 26.34], [78.9, 26.34], [78.9, 26.34], [78.3, 25.74], [78.3, 25.74], [78.3, 25.74], [78.3, 25.74]]}, "properties": {"kind": "member_track", "member": 1, "track": 0, "hazard": "cold_wave", "leads_h": [54, 60, 66, 72, 78, 84, 90, 96, 102, 108, 114, 120, 126, 132, 138, 144, 150, 156, 162, 168, 174], "max_event_prob": 1.0, "main": true}}, {"type": "Feature", "geometry": {"type": "LineString", "coordinates": [[73.98, 28.26], [73.98, 28.26], [73.98, 28.26], [75.06, 28.38], [75.06, 28.38], [75.06, 28.38], [75.18, 28.38], [78.9, 27.06], [78.9, 27.06], [78.9, 27.06], [78.9, 27.06], [77.7, 27.3], [77.7, 27.3], [77.7, 27.3], [77.7, 27.3], [79.38, 26.7], [79.38, 26.7], [79.38, 26.7], [79.38, 26.7]]}, "properties": {"kind": "member_track", "member": 2, "track": 0, "hazard": "cold_wave", "leads_h": [66, 72, 78, 84, 90, 96, 102, 108, 114, 120, 126, 132, 138, 144, 150, 156, 162, 168, 174], "max_event_prob": 1.0, "main": true}}, {"type": "Feature", "geometry": {"type": "LineString", "coordinates": [[74.22, 27.54], [74.22, 27.42], [75.18, 27.18], [76.5, 26.46], [76.5, 26.46], [76.5, 26.46], [76.5, 26.46], [77.7, 26.22], [77.7, 26.22], [77.58, 26.22], [77.7, 26.22], [79.02, 25.74], [79.02, 25.74], [79.02, 25.74], [79.02, 25.74], [79.62, 25.74], [79.62, 25.74], [79.62, 25.74], [79.62, 25.74]]}, "properties": {"kind": "member_track", "member": 3, "track": 0, "hazard": "cold_wave", "leads_h": [66, 72, 78, 84, 90, 96, 102, 108, 114, 120, 126, 132, 138, 144, 150, 156, 162, 168, 174], "max_event_prob": 1.0, "main": true}}, {"type": "Feature", "geometry": {"type": "LineString", "coordinates": [[74.1, 27.54], [74.1, 27.54], [74.1, 27.54], [74.34, 27.42], [74.34, 27.42], [74.34, 27.42], [74.34, 27.42], [74.82, 26.94], [74.82, 26.94], [74.82, 26.94], [74.82, 26.94], [75.3, 26.82], [75.3, 26.82], [75.3, 26.82], [75.3, 26.82], [75.9, 27.18], [75.9, 27.18], [75.9, 27.06], [75.9, 27.06]]}, "properties": {"kind": "member_track", "member": 4, "track": 0, "hazard": "cold_wave", "leads_h": [66, 72, 78, 84, 90, 96, 102, 108, 114, 120, 126, 132, 138, 144, 150, 156, 162, 168, 174], "max_event_prob": 1.0, "main": true}}, {"type": "Feature", "geometry": {"type": "LineString", "coordinates": [[73.5, 28.74], [73.5, 28.74], [73.5, 28.74], [75.42, 27.42], [75.42, 27.42], [75.42, 27.42], [75.42, 27.42], [77.34, 26.34], [77.34, 26.34], [77.34, 26.34], [77.34, 26.34], [79.98, 24.66], [79.98, 24.66], [79.98, 24.66], [79.98, 24.66], [80.58, 23.94]]}, "properties": {"kind": "member_track", "member": 5, "track": 0, "hazard": "cold_wave", "leads_h": [66, 72, 78, 84, 90, 96, 102, 108, 114, 120, 126, 132, 138, 144, 150, 156], "max_event_prob": 1.0, "main": true}}, {"type": "Feature", "geometry": {"type": "LineString", "coordinates": [[74.7, 28.14], [74.7, 28.26], [74.7, 28.26]]}, "properties": {"kind": "member_track", "member": 6, "track": 0, "hazard": "cold_wave", "leads_h": [66, 72, 78], "max_event_prob": 1.0, "main": true}}, {"type": "Feature", "geometry": {"type": "LineString", "coordinates": [[73.5, 28.62], [73.5, 28.62]]}, "properties": {"kind": "member_track", "member": 6, "track": 1, "hazard": "cold_wave", "leads_h": [138, 144], "max_event_prob": 0.992, "main": false}}, {"type": "Feature", "geometry": {"type": "LineString", "coordinates": [[74.1, 27.9], [74.1, 27.9], [74.1, 27.9], [74.82, 27.42], [74.82, 27.42], [74.82, 27.42], [74.82, 27.42], [76.5, 26.46], [76.5, 26.46], [76.5, 26.46], [76.5, 26.34], [80.1, 25.26], [80.1, 25.26], [80.1, 25.26], [80.1, 25.26], [80.22, 24.3], [80.22, 24.3], [80.22, 24.3]]}, "properties": {"kind": "member_track", "member": 7, "track": 0, "hazard": "cold_wave", "leads_h": [66, 72, 78, 84, 90, 96, 102, 108, 114, 120, 126, 132, 138, 144, 150, 156, 162, 168], "max_event_prob": 1.0, "main": true}}, {"type": "Feature", "geometry": {"type": "LineString", "coordinates": [[73.38, 29.22], [73.38, 29.22], [73.38, 29.22], [73.14, 28.86], [73.14, 28.86], [73.14, 28.86], [73.14, 28.86], [73.26, 29.1], [73.26, 29.1], [73.26, 29.1], [73.26, 29.1], [76.14, 27.06], [76.14, 27.06], [76.26, 27.06], [76.26, 27.06]]}, "properties": {"kind": "member_track", "member": 8, "track": 0, "hazard": "cold_wave", "leads_h": [66, 72, 78, 84, 90, 96, 102, 108, 114, 120, 126, 132, 138, 144, 150], "max_event_prob": 1.0, "main": true}}, {"type": "Feature", "geometry": {"type": "LineString", "coordinates": [[73.74, 28.14], [73.74, 28.14], [73.74, 28.14], [74.82, 28.02], [74.82, 28.02], [74.82, 28.02], [74.82, 28.02], [76.5, 27.06], [76.5, 27.06], [76.38, 27.06], [76.38, 27.06], [78.66, 26.1], [78.66, 26.1], [78.66, 26.1], [78.78, 26.1], [79.86, 25.14], [79.86, 25.14], [79.86, 25.14], [79.86, 25.14]]}, "properties": {"kind": "member_track", "member": 9, "track": 0, "hazard": "cold_wave", "leads_h": [66, 72, 78, 84, 90, 96, 102, 108, 114, 120, 126, 132, 138, 144, 150, 156, 162, 168, 174], "max_event_prob": 1.0, "main": true}}, {"type": "Feature", "geometry": {"type": "LineString", "coordinates": [[73.86, 28.62], [73.86, 28.62], [73.86, 28.62], [73.74, 28.14], [73.74, 28.14], [73.74, 28.14], [73.74, 28.14], [74.46, 28.14], [74.46, 28.14], [74.46, 28.14], [74.46, 28.14], [75.78, 27.42], [75.78, 27.42], [76.14, 27.3], [76.14, 27.3], [78.54, 25.86], [78.54, 25.86], [78.54, 25.86], [78.54, 25.86]]}, "properties": {"kind": "member_track", "member": 10, "track": 0, "hazard": "cold_wave", "leads_h": [66, 72, 78, 84, 90, 96, 102, 108, 114, 120, 126, 132, 138, 144, 150, 156, 162, 168, 174], "max_event_prob": 1.0, "main": true}}, {"type": "Feature", "geometry": {"type": "LineString", "coordinates": [[75.06, 28.38], [75.06, 28.38], [75.06, 28.38], [75.54, 27.42], [75.54, 27.42], [75.54, 27.42], [75.78, 27.3], [79.14, 27.06], [79.14, 27.06], [79.14, 27.06], [79.02, 27.06], [78.3, 26.7], [78.3, 26.7], [78.3, 26.7], [78.3, 26.7], [79.26, 25.98], [79.26, 25.98], [79.26, 25.98], [79.26, 25.98]]}, "properties": {"kind": "member_track", "member": 11, "track": 0, "hazard": "cold_wave", "leads_h": [66, 72, 78, 84, 90, 96, 102, 108, 114, 120, 126, 132, 138, 144, 150, 156, 162, 168, 174], "max_event_prob": 1.0, "main": true}}, {"type": "Feature", "geometry": {"type": "LineString", "coordinates": [[73.98, 28.26], [73.98, 28.26], [73.98, 28.26], [74.34, 28.26], [74.34, 28.26], [74.34, 28.26], [74.34, 28.26], [75.18, 27.54], [75.18, 27.54], [75.18, 27.54], [77.34, 27.18], [78.9, 26.34], [78.9, 26.34], [78.9, 26.34], [78.9, 26.34]]}, "properties": {"kind": "member_track", "member": 12, "track": 0, "hazard": "cold_wave", "leads_h": [66, 72, 78, 84, 90, 96, 102, 108, 114, 120, 126, 132, 138, 144, 150], "max_event_prob": 1.0, "main": true}}, {"type": "Feature", "geometry": {"type": "LineString", "coordinates": [[73.86, 28.38], [73.86, 28.38], [73.86, 28.38], [77.1, 26.82], [77.1, 26.82], [76.26, 26.82], [76.38, 26.82], [77.22, 27.3], [77.22, 27.3], [77.22, 27.3], [77.22, 27.3], [78.9, 27.06], [78.9, 27.06], [78.9, 27.06], [78.9, 27.06], [83.58, 25.38], [83.58, 25.38], [83.7, 25.38]]}, "properties": {"kind": "member_track", "member": 13, "track": 0, "hazard": "cold_wave", "leads_h": [66, 72, 78, 84, 90, 96, 102, 108, 114, 120, 126, 132, 138, 144, 150, 162, 168, 174], "max_event_prob": 1.0, "main": true}}, {"type": "Feature", "geometry": {"type": "LineString", "coordinates": [[73.38, 27.3], [73.38, 27.3], [73.38, 27.3], [75.06, 26.94], [75.06, 26.94], [75.06, 26.94], [75.06, 26.94], [76.14, 26.46], [76.14, 26.46], [76.14, 26.46], [76.26, 26.46], [78.78, 26.1], [78.78, 26.1], [78.66, 26.1], [78.66, 26.1], [78.66, 25.14], [78.66, 25.14], [78.66, 25.14], [78.54, 25.14]]}, "properties": {"kind": "member_track", "member": 14, "track": 0, "hazard": "cold_wave", "leads_h": [66, 72, 78, 84, 90, 96, 102, 108, 114, 120, 126, 132, 138, 144, 150, 156, 162, 168, 174], "max_event_prob": 1.0, "main": true}}, {"type": "Feature", "geometry": {"type": "LineString", "coordinates": [[73.98, 30.06], [73.5, 29.22], [73.5, 29.22], [73.5, 29.22], [76.38, 28.26], [76.38, 28.26], [76.26, 28.26], [76.5, 28.26], [78.42, 27.3], [78.42, 27.3], [78.42, 27.3], [78.42, 27.3], [79.02, 26.7], [79.02, 26.7], [79.02, 26.7], [78.9, 26.7], [79.26, 26.58], [79.26, 26.58], [79.26, 26.58], [79.26, 26.58]]}, "properties": {"kind": "member_track", "member": 15, "track": 0, "hazard": "cold_wave", "leads_h": [54, 66, 72, 78, 84, 90, 96, 102, 108, 114, 120, 126, 132, 138, 144, 150, 156, 162, 168, 174], "max_event_prob": 1.0, "main": true}}, {"type": "Feature", "geometry": {"type": "LineString", "coordinates": [[74.1, 26.82], [74.1, 26.82], [74.1, 26.82], [75.18, 26.7], [75.18, 26.7], [75.18, 26.7], [75.42, 26.58], [78.3, 25.5], [78.3, 25.5], [78.3, 25.5], [78.3, 25.5], [77.34, 25.38], [77.34, 25.38], [77.34, 25.38], [77.34, 25.38], [78.66, 24.42], [78.66, 24.42], [78.66, 24.42], [78.66, 24.42]]}, "properties": {"kind": "member_track", "member": 16, "track": 0, "hazard": "cold_wave", "leads_h": [66, 72, 78, 84, 90, 96, 102, 108, 114, 120, 126, 132, 138, 144, 150, 156, 162, 168, 174], "max_event_prob": 1.0, "main": true}}, {"type": "Feature", "geometry": {"type": "LineString", "coordinates": [[75.42, 27.9], [75.42, 27.9], [75.54, 27.78], [76.14, 26.82], [76.14, 26.82], [76.14, 26.82], [76.14, 26.82], [76.38, 27.06], [76.38, 27.06], [76.38, 27.06], [76.38, 27.06], [76.98, 26.82], [76.98, 26.82], [76.98, 26.82], [76.98, 26.82], [77.82, 26.1], [77.82, 26.1], [77.82, 26.1], [77.82, 26.1]]}, "properties": {"kind": "member_track", "member": 17, "track": 0, "hazard": "cold_wave", "leads_h": [66, 72, 78, 84, 90, 96, 102, 108, 114, 120, 126, 132, 138, 144, 150, 156, 162, 168, 174], "max_event_prob": 1.0, "main": true}}, {"type": "Feature", "geometry": {"type": "LineString", "coordinates": [[74.7, 28.98], [74.7, 29.1], [74.7, 29.1], [74.94, 28.02], [74.94, 28.02], [74.94, 28.02], [74.94, 28.02], [76.98, 27.42], [76.98, 27.42], [76.86, 27.42], [77.1, 27.42], [79.38, 26.1], [79.38, 26.1], [79.26, 26.1], [79.26, 26.1]]}, "properties": {"kind": "member_track", "member": 18, "track": 0, "hazard": "cold_wave", "leads_h": [66, 72, 78, 84, 90, 96, 102, 108, 114, 120, 126, 132, 138, 144, 150], "max_event_prob": 1.0, "main": true}}, {"type": "Feature", "geometry": {"type": "LineString", "coordinates": [[85.86, 24.9], [85.86, 24.9], [85.86, 24.9], [85.86, 24.9]]}, "properties": {"kind": "member_track", "member": 18, "track": 1, "hazard": "cold_wave", "leads_h": [156, 162, 168, 174], "max_event_prob": 0.993, "main": false}}, {"type": "Feature", "geometry": {"type": "LineString", "coordinates": [[74.46, 28.02], [74.46, 28.02], [74.46, 28.02], [74.46, 28.02], [76.38, 27.18], [76.38, 27.18], [76.26, 27.18], [76.38, 27.18], [77.22, 26.58], [77.22, 26.58], [77.22, 26.58], [77.22, 26.58], [78.06, 26.34], [78.06, 26.34], [78.06, 26.34], [78.06, 26.34], [79.62, 26.34], [79.62, 26.34], [79.5, 26.34], [79.62, 26.22]]}, "properties": {"kind": "member_track", "member": 19, "track": 0, "hazard": "cold_wave", "leads_h": [60, 66, 72, 78, 84, 90, 96, 102, 108, 114, 120, 126, 132, 138, 144, 150, 156, 162, 168, 174], "max_event_prob": 1.0, "main": true}}, {"type": "Feature", "geometry": {"type": "LineString", "coordinates": [[74.58000000000001, 29.7], [74.34, 28.2], [74.142, 28.151999999999994], [74.142, 28.163999999999998], [74.196, 28.146000000000004], [75.2466666666667, 27.593333333333334], [75.2466666666667, 27.593333333333334], [75.18666666666668, 27.593333333333334], [75.26000000000002, 27.573333333333334], [76.76666666666667, 27.073333333333338], [76.76666666666667, 27.073333333333338], [76.74666666666667, 27.073333333333338], [76.88666666666666, 27.046666666666667], [78.17999999999999, 26.346666666666664], [78.17999999999999, 26.346666666666664], [78.19333333333333, 26.339999999999996], [78.19333333333333, 26.339999999999996], [78.97714285714285, 25.654285714285717], [79.19142857142856, 25.75714285714286], [79.18285714285715, 25.74857142857143], [79.1123076923077, 25.850769230769234]]}, "properties": {"kind": "consensus", "hazard": "cold_wave", "leads_h": [54, 60, 66, 72, 78, 84, 90, 96, 102, 108, 114, 120, 126, 132, 138, 144, 150, 156, 162, 168, 174], "spread_km": [70.4, 23.2, 76.2, 78.0, 82.6, 107.3, 107.3, 102.3, 106.8, 144.2, 144.2, 144.2, 137.0, 132.9, 132.9, 128.8, 128.8, 128.0, 141.6, 140.8, 136.3], "member_count": [2, 2, 20, 20, 20, 18, 18, 18, 18, 18, 18, 18, 18, 18, 18, 18, 18, 14, 14, 14, 13], "n_members": 20}}, {"type": "Feature", "geometry": {"type": "Polygon", "coordinates": [[[66.72, 15.959999999999999], [91.08, 15.959999999999999], [91.08, 33.72], [66.72, 33.72], [66.72, 15.959999999999999]]]}, "properties": {"kind": "bbox4d", "lat_min": 15.959999999999999, "lat_max": 33.72, "lon_min": 66.72, "lon_max": 91.08, "level_hPa_bottom": 1013, "level_hPa_top": 1013, "t_start": "2023-01-03 18:00:00", "t_end": "2023-01-08 06:00:00", "lead_start_h": 66, "lead_end_h": 174, "member_count_min": 13, "n_members": 20, "hazard": "cold_wave", "source": "GNN consensus"}}]}