{"type": "FeatureCollection", "features": [{"type": "Feature", "geometry": {"type": "LineString", "coordinates": [[73.5, 27.54], [73.5, 27.54], [73.5, 27.54], [73.74, 27.3], [74.22, 27.3], [74.22, 27.3], [74.22, 27.3], [74.34, 27.66], [76.74, 27.42], [76.74, 27.42], [76.74, 27.42], [74.7, 27.9], [75.18, 27.54], [75.18, 27.54], [75.18, 27.54], [75.78, 27.42], [74.82, 27.9], [74.82, 27.9], [74.82, 27.9], [74.94, 27.78], [74.94, 27.3], [74.94, 27.3], [74.94, 27.3], [74.94, 27.42], [74.94, 27.06], [74.94, 27.06], [74.94, 27.06], [74.82, 26.7], [74.82, 24.42], [74.82, 24.42], [74.82, 24.42], [74.94, 24.42]]}, "properties": {"kind": "member_track", "member": 0, "track": 0, "hazard": "heat_dome", "leads_h": [0, 6, 12, 18, 24, 30, 36, 42, 48, 54, 60, 66, 72, 78, 84, 90, 96, 102, 108, 114, 120, 126, 132, 138, 144, 150, 156, 162, 168, 174, 180, 186], "max_event_prob": 1.0, "main": true}}, {"type": "Feature", "geometry": {"type": "LineString", "coordinates": [[73.86, 27.66], [73.86, 27.66], [73.86, 27.66], [78.54, 26.82], [78.66, 26.7], [78.66, 26.7], [78.66, 26.7], [78.18, 26.94], [77.94, 27.06], [77.94, 27.06], [77.94, 27.06], [77.1, 27.18], [76.14, 27.78], [76.14, 27.78], [76.14, 27.78], [76.62, 27.66], [76.74, 27.42], [76.74, 27.42], [76.74, 27.42], [76.26, 27.42], [75.42, 27.66], [75.42, 27.66], [75.42, 27.66], [75.06, 27.78], [75.66, 27.9], [75.66, 27.9], [75.66, 27.9], [75.66, 27.78], [74.22, 26.82]]}, "properties": {"kind": "member_track", "member": 1, "track": 0, "hazard": "heat_dome", "leads_h": [0, 6, 12, 18, 24, 30, 36, 42, 48, 54, 60, 66, 72, 78, 84, 90, 96, 102, 108, 114, 120, 126, 132, 138, 144, 150, 156, 162, 168], "max_event_prob": 1.0, "main": true}}, {"type": "Feature", "geometry": {"type": "LineString", "coordinates": [[73.5, 27.42], [73.5, 27.42], [73.5, 27.42], [73.38, 27.42], [76.62, 26.7], [76.62, 26.7], [76.62, 26.7], [73.62, 27.18], [73.26, 27.3], [73.26, 27.3], [73.26, 27.3], [73.62, 27.18], [73.98, 27.06], [73.98, 27.06], [73.98, 27.06], [73.98, 27.06], [73.5, 26.82], [73.5, 26.82], [73.5, 26.82], [73.02, 26.58], [73.26, 26.22], [73.26, 26.22], [73.26, 26.22], [73.26, 26.22], [72.78, 26.7], [72.78, 26.7], [72.78, 26.7], [73.02, 26.82], [74.1, 28.5]]}, "properties": {"kind": "member_track", "member": 2, "track": 0, "hazard": "heat_dome", "leads_h": [0, 6, 12, 18, 24, 30, 36, 42, 48, 54, 60, 66, 72, 78, 84, 90, 96, 102, 108, 114, 120, 126, 132, 138, 144, 150, 156, 162, 168], "max_event_prob": 1.0, "main": true}}, {"type": "Feature", "geometry": {"type": "LineString", "coordinates": [[73.86, 27.78], [73.86, 27.78], [73.86, 27.78], [74.22, 27.78], [74.94, 27.78], [74.94, 27.78], [74.94, 27.78], [78.78, 27.18], [78.54, 27.3], [78.54, 27.3], [78.54, 27.3], [75.18, 28.02], [75.78, 27.54], [75.78, 27.54], [75.78, 27.54], [75.78, 27.54], [76.62, 27.66], [76.62, 27.66], [76.62, 27.66], [76.74, 27.66], [76.5, 28.14], [76.5, 28.14], [76.5, 28.14], [76.26, 28.14], [76.26, 27.9], [76.26, 27.9], [76.26, 27.9], [76.26, 27.9]]}, "properties": {"kind": "member_track", "member": 3, "track": 0, "hazard": "heat_dome", "leads_h": [0, 6, 12, 18, 24, 30, 36, 42, 48, 54, 60, 66, 72, 78, 84, 90, 96, 102, 108, 114, 120, 126, 132, 138, 144, 150, 156, 162], "max_event_prob": 1.0, "main": true}}, {"type": "Feature", "geometry": {"type": "LineString", "coordinates": [[72.9, 27.66], [72.9, 27.66], [72.9, 27.66], [72.9, 27.66], [72.9, 27.3], [72.9, 27.3], [72.9, 27.3], [73.02, 27.42], [72.9, 27.78], [72.9, 27.78], [72.9, 27.78], [72.9, 27.78], [72.18, 27.66], [72.18, 27.66], [72.18, 27.66], [72.06, 27.66], [71.34, 27.54], [71.34, 27.54], [71.34, 27.54], [71.34, 27.54], [73.14, 26.94], [73.14, 26.94], [73.14, 26.94], [73.14, 26.82], [71.82, 27.66], [71.82, 27.66], [71.82, 27.66], [71.94, 27.66], [73.14, 25.86]]}, "properties": {"kind": "member_track", "member": 4, "track": 0, "hazard": "heat_dome", "leads_h": [0, 6, 12, 18, 24, 30, 36, 42, 48, 54, 60, 66, 72, 78, 84, 90, 96, 102, 108, 114, 120, 126, 132, 138, 144, 150, 156, 162, 168], "max_event_prob": 1.0, "main": true}}, {"type": "Feature", "geometry": {"type": "LineString", "coordinates": [[73.62, 27.54], [73.62, 27.54], [73.62, 27.54], [73.86, 27.3], [76.98, 26.7], [76.98, 26.7], [76.98, 26.7], [77.58, 26.58], [77.7, 26.58], [77.7, 26.58], [77.7, 26.58], [76.74, 26.82], [75.9, 27.06], [75.9, 27.06], [75.9, 27.06], [75.54, 27.06], [80.1, 26.1], [80.1, 26.1], [80.1, 26.1], [80.7, 26.1], [75.78, 26.94], [75.78, 26.94], [75.78, 26.94], [75.66, 27.06], [76.02, 27.42], [76.02, 27.42], [76.02, 27.42], [76.02, 27.3]]}, "properties": {"kind": "member_track", "member": 5, "track": 0, "hazard": "heat_dome", "leads_h": [0, 6, 12, 18, 24, 30, 36, 42, 48, 54, 60, 66, 72, 78, 84, 90, 96, 102, 108, 114, 120, 126, 132, 138, 144, 150, 156, 162], "max_event_prob": 1.0, "main": true}}, {"type": "Feature", "geometry": {"type": "LineString", "coordinates": [[73.74, 27.66], [73.74, 27.66], [73.74, 27.66], [73.86, 27.54], [74.22, 27.18], [74.22, 27.18], [74.22, 27.18], [74.34, 27.3], [73.86, 27.3], [73.86, 27.3], [73.86, 27.3], [74.22, 27.06], [75.06, 26.7], [75.06, 26.7], [75.06, 26.7], [74.94, 26.7]]}, "properties": {"kind": "member_track", "member": 6, "track": 0, "hazard": "heat_dome", "leads_h": [0, 6, 12, 18, 24, 30, 36, 42, 48, 54, 60, 66, 72, 78, 84, 90], "max_event_prob": 1.0, "main": true}}, {"type": "Feature", "geometry": {"type": "LineString", "coordinates": [[73.62, 27.66], [73.62, 27.66], [73.62, 27.66], [73.98, 27.54], [74.22, 27.18], [74.22, 27.18], [74.22, 27.18], [74.7, 27.06], [74.7, 26.94], [74.7, 26.94], [74.7, 26.94], [74.7, 26.82], [74.82, 26.46], [74.82, 26.46], [74.82, 26.46], [74.7, 26.58], [74.82, 26.58], [74.82, 26.58], [74.82, 26.58], [74.82, 26.22], [74.94, 25.5], [74.94, 25.5], [74.94, 25.5], [74.82, 25.5], [74.46, 25.62], [74.46, 25.62], [74.46, 25.62], [74.46, 25.5], [75.3, 24.3], [75.3, 24.3], [75.3, 24.3], [75.3, 24.18], [74.46, 23.82], [74.46, 23.82]]}, "properties": {"kind": "member_track", "member": 7, "track": 0, "hazard": "heat_dome", "leads_h": [0, 6, 12, 18, 24, 30, 36, 42, 48, 54, 60, 66, 72, 78, 84, 90, 96, 102, 108, 114, 120, 126, 132, 138, 144, 150, 156, 162, 168, 174, 180, 186, 192, 198], "max_event_prob": 1.0, "main": true}}, {"type": "Feature", "geometry": {"type": "LineString", "coordinates": [[73.14, 27.42], [73.14, 27.42], [73.14, 27.42], [73.38, 27.3], [73.62, 26.94], [73.62, 26.94], [73.62, 26.94], [74.46, 26.94], [74.22, 26.82], [74.22, 26.82], [74.22, 26.82], [74.22, 26.82], [74.1, 26.7], [74.1, 26.7], [74.1, 26.7], [73.62, 26.58], [70.62, 26.46], [70.62, 26.46], [70.62, 26.46], [70.62, 26.34], [71.46, 26.7], [71.46, 26.7], [71.46, 26.7], [71.82, 26.46], [72.54, 26.1], [72.54, 26.1], [72.54, 26.1], [72.54, 26.22], [73.02, 26.34]]}, "properties": {"kind": "member_track", "member": 8, "track": 0, "hazard": "heat_dome", "leads_h": [0, 6, 12, 18, 24, 30, 36, 42, 48, 54, 60, 66, 72, 78, 84, 90, 96, 102, 108, 114, 120, 126, 132, 138, 144, 150, 156, 162, 168], "max_event_prob": 1.0, "main": true}}, {"type": "Feature", "geometry": {"type": "LineString", "coordinates": [[73.86, 27.78], [73.86, 27.78], [73.86, 27.78], [73.98, 27.78], [74.1, 27.78], [74.1, 27.78], [74.1, 27.78], [74.1, 27.9], [74.34, 28.14], [74.34, 28.14], [74.34, 28.14], [74.34, 28.14], [75.3, 28.02], [75.3, 28.02], [75.3, 28.02], [75.18, 28.02], [74.94, 28.62], [74.94, 28.62], [74.94, 28.62], [74.82, 28.62], [74.7, 28.74], [74.7, 28.74], [74.7, 28.74], [74.7, 28.86], [74.7, 28.86], [74.7, 28.86], [74.7, 28.86], [74.58, 28.86], [73.86, 28.62]]}, "properties": {"kind": "member_track", "member": 9, "track": 0, "hazard": "heat_dome", "leads_h": [0, 6, 12, 18, 24, 30, 36, 42, 48, 54, 60, 66, 72, 78, 84, 90, 96, 102, 108, 114, 120, 126, 132, 138, 144, 150, 156, 162, 168], "max_event_prob": 1.0, "main": true}}, {"type": "Feature", "geometry": {"type": "LineString", "coordinates": [[73.74, 27.78], [73.74, 27.78], [73.74, 27.78], [73.98, 27.66], [74.46, 27.54], [74.46, 27.54], [74.46, 27.54], [74.46, 27.66], [74.1, 27.9], [74.1, 27.9], [74.1, 27.9], [74.34, 27.9], [75.18, 27.66], [75.18, 27.66], [75.18, 27.66], [74.94, 27.66], [74.34, 27.78], [74.34, 27.78], [74.34, 27.78], [74.34, 27.78], [74.58, 28.14], [74.58, 28.14], [74.58, 28.14], [74.7, 28.26], [74.94, 28.74], [74.94, 28.74], [74.94, 28.74], [74.94, 28.74], [75.54, 28.26], [75.54, 28.26]]}, "properties": {"kind": "member_track", "member": 10, "track": 0, "hazard": "heat_dome", "leads_h": [0, 6, 12, 18, 24, 30, 36, 42, 48, 54, 60, 66, 72, 78, 84, 90, 96, 102, 108, 114, 120, 126, 132, 138, 144, 150, 156, 162, 168, 174], "max_event_prob": 1.0, "main": true}}, {"type": "Feature", "geometry": {"type": "LineString", "coordinates": [[73.86, 27.54], [73.86, 27.54], [73.86, 27.54], [74.1, 27.42], [78.42, 26.7], [78.42, 26.7], [78.42, 26.7], [74.82, 27.3], [74.82, 27.06], [74.82, 27.06], [74.82, 27.06], [75.18, 27.06], [75.66, 26.58], [75.66, 26.58], [75.66, 26.58], [75.18, 26.58], [74.94, 25.98], [74.94, 25.98], [74.94, 25.98], [74.94, 25.62], [75.54, 25.5], [75.54, 25.5], [75.54, 25.5], [75.78, 25.5], [75.78, 25.14], [75.78, 25.14], [75.78, 25.14], [75.54, 25.14], [73.38, 25.98], [73.38, 25.98]]}, "properties": {"kind": "member_track", "member": 11, "track": 0, "hazard": "heat_dome", "leads_h": [0, 6, 12, 18, 24, 30, 36, 42, 48, 54, 60, 66, 72, 78, 84, 90, 96, 102, 108, 114, 120, 126, 132, 138, 144, 150, 156, 162, 168, 174], "max_event_prob": 1.0, "main": true}}, {"type": "Feature", "geometry": {"type": "LineString", "coordinates": [[73.62, 27.3], [73.62, 27.3], [73.62, 27.3], [73.98, 27.18], [74.34, 27.06], [74.34, 27.06], [74.34, 27.06], [76.02, 26.94], [76.14, 27.18], [76.14, 27.18], [76.14, 27.18], [74.58, 27.54], [74.82, 27.18], [74.82, 27.18], [74.82, 27.18], [74.82, 27.18], [74.1, 27.18], [74.1, 27.18], [74.1, 27.18], [74.1, 27.3], [74.1, 27.54], [74.1, 27.54], [74.1, 27.54], [73.98, 27.42], [73.74, 26.58], [73.74, 26.58], [73.74, 26.58], [73.74, 26.7]]}, "properties": {"kind": "member_track", "member": 12, "track": 0, "hazard": "heat_dome", "leads_h": [0, 6, 12, 18, 24, 30, 36, 42, 48, 54, 60, 66, 72, 78, 84, 90, 96, 102, 108, 114, 120, 126, 132, 138, 144, 150, 156, 162], "max_event_prob": 1.0, "main": true}}, {"type": "Feature", "geometry": {"type": "LineString", "coordinates": [[73.98, 28.02], [73.98, 28.02], [73.98, 28.02], [74.22, 28.02], [74.94, 27.9], [74.94, 27.9], [74.94, 27.9], [74.94, 27.9], [74.58, 28.14], [74.58, 28.14], [74.58, 28.14], [75.06, 28.02], [75.78, 27.54], [75.78, 27.54], [75.78, 27.54], [75.78, 27.42], [75.78, 27.06], [75.78, 27.06], [75.78, 27.06], [75.66, 27.06], [75.18, 27.54], [75.18, 27.54], [75.18, 27.54], [75.06, 27.54], [75.54, 27.66], [75.54, 27.66], [75.54, 27.66], [75.42, 27.06]]}, "properties": {"kind": "member_track", "member": 13, "track": 0, "hazard": "heat_dome", "leads_h": [0, 6, 12, 18, 24, 30, 36, 42, 48, 54, 60, 66, 72, 78, 84, 90, 96, 102, 108, 114, 120, 126, 132, 138, 144, 150, 156, 162], "max_event_prob": 1.0, "main": true}}, {"type": "Feature", "geometry": {"type": "LineString", "coordinates": [[73.5, 27.42], [73.5, 27.42], [73.5, 27.42], [73.5, 27.42], [73.5, 27.06], [73.5, 27.06], [73.5, 27.06], [73.62, 27.06], [73.26, 27.06], [73.26, 27.06], [73.26, 27.06], [73.26, 26.82], [72.78, 25.74], [72.78, 25.74], [72.78, 25.74], [72.66, 25.86], [73.26, 25.02], [73.26, 25.02], [73.26, 25.02], [73.14, 25.26]]}, "properties": {"kind": "member_track", "member": 14, "track": 0, "hazard": "heat_dome", "leads_h": [0, 6, 12, 18, 24, 30, 36, 42, 48, 54, 60, 66, 72, 78, 84, 90, 96, 102, 108, 114], "max_event_prob": 1.0, "main": true}}, {"type": "Feature", "geometry": {"type": "LineString", "coordinates": [[73.5, 27.54], [73.5, 27.54], [73.5, 27.54], [76.98, 27.06], [76.86, 26.94], [76.86, 26.94], [76.86, 26.94], [76.02, 27.18], [74.7, 27.54], [74.7, 27.54], [74.7, 27.54], [73.98, 27.66], [74.46, 27.66], [74.46, 27.66], [74.46, 27.66], [74.34, 27.42], [74.34, 27.18], [74.34, 27.18], [74.34, 27.18], [74.34, 27.3], [74.22, 27.9], [74.22, 27.9], [74.22, 27.9], [74.22, 27.9], [73.98, 28.86], [73.98, 28.86], [73.98, 28.86], [73.98, 28.86], [73.38, 30.78]]}, "properties": {"kind": "member_track", "member": 15, "track": 0, "hazard": "heat_dome", "leads_h": [0, 6, 12, 18, 24, 30, 36, 42, 48, 54, 60, 66, 72, 78, 84, 90, 96, 102, 108, 114, 120, 126, 132, 138, 144, 150, 156, 162, 168], "max_event_prob": 1.0, "main": true}}, {"type": "Feature", "geometry": {"type": "LineString", "coordinates": [[73.5, 27.42], [73.5, 27.42], [73.5, 27.42], [73.62, 27.18], [73.62, 27.06], [73.62, 27.06], [73.62, 27.06], [73.86, 27.06], [73.98, 27.18], [73.98, 27.18], [73.98, 27.18], [73.98, 27.06], [74.1, 26.94], [74.1, 26.94], [74.1, 26.94], [73.98, 26.94], [74.34, 26.94], [74.34, 26.94], [74.34, 26.94], [74.34, 26.94], [74.46, 26.7], [74.46, 26.7], [74.46, 26.7], [74.94, 26.58], [75.42, 26.58], [75.42, 26.58], [75.42, 26.58], [75.78, 26.22], [76.02, 26.1], [76.02, 26.1], [76.02, 26.1]]}, "properties": {"kind": "member_track", "member": 16, "track": 0, "hazard": "heat_dome", "leads_h": [0, 6, 12, 18, 24, 30, 36, 42, 48, 54, 60, 66, 72, 78, 84, 90, 96, 102, 108, 114, 120, 126, 132, 138, 144, 150, 156, 162, 168, 174, 180], "max_event_prob": 1.0, "main": true}}, {"type": "Feature", "geometry": {"type": "LineString", "coordinates": [[73.62, 27.66], [73.62, 27.66], [73.62, 27.66], [73.74, 27.42], [73.98, 27.06], [73.98, 27.06], [73.98, 27.06], [74.22, 27.3], [73.98, 27.66], [73.98, 27.66], [73.98, 27.66], [74.58, 27.42], [74.94, 26.94], [74.94, 26.94], [74.94, 26.94], [74.82, 26.94], [75.54, 26.58], [75.54, 26.58], [75.54, 26.58], [75.18, 26.7], [74.94, 27.06], [74.94, 27.06], [74.94, 27.06], [74.82, 27.18], [74.34, 27.3], [74.34, 27.3], [74.34, 27.3], [74.34, 27.18], [73.5, 27.3], [73.5, 27.3]]}, "properties": {"kind": "member_track", "member": 17, "track": 0, "hazard": "heat_dome", "leads_h": [0, 6, 12, 18, 24, 30, 36, 42, 48, 54, 60, 66, 72, 78, 84, 90, 96, 102, 108, 114, 120, 126, 132, 138, 144, 150, 156, 162, 168, 174], "max_event_prob": 1.0, "main": true}}, {"type": "Feature", "geometry": {"type": "LineString", "coordinates": [[73.62, 27.78], [73.62, 27.78], [73.62, 27.78], [73.98, 27.66], [74.46, 27.42], [74.46, 27.42], [74.46, 27.42], [74.94, 27.42], [74.58, 27.78], [74.58, 27.78], [74.58, 27.78], [74.22, 27.9], [74.94, 27.54], [74.94, 27.54], [74.94, 27.54], [74.7, 27.54], [74.22, 27.66], [74.22, 27.66], [74.22, 27.66], [74.46, 27.66], [74.7, 27.3], [74.7, 27.3], [74.7, 27.3], [74.58, 27.06], [75.66, 26.58], [75.66, 26.58], [75.66, 26.58], [74.1, 26.58], [73.02, 26.46], [73.02, 26.46], [73.02, 26.46]]}, "properties": {"kind": "member_track", "member": 18, "track": 0, "hazard": "heat_dome", "leads_h": [0, 6, 12, 18, 24, 30, 36, 42, 48, 54, 60, 66, 72, 78, 84, 90, 96, 102, 108, 114, 120, 126, 132, 138, 144, 150, 156, 162, 168, 174, 180], "max_event_prob": 1.0, "main": true}}, {"type": "Feature", "geometry": {"type": "LineString", "coordinates": [[73.98, 28.14], [73.98, 28.14], [73.98, 28.14], [74.1, 28.14], [74.58, 28.26], [74.58, 28.26], [74.58, 28.26], [74.7, 28.38], [74.7, 28.62], [74.7, 28.62], [74.7, 28.62], [74.94, 28.62], [75.18, 28.26], [75.18, 28.26], [75.18, 28.26], [75.06, 28.14], [75.42, 28.02], [75.42, 28.02], [75.42, 28.02], [75.42, 27.78], [75.66, 27.06], [75.66, 27.06], [75.66, 27.06], [75.66, 26.94], [75.54, 27.66]]}, "properties": {"kind": "member_track", "member": 19, "track": 0, "hazard": "heat_dome", "leads_h": [0, 6, 12, 18, 24, 30, 36, 42, 48, 54, 60, 66, 72, 78, 84, 90, 96, 102, 108, 114, 120, 126, 132, 138, 144], "max_event_prob": 1.0, "main": true}}, {"type": "Feature", "geometry": {"type": "LineString", "coordinates": [[78.3, 37.38], [78.3, 37.38], [78.3, 37.38], [78.3, 37.38], [78.3, 37.38], [78.3, 37.38], [78.3, 37.38], [78.3, 37.38]]}, "properties": {"kind": "member_track", "member": 19, "track": 1, "hazard": "heat_dome", "leads_h": [120, 126, 132, 138, 144, 150, 156, 162], "max_event_prob": 0.999, "main": false}}, {"type": "Feature", "geometry": {"type": "LineString", "coordinates": [[73.626, 27.636000000000003], [73.626, 27.636000000000003], [73.626, 27.636000000000003], [74.20200000000001, 27.480000000000008], [74.982, 27.227999999999998], [74.982, 27.227999999999998], [74.982, 27.227999999999998], [75.036, 27.318], [74.95200000000001, 27.438], [74.95200000000001, 27.438], [74.95200000000001, 27.438], [74.59200000000001, 27.486], [74.814, 27.228], [74.814, 27.228], [74.814, 27.228], [74.724, 27.198], [74.72526315789473, 27.07894736842105], [74.72526315789473, 27.07894736842105], [74.72526315789473, 27.07894736842105], [74.69368421052631, 27.03473684210526], [74.64000000000003, 27.160000000000004], [74.64000000000003, 27.160000000000004], [74.64000000000003, 27.160000000000004], [74.63333333333333, 27.146666666666665], [74.67333333333333, 27.24], [74.62235294117647, 27.21529411764706], [74.62235294117647, 27.21529411764706], [74.53764705882351, 27.13058823529412], [74.1, 26.903076923076924], [74.51142857142858, 26.11714285714286], [74.78999999999999, 25.32], [75.12, 24.3], [74.46, 23.82], [74.46, 23.82]]}, "properties": {"kind": "consensus", "hazard": "heat_dome", "leads_h": [0, 6, 12, 18, 24, 30, 36, 42, 48, 54, 60, 66, 72, 78, 84, 90, 96, 102, 108, 114, 120, 126, 132, 138, 144, 150, 156, 162, 168, 174, 180, 186, 192, 198], "spread_km": [28.3, 28.3, 28.3, 82.8, 139.4, 139.4, 139.4, 125.2, 139.7, 139.7, 139.7, 93.4, 98.1, 98.1, 98.1, 100.4, 167.3, 167.3, 167.3, 170.8, 122.7, 122.7, 122.7, 121.0, 152.6, 156.3, 156.3, 153.0, 187.0, 178.7, 148.3, 22.6, 0.0, 0.0], "member_count": [20, 20, 20, 20, 20, 20, 20, 20, 20, 20, 20, 20, 20, 20, 20, 20, 19, 19, 19, 19, 18, 18, 18, 18, 18, 17, 17, 17, 13, 7, 4, 2, 1, 1], "n_members": 20}}, {"type": "Feature", "geometry": {"type": "Polygon", "coordinates": [[[66.6, 13.68], [86.4, 13.68], [86.4, 35.52], [66.6, 35.52], [66.6, 13.68]]]}, "properties": {"kind": "bbox4d", "lat_min": 13.68, "lat_max": 35.52, "lon_min": 66.6, "lon_max": 86.4, "level_hPa_bottom": 1013, "level_hPa_top": 1013, "t_start": "2024-05-15 00:00:00", "t_end": "2024-05-22 00:00:00", "lead_start_h": 0, "lead_end_h": 168, "member_count_min": 13, "n_members": 20, "hazard": "heat_dome", "source": "GNN consensus"}}]}